{
"type": "FeatureCollection",
"name": "geo_15_訪問入浴介護",
"crs": { "type": "name", "properties": { "name": "urn:ogc:def:crs:OGC:1.3:CRS84" } },
"features": [
{ "type": "Feature", "properties": { "内容": "ツクイ新潟猿ヶ馬場【訪問入浴介護】新潟県新潟市東区猿ケ馬場2-12-17", "url": "https://www.kaigokensaku.mhlw.go.jp/15/index.php?action_kouhyou_detail_004_kani=true&JigyosyoCd=1570102234-00&ServiceCd=120&Type=search", "url2": "https://www.tsukui.net/home-care/2222/" }, "geometry": { "type": "Point", "coordinates": [ 139.116674, 37.907515500000017 ] } },
{ "type": "Feature", "properties": { "内容": "アースサポート新潟【訪問入浴介護】新潟県新潟市中央区鐙一丁目4番28号", "url": "https://www.kaigokensaku.mhlw.go.jp/15/index.php?action_kouhyou_detail_004_kani=true&JigyosyoCd=1570102549-00&ServiceCd=120&Type=search", "url2": "http://www.earthsupport.co.jp" }, "geometry": { "type": "Point", "coordinates": [ 139.066091899999947, 37.9041167 ] } },
{ "type": "Feature", "properties": { "内容": "ニチイケアセンターかわぐち【訪問入浴介護】新潟県新潟市秋葉区川口138-1", "url": "https://www.kaigokensaku.mhlw.go.jp/15/index.php?action_kouhyou_detail_004_kani=true&JigyosyoCd=1570103554-00&ServiceCd=120&Type=search", "url2": "http://www.nichiigakkan.co.jp" }, "geometry": { "type": "Point", "coordinates": [ 139.1179717, 37.8164449 ] } },
{ "type": "Feature", "properties": { "内容": "ツクイ新潟西【訪問入浴介護】新潟県新潟市西区五十嵐東1-6-32", "url": "https://www.kaigokensaku.mhlw.go.jp/15/index.php?action_kouhyou_detail_004_kani=true&JigyosyoCd=1570101590-00&ServiceCd=120&Type=search", "url2": "https://corp.tsukui.net" }, "geometry": { "type": "Point", "coordinates": [ 138.9591355, 37.8746471 ] } },
{ "type": "Feature", "properties": { "内容": "アースサポート新潟西【訪問入浴介護】新潟県新潟市西区坂井831番地3", "url": "https://www.kaigokensaku.mhlw.go.jp/15/index.php?action_kouhyou_detail_004_kani=true&JigyosyoCd=1570108991-00&ServiceCd=120&Type=search", "url2": "http://www.earthsupport.co.jp" }, "geometry": { "type": "Point", "coordinates": [ 138.955559641802978, 37.866583407740734 ] } },
{ "type": "Feature", "properties": { "内容": "アレック北栄　長岡【訪問入浴介護】長岡市雨池町44-5", "url": "https://www.kaigokensaku.mhlw.go.jp/15/index.php?action_kouhyou_detail_004_kani=true&JigyosyoCd=1570200244-00&ServiceCd=120&Type=search", "url2": "http://www.alec-hokuei.co.jp" }, "geometry": { "type": "Point", "coordinates": [ 138.8173825, 37.4679284 ] } },
{ "type": "Feature", "properties": { "内容": "アースサポート長岡【訪問入浴介護】新潟県長岡市山田３丁目３番１９号", "url": "https://www.kaigokensaku.mhlw.go.jp/15/index.php?action_kouhyou_detail_004_kani=true&JigyosyoCd=1570202752-00&ServiceCd=120&Type=search", "url2": "http://www.earthsupport.co.jp/" }, "geometry": { "type": "Point", "coordinates": [ 138.839067399999976, 37.4469787 ] } },
{ "type": "Feature", "properties": { "内容": "ツクイ三条【訪問入浴介護】新潟県三条市東三条１－１１－１１", "url": "https://www.kaigokensaku.mhlw.go.jp/15/index.php?action_kouhyou_detail_004_kani=true&JigyosyoCd=1570400414-00&ServiceCd=120&Type=search", "url2": "http://www.tsukui.net" }, "geometry": { "type": "Point", "coordinates": [ 138.971927199999982, 37.6305302 ] } },
{ "type": "Feature", "properties": { "内容": "ニチイケアセンターいしがみ【訪問入浴介護】新潟県三条市石上2丁目1番25号", "url": "https://www.kaigokensaku.mhlw.go.jp/15/index.php?action_kouhyou_detail_004_kani=true&JigyosyoCd=1570401636-00&ServiceCd=120&Type=search", "url2": "http://www.nichiigakkan.co.jp" }, "geometry": { "type": "Point", "coordinates": [ 138.951867600000014, 37.6430613 ] } },
{ "type": "Feature", "properties": { "内容": "柏崎市社会福祉協議会訪問入浴介護事業所【訪問入浴介護】柏崎市扇町３－３７扇町介護保険事業センター", "url": "https://www.kaigokensaku.mhlw.go.jp/15/index.php?action_kouhyou_detail_004_kani=true&JigyosyoCd=1570500197-00&ServiceCd=120&Type=search", "url2": "http://www.syakyou.jp" }, "geometry": { "type": "Point", "coordinates": [ 138.5708184, 37.3655538 ] } },
{ "type": "Feature", "properties": { "内容": "アースサポート柏崎【訪問入浴介護】新潟県柏崎市大字横山1959-1", "url": "https://www.kaigokensaku.mhlw.go.jp/15/index.php?action_kouhyou_detail_004_kani=true&JigyosyoCd=1570500882-00&ServiceCd=120&Type=search", "url2": "http://www.earthsupport.co.jp/" }, "geometry": { "type": "Point", "coordinates": [ 138.56828529580082, 37.345434089560655 ] } },
{ "type": "Feature", "properties": { "内容": "ツクイ　新発田【訪問入浴介護】新潟県新発田市新富町2丁目6-20タートル新富1F", "url": "https://www.kaigokensaku.mhlw.go.jp/15/index.php?action_kouhyou_detail_004_kani=true&JigyosyoCd=1570600161-00&ServiceCd=120&Type=search", "url2": "http://www.tsukui.net" }, "geometry": { "type": "Point", "coordinates": [ 139.3419156, 37.9565132 ] } },
{ "type": "Feature", "properties": { "内容": "アースサポート新発田【訪問入浴介護】新潟県新発田市舟入町２丁目３番３７号", "url": "https://www.kaigokensaku.mhlw.go.jp/15/index.php?action_kouhyou_detail_004_kani=true&JigyosyoCd=1570601383-00&ServiceCd=120&Type=search", "url2": "http://www.earthsupport.co.jp/" }, "geometry": { "type": "Point", "coordinates": [ 139.311286, 37.9540428 ] } },
{ "type": "Feature", "properties": { "内容": "社会福祉法人　十日町市社会福祉協議会　訪問入浴介護事業所【訪問入浴介護】新潟県十日町市本町2丁目226番地1十日町市市民交流センター3階", "url": "https://www.kaigokensaku.mhlw.go.jp/15/index.php?action_kouhyou_detail_004_kani=true&JigyosyoCd=1571000445-00&ServiceCd=120&Type=search", "url2": "http://www.tkm-shakyo.or.jp/" }, "geometry": { "type": "Point", "coordinates": [ 138.76055980000001, 37.1320427 ] } },
{ "type": "Feature", "properties": { "内容": "アースサポート村上【訪問入浴介護】新潟県村上市緑町2-1-10", "url": "https://www.kaigokensaku.mhlw.go.jp/15/index.php?action_kouhyou_detail_004_kani=true&JigyosyoCd=1571201274-00&ServiceCd=120&Type=search", "url2": "http://www.earthsupport.co.jp" }, "geometry": { "type": "Point", "coordinates": [ 139.45925045092622, 38.220353135224521 ] } },
{ "type": "Feature", "properties": { "内容": "ツクイ　村上飯野【訪問入浴介護】村上市飯野2-8-20", "url": "https://www.kaigokensaku.mhlw.go.jp/15/index.php?action_kouhyou_detail_004_kani=true&JigyosyoCd=1571200235-00&ServiceCd=120&Type=search", "url2": "http://www.tsukui.net/search/2247/detail.html" }, "geometry": { "type": "Point", "coordinates": [ 139.471922, 38.2206432 ] } },
{ "type": "Feature", "properties": { "内容": "村上市社会福祉協議会　訪問入浴むらかみ【訪問入浴介護】新潟県村上市岩沢5611番地", "url": "https://www.kaigokensaku.mhlw.go.jp/15/index.php?action_kouhyou_detail_004_kani=true&JigyosyoCd=1571200854-00&ServiceCd=120&Type=search", "url2": "http://www.murakamisyakyou.com/" }, "geometry": { "type": "Point", "coordinates": [ 139.538520799999986, 38.268446 ] } },
{ "type": "Feature", "properties": { "内容": "さくらメディカル株式会社　訪問入浴介護事業所【訪問入浴介護】新潟県上越市大字鴨島11-1", "url": "https://www.kaigokensaku.mhlw.go.jp/15/index.php?action_kouhyou_detail_004_kani=true&JigyosyoCd=1570300416-00&ServiceCd=120&Type=search", "url2": "http://www.sakura-medical.com/" }, "geometry": { "type": "Point", "coordinates": [ 138.277958900000016, 37.113208 ] } },
{ "type": "Feature", "properties": { "内容": "ツクイ上越栄町【訪問入浴介護】新潟県上越市栄町1-7-26", "url": "https://www.kaigokensaku.mhlw.go.jp/15/index.php?action_kouhyou_detail_004_kani=true&JigyosyoCd=1570303683-00&ServiceCd=120&Type=search", "url2": "http://www.tsukui.net" }, "geometry": { "type": "Point", "coordinates": [ 138.242357867051737, 37.162624711525119 ] } },
{ "type": "Feature", "properties": { "内容": "ツクイ佐渡かない【訪問入浴介護】新潟県佐渡市吉井本郷字新町１４４－１", "url": "https://www.kaigokensaku.mhlw.go.jp/15/index.php?action_kouhyou_detail_004_kani=true&JigyosyoCd=1572200218-00&ServiceCd=120&Type=search", "url2": "https://www.tsukui.net/home-care/2391/" }, "geometry": { "type": "Point", "coordinates": [ 138.391858966934251, 38.046364835274062 ] } },
{ "type": "Feature", "properties": { "内容": "社協訪問入浴介護事業所【訪問入浴介護】新潟県佐渡市畑野甲５３１番地２", "url": "https://www.kaigokensaku.mhlw.go.jp/15/index.php?action_kouhyou_detail_004_kani=true&JigyosyoCd=1572200366-00&ServiceCd=120&Type=search", "url2": "https://care-net.biz/15/sado-shakyo/b12.php" }, "geometry": { "type": "Point", "coordinates": [ 138.4016622, 37.9976597 ] } },
{ "type": "Feature", "properties": { "内容": "こころの杜訪問入浴事業所【訪問入浴介護】新潟県南魚沼市六日町1148番地1", "url": "https://www.kaigokensaku.mhlw.go.jp/15/index.php?action_kouhyou_detail_004_kani=true&JigyosyoCd=1575700578-00&ServiceCd=120&Type=search", "url2": "http://naebafukushikai.com/" }, "geometry": { "type": "Point", "coordinates": [ 138.876756699999987, 37.0579116 ] } },
{ "type": "Feature", "properties": { "内容": "ヘルパーステーション　大輪【訪問入浴介護】東蒲原郡阿賀町平堀１８５５番地", "url": "https://www.kaigokensaku.mhlw.go.jp/15/index.php?action_kouhyou_detail_004_kani=true&JigyosyoCd=1575400302-00&ServiceCd=120&Type=search", "url2": null }, "geometry": { "type": "Point", "coordinates": [ 139.4689376, 37.6702196 ] } }
]
}
