{
"type": "FeatureCollection",
"name": "geo_15_短期入所生活介護",
"crs": { "type": "name", "properties": { "name": "urn:ogc:def:crs:OGC:1.3:CRS84" } },
"features": [
{ "type": "Feature", "properties": { "内容": "ショートステイありがとう【短期入所生活介護】新潟県新潟市北区松浜東町二丁目1番39号", "url2": "https://www.kaigokensaku.mhlw.go.jp/15/index.php?action_kouhyou_detail_004_kani=true&JigyosyoCd=1570114247-00&ServiceCd=210&Type=search" }, "geometry": { "type": "Point", "coordinates": [ 139.1556455, 37.9524419 ] } },
{ "type": "Feature", "properties": { "内容": "守庵良寛ショートステイ木崎【短期入所生活介護】新潟県新潟市北区木崎１１７８－３", "url2": "https://www.kaigokensaku.mhlw.go.jp/15/index.php?action_kouhyou_detail_004_kani=true&JigyosyoCd=1570114015-00&ServiceCd=210&Type=search" }, "geometry": { "type": "Point", "coordinates": [ 139.1930261, 37.9396543 ] } },
{ "type": "Feature", "properties": { "内容": "ショートステイ江風苑【短期入所生活介護】新潟県新潟市北区大迎1330番地", "url2": "https://www.kaigokensaku.mhlw.go.jp/15/index.php?action_kouhyou_detail_004_kani=true&JigyosyoCd=1570109312-00&ServiceCd=210&Type=search" }, "geometry": { "type": "Point", "coordinates": [ 139.172635, 37.8839939 ] } },
{ "type": "Feature", "properties": { "内容": "藤の木の里【短期入所生活介護】新潟県新潟市北区樋ノ入1144番地1", "url2": "https://www.kaigokensaku.mhlw.go.jp/15/index.php?action_kouhyou_detail_004_kani=true&JigyosyoCd=1570103943-00&ServiceCd=210&Type=search" }, "geometry": { "type": "Point", "coordinates": [ 139.180968900000039, 37.9415067 ] } },
{ "type": "Feature", "properties": { "内容": "ショートステイカナンの里【短期入所生活介護】新潟県新潟市北区太子堂239番地", "url2": "https://www.kaigokensaku.mhlw.go.jp/15/index.php?action_kouhyou_detail_004_kani=true&JigyosyoCd=1570107381-00&ServiceCd=210&Type=search" }, "geometry": { "type": "Point", "coordinates": [ 139.165344900000036, 37.8887518 ] } },
{ "type": "Feature", "properties": { "内容": "株式会社　ニイガタ福祉ケアサービス　ショートステイ新崎の杜【短期入所生活介護】新潟県新潟市北区新崎1丁目6番7号", "url2": "https://www.kaigokensaku.mhlw.go.jp/15/index.php?action_kouhyou_detail_004_kani=true&JigyosyoCd=1570107589-00&ServiceCd=210&Type=search" }, "geometry": { "type": "Point", "coordinates": [ 139.151688899999954, 37.9228977 ] } },
{ "type": "Feature", "properties": { "内容": "ショートステイ新屋敷まつはま園【短期入所生活介護】新潟県新潟市北区松浜本町４丁目１番２０号", "url2": "https://www.kaigokensaku.mhlw.go.jp/15/index.php?action_kouhyou_detail_004_kani=true&JigyosyoCd=1570108769-00&ServiceCd=210&Type=search" }, "geometry": { "type": "Point", "coordinates": [ 139.139282534137948, 37.950498924786189 ] } },
{ "type": "Feature", "properties": { "内容": "ショートステイまつはま園【短期入所生活介護】新潟県新潟市北区太夫浜１７４７番地", "url2": "https://www.kaigokensaku.mhlw.go.jp/15/index.php?action_kouhyou_detail_004_kani=true&JigyosyoCd=1570100469-00&ServiceCd=210&Type=search" }, "geometry": { "type": "Point", "coordinates": [ 139.154917699999942, 37.9538501 ] } },
{ "type": "Feature", "properties": { "内容": "特別養護老人ホーム愛宕の園【短期入所生活介護】新潟県新潟市北区松潟1510番地", "url2": "https://www.kaigokensaku.mhlw.go.jp/15/index.php?action_kouhyou_detail_004_kani=true&JigyosyoCd=1570101269-00&ServiceCd=210&Type=search" }, "geometry": { "type": "Point", "coordinates": [ 139.173792400000025, 37.930155199999987 ] } },
{ "type": "Feature", "properties": { "内容": "特別養護老人ホーム　なぎさの里【短期入所生活介護】新潟県新潟市北区島見町4524-13", "url2": "https://www.kaigokensaku.mhlw.go.jp/15/index.php?action_kouhyou_detail_004_kani=true&JigyosyoCd=1570102838-00&ServiceCd=210&Type=search" }, "geometry": { "type": "Point", "coordinates": [ 139.187059, 37.9582275 ] } },
{ "type": "Feature", "properties": { "内容": "特別養護老人ホーム　ながうらの郷【短期入所生活介護】新潟県新潟市北区上土地亀２４３３番地１", "url2": "https://www.kaigokensaku.mhlw.go.jp/15/index.php?action_kouhyou_detail_004_kani=true&JigyosyoCd=1570103968-00&ServiceCd=210&Type=search" }, "geometry": { "type": "Point", "coordinates": [ 139.212103899999988, 37.898881100000011 ] } },
{ "type": "Feature", "properties": { "内容": "特別養護老人ホームほうせい園【短期入所生活介護】新潟県新潟市北区葛塚618番地", "url2": "https://www.kaigokensaku.mhlw.go.jp/15/index.php?action_kouhyou_detail_004_kani=true&JigyosyoCd=1570103950-00&ServiceCd=210&Type=search" }, "geometry": { "type": "Point", "coordinates": [ 139.213641899999971, 37.932070700000011 ] } },
{ "type": "Feature", "properties": { "内容": "ショートステイ　新潟北愛宕の園【短期入所生活介護】新潟県新潟市北区前新田甲７４番地１", "url2": "https://www.kaigokensaku.mhlw.go.jp/15/index.php?action_kouhyou_detail_004_kani=true&JigyosyoCd=1570112514-00&ServiceCd=210&Type=search" }, "geometry": { "type": "Point", "coordinates": [ 139.224892461515736, 37.91041194875028 ] } },
{ "type": "Feature", "properties": { "内容": "ショートステイ新潟東愛宕の園【短期入所生活介護】新潟県新潟市東区若葉町2丁目17番40号", "url2": "https://www.kaigokensaku.mhlw.go.jp/15/index.php?action_kouhyou_detail_004_kani=true&JigyosyoCd=1570111078-00&ServiceCd=210&Type=search" }, "geometry": { "type": "Point", "coordinates": [ 139.116220800000065, 37.8996077 ] } },
{ "type": "Feature", "properties": { "内容": "ショートステイあしぬま【短期入所生活介護】新潟県新潟市東区はなみずき２－３－７", "url2": "https://www.kaigokensaku.mhlw.go.jp/15/index.php?action_kouhyou_detail_004_kani=true&JigyosyoCd=1570100410-00&ServiceCd=210&Type=search" }, "geometry": { "type": "Point", "coordinates": [ 139.104024, 37.9179222 ] } },
{ "type": "Feature", "properties": { "内容": "赤道ケアセンターそよ風【短期入所生活介護】新潟県新潟市東区牡丹山2-15-10", "url2": "https://www.kaigokensaku.mhlw.go.jp/15/index.php?action_kouhyou_detail_004_kani=true&JigyosyoCd=1570106425-00&ServiceCd=210&Type=search" }, "geometry": { "type": "Point", "coordinates": [ 139.091923520237742, 37.923394216323011 ] } },
{ "type": "Feature", "properties": { "内容": "ショートステイつつじガーデン石山【短期入所生活介護】新潟県新潟市東区新石山1丁目5番地1", "url2": "https://www.kaigokensaku.mhlw.go.jp/15/index.php?action_kouhyou_detail_004_kani=true&JigyosyoCd=1570111839-00&ServiceCd=210&Type=search" }, "geometry": { "type": "Point", "coordinates": [ 139.099299623942557, 37.902245478882691 ] } },
{ "type": "Feature", "properties": { "内容": "ショートステイ「藍の杜」【短期入所生活介護】新潟県新潟市東区逢谷内467-1", "url2": "https://www.kaigokensaku.mhlw.go.jp/15/index.php?action_kouhyou_detail_004_kani=true&JigyosyoCd=1570108249-00&ServiceCd=210&Type=search" }, "geometry": { "type": "Point", "coordinates": [ 139.118383799999947, 37.9171311 ] } },
{ "type": "Feature", "properties": { "内容": "ショートステイなかの【短期入所生活介護】新潟県新潟市東区粟山709番地1", "url2": "https://www.kaigokensaku.mhlw.go.jp/15/index.php?action_kouhyou_detail_004_kani=true&JigyosyoCd=1570108629-00&ServiceCd=210&Type=search" }, "geometry": { "type": "Point", "coordinates": [ 139.10092947790983, 37.891334199575695 ] } },
{ "type": "Feature", "properties": { "内容": "ショートステイなじょも【短期入所生活介護】新潟県新潟市東区上木戸5-2-1", "url2": "https://www.kaigokensaku.mhlw.go.jp/15/index.php?action_kouhyou_detail_004_kani=true&JigyosyoCd=1570111508-00&ServiceCd=210&Type=search" }, "geometry": { "type": "Point", "coordinates": [ 139.102996100000041, 37.9204803 ] } },
{ "type": "Feature", "properties": { "内容": "特別養護老人ホームあしぬま荘【短期入所生活介護】新潟県新潟市東区岡山1183番地1", "url2": "https://www.kaigokensaku.mhlw.go.jp/15/index.php?action_kouhyou_detail_004_kani=true&JigyosyoCd=1570100428-00&ServiceCd=210&Type=search" }, "geometry": { "type": "Point", "coordinates": [ 139.129392332862864, 37.916584892933642 ] } },
{ "type": "Feature", "properties": { "内容": "特別養護老人ホームあしぬま荘【短期入所生活介護】新潟県新潟市東区岡山1183番地1", "url2": "https://www.kaigokensaku.mhlw.go.jp/15/index.php?action_kouhyou_detail_004_kani=true&JigyosyoCd=1570116341-00&ServiceCd=210&Type=search" }, "geometry": { "type": "Point", "coordinates": [ 139.123669799999988, 37.9154623 ] } },
{ "type": "Feature", "properties": { "内容": "ショートステイ河渡の郷【短期入所生活介護】新潟県新潟市東区河渡2丁目4番65号", "url2": "https://www.kaigokensaku.mhlw.go.jp/15/index.php?action_kouhyou_detail_004_kani=true&JigyosyoCd=1570107142-00&ServiceCd=210&Type=search" }, "geometry": { "type": "Point", "coordinates": [ 139.098662, 37.9364232 ] } },
{ "type": "Feature", "properties": { "内容": "特別養護老人ホームいなほの郷下山【短期入所生活介護】新潟県新潟市東区下山２丁目５８７番地１", "url2": "https://www.kaigokensaku.mhlw.go.jp/15/index.php?action_kouhyou_detail_004_kani=true&JigyosyoCd=1570112654-00&ServiceCd=210&Type=search" }, "geometry": { "type": "Point", "coordinates": [ 139.126529996711724, 37.948369769000792 ] } },
{ "type": "Feature", "properties": { "内容": "ショートステイ山王苑にいがた【短期入所生活介護】新潟県新潟市東区海老ヶ瀬643番地", "url2": "https://www.kaigokensaku.mhlw.go.jp/15/index.php?action_kouhyou_detail_004_kani=true&JigyosyoCd=1570107043-00&ServiceCd=210&Type=search" }, "geometry": { "type": "Point", "coordinates": [ 139.1224664, 37.926410900000015 ] } },
{ "type": "Feature", "properties": { "内容": "ショートステイ風の笛【短期入所生活介護】新潟県新潟市東区下木戸2丁目28番13号", "url2": "https://www.kaigokensaku.mhlw.go.jp/15/index.php?action_kouhyou_detail_004_kani=true&JigyosyoCd=1570111771-00&ServiceCd=210&Type=search" }, "geometry": { "type": "Point", "coordinates": [ 139.094225615869135, 37.928763821745129 ] } },
{ "type": "Feature", "properties": { "内容": "特別養護老人ホームカナン【短期入所生活介護】新潟県新潟市東区寺山３丁目６番１１号", "url2": "https://www.kaigokensaku.mhlw.go.jp/15/index.php?action_kouhyou_detail_004_kani=true&JigyosyoCd=1570110286-00&ServiceCd=210&Type=search" }, "geometry": { "type": "Point", "coordinates": [ 139.1127783, 37.9228759 ] } },
{ "type": "Feature", "properties": { "内容": "ショートステイつしまの郷【短期入所生活介護】新潟県新潟市東区津島屋7丁目1番地１", "url2": "https://www.kaigokensaku.mhlw.go.jp/15/index.php?action_kouhyou_detail_004_kani=true&JigyosyoCd=1570114833-00&ServiceCd=210&Type=search" }, "geometry": { "type": "Point", "coordinates": [ 139.123120100000051, 37.9394115 ] } },
{ "type": "Feature", "properties": { "内容": "ショートステイ逢谷内【短期入所生活介護】新潟県新潟市東区新松崎１丁目１番１２号", "url2": "https://www.kaigokensaku.mhlw.go.jp/15/index.php?action_kouhyou_detail_004_kani=true&JigyosyoCd=1570115160-00&ServiceCd=210&Type=search" }, "geometry": { "type": "Point", "coordinates": [ 139.115182883467099, 37.929291496028291 ] } },
{ "type": "Feature", "properties": { "内容": "アーバンリビング鳥屋野ショートステイ【短期入所生活介護】新潟県新潟市中央区小張木１丁目４番５号", "url2": "https://www.kaigokensaku.mhlw.go.jp/15/index.php?action_kouhyou_detail_004_kani=true&JigyosyoCd=1570108637-00&ServiceCd=210&Type=search" }, "geometry": { "type": "Point", "coordinates": [ 139.047090900000057, 37.8876321 ] } },
{ "type": "Feature", "properties": { "内容": "ショートステイ　かりん【短期入所生活介護】新潟県新潟市中央区南笹口一丁目1-30アメニティオアシス駅南　3Ｆ", "url2": "https://www.kaigokensaku.mhlw.go.jp/15/index.php?action_kouhyou_detail_004_kani=true&JigyosyoCd=1570107126-00&ServiceCd=210&Type=search" }, "geometry": { "type": "Point", "coordinates": [ 139.065134346032664, 37.908011820288195 ] } },
{ "type": "Feature", "properties": { "内容": "ショートステイせせらぎ女池【短期入所生活介護】新潟県新潟市中央区女池上山4丁目5番1号", "url2": "https://www.kaigokensaku.mhlw.go.jp/15/index.php?action_kouhyou_detail_004_kani=true&JigyosyoCd=1570107209-00&ServiceCd=210&Type=search" }, "geometry": { "type": "Point", "coordinates": [ 139.0264644, 37.8929616 ] } },
{ "type": "Feature", "properties": { "内容": "ショートステイ・ゆきよし　とやの【短期入所生活介護】新潟県新潟市中央区湖南１番地１４", "url2": "https://www.kaigokensaku.mhlw.go.jp/15/index.php?action_kouhyou_detail_004_kani=true&JigyosyoCd=1570109395-00&ServiceCd=210&Type=search" }, "geometry": { "type": "Point", "coordinates": [ 139.038438, 37.8791541 ] } },
{ "type": "Feature", "properties": { "内容": "ショートステイ藍のそら【短期入所生活介護】新潟県新潟市中央区神道寺南1-2-12", "url2": "https://www.kaigokensaku.mhlw.go.jp/15/index.php?action_kouhyou_detail_004_kani=true&JigyosyoCd=1570109874-00&ServiceCd=210&Type=search" }, "geometry": { "type": "Point", "coordinates": [ 139.060242499999958, 37.8964397 ] } },
{ "type": "Feature", "properties": { "内容": "萬代やすらぎ【短期入所生活介護】新潟県新潟市中央区東大通１丁目８番１０号", "url2": "https://www.kaigokensaku.mhlw.go.jp/15/index.php?action_kouhyou_detail_004_kani=true&JigyosyoCd=1570109049-00&ServiceCd=210&Type=search" }, "geometry": { "type": "Point", "coordinates": [ 139.062913500000036, 37.9156987 ] } },
{ "type": "Feature", "properties": { "内容": "特別養護老人ホーム　おもと園【短期入所生活介護】新潟県新潟市中央区女池西2丁目6番25号", "url2": "https://www.kaigokensaku.mhlw.go.jp/15/index.php?action_kouhyou_detail_004_kani=true&JigyosyoCd=1570100741-00&ServiceCd=210&Type=search" }, "geometry": { "type": "Point", "coordinates": [ 139.035004207407752, 37.89081850836417 ] } },
{ "type": "Feature", "properties": { "内容": "特別養護老人ホームおもと園【短期入所生活介護】新潟県新潟市中央区女池西2丁目6番25号", "url2": "https://www.kaigokensaku.mhlw.go.jp/15/index.php?action_kouhyou_detail_004_kani=true&JigyosyoCd=1570115764-00&ServiceCd=210&Type=search" }, "geometry": { "type": "Point", "coordinates": [ 139.0351196, 37.891064 ] } },
{ "type": "Feature", "properties": { "内容": "ショートステイぐみの木【短期入所生活介護】新潟県新潟市中央区窪田町1丁目1番1", "url2": "https://www.kaigokensaku.mhlw.go.jp/15/index.php?action_kouhyou_detail_004_kani=true&JigyosyoCd=1570116069-00&ServiceCd=210&Type=search" }, "geometry": { "type": "Point", "coordinates": [ 139.0511927, 37.9361756 ] } },
{ "type": "Feature", "properties": { "内容": "長潟スワンの里【短期入所生活介護】新潟県新潟市中央区長潟1134番地1", "url2": "https://www.kaigokensaku.mhlw.go.jp/15/index.php?action_kouhyou_detail_004_kani=true&JigyosyoCd=1570106219-00&ServiceCd=210&Type=search" }, "geometry": { "type": "Point", "coordinates": [ 139.067142399999966, 37.887002 ] } },
{ "type": "Feature", "properties": { "内容": "ショートステイ　ばんだい桜園【短期入所生活介護】新潟県新潟市中央区幸西4丁目5番15号", "url2": "https://www.kaigokensaku.mhlw.go.jp/15/index.php?action_kouhyou_detail_004_kani=true&JigyosyoCd=1570105872-00&ServiceCd=210&Type=search" }, "geometry": { "type": "Point", "coordinates": [ 139.049456299999946, 37.9134679 ] } },
{ "type": "Feature", "properties": { "内容": "特別養護老人ホーム関屋おもと園【短期入所生活介護】新潟県新潟市中央区関屋大川前1丁目2番36号", "url2": "https://www.kaigokensaku.mhlw.go.jp/15/index.php?action_kouhyou_detail_004_kani=true&JigyosyoCd=1570107654-00&ServiceCd=210&Type=search" }, "geometry": { "type": "Point", "coordinates": [ 139.015170300000023, 37.9019377 ] } },
{ "type": "Feature", "properties": { "内容": "特別養護老人ホーム関屋おもと園【短期入所生活介護】新潟県新潟市中央区関屋大川前１丁目２番３６号", "url2": "https://www.kaigokensaku.mhlw.go.jp/15/index.php?action_kouhyou_detail_004_kani=true&JigyosyoCd=1570112159-00&ServiceCd=210&Type=search" }, "geometry": { "type": "Point", "coordinates": [ 139.0151703, 37.9019377 ] } },
{ "type": "Feature", "properties": { "内容": "ショートステイ　プリメーロ女池【短期入所生活介護】新潟県新潟市中央区女池５丁目２番１４号", "url2": "https://www.kaigokensaku.mhlw.go.jp/15/index.php?action_kouhyou_detail_004_kani=true&JigyosyoCd=1570110302-00&ServiceCd=210&Type=search" }, "geometry": { "type": "Point", "coordinates": [ 139.043271499999946, 37.8935591 ] } },
{ "type": "Feature", "properties": { "内容": "ショートステイ　せきやの里【短期入所生活介護】新潟県新潟市中央区関屋大川前2丁目7番12号", "url2": "https://www.kaigokensaku.mhlw.go.jp/15/index.php?action_kouhyou_detail_004_kani=true&JigyosyoCd=1570112084-00&ServiceCd=210&Type=search" }, "geometry": { "type": "Point", "coordinates": [ 139.015197899999947, 37.9053124 ] } },
{ "type": "Feature", "properties": { "内容": "ショートステイ　くりの木【短期入所生活介護】新潟県新潟市中央区本馬越2丁目15番34号", "url2": "https://www.kaigokensaku.mhlw.go.jp/15/index.php?action_kouhyou_detail_004_kani=true&JigyosyoCd=1570113280-00&ServiceCd=210&Type=search" }, "geometry": { "type": "Point", "coordinates": [ 139.077871100000038, 37.9118025 ] } },
{ "type": "Feature", "properties": { "内容": "ショートステイアルシェふるまち【短期入所生活介護】新潟県新潟市中央区古町通13番町2900番地5", "url2": "https://www.kaigokensaku.mhlw.go.jp/15/index.php?action_kouhyou_detail_004_kani=true&JigyosyoCd=1570114775-00&ServiceCd=210&Type=search" }, "geometry": { "type": "Point", "coordinates": [ 139.045740155294766, 37.931062041385793 ] } },
{ "type": "Feature", "properties": { "内容": "老人短期入所施設江東園【短期入所生活介護】新潟県新潟市中央区姥ケ山359番地1", "url2": "https://www.kaigokensaku.mhlw.go.jp/15/index.php?action_kouhyou_detail_004_kani=true&JigyosyoCd=1570100899-00&ServiceCd=210&Type=search" }, "geometry": { "type": "Point", "coordinates": [ 139.081794299999956, 37.8859912 ] } },
{ "type": "Feature", "properties": { "内容": "特別養護老人ホーム柳都の杜【短期入所生活介護】新潟県新潟市中央区四ツ屋町３丁目5116番地1", "url2": "https://www.kaigokensaku.mhlw.go.jp/15/index.php?action_kouhyou_detail_004_kani=true&JigyosyoCd=1570115665-00&ServiceCd=210&Type=search" }, "geometry": { "type": "Point", "coordinates": [ 139.0544739, 37.9315034 ] } },
{ "type": "Feature", "properties": { "内容": "白山やすらぎショートステイ【短期入所生活介護】新潟県新潟市中央区川岸町2丁目1番地20", "url2": "https://www.kaigokensaku.mhlw.go.jp/15/index.php?action_kouhyou_detail_004_kani=true&JigyosyoCd=1570111144-00&ServiceCd=210&Type=search" }, "geometry": { "type": "Point", "coordinates": [ 139.034470049571837, 37.911135944719277 ] } },
{ "type": "Feature", "properties": { "内容": "トーク&トークかめだショートステイ【短期入所生活介護】新潟県新潟市江南区東本町5-6-1", "url2": "https://www.kaigokensaku.mhlw.go.jp/15/index.php?action_kouhyou_detail_004_kani=true&JigyosyoCd=1570112647-00&ServiceCd=210&Type=search" }, "geometry": { "type": "Point", "coordinates": [ 139.109282375393718, 37.869651023797729 ] } },
{ "type": "Feature", "properties": { "内容": "短期入所生活介護施設　ソフィア輝【短期入所生活介護】新潟県新潟市江南区三百地2347番5", "url2": "https://www.kaigokensaku.mhlw.go.jp/15/index.php?action_kouhyou_detail_004_kani=true&JigyosyoCd=1570115400-00&ServiceCd=210&Type=search" }, "geometry": { "type": "Point", "coordinates": [ 139.147210882278415, 37.897712555053118 ] } },
{ "type": "Feature", "properties": { "内容": "曽野木ふれあいの杜【短期入所生活介護】新潟県新潟市江南区楚川乙20ー4曽野木ふれあいの杜", "url2": "https://www.kaigokensaku.mhlw.go.jp/15/index.php?action_kouhyou_detail_004_kani=true&JigyosyoCd=1570107845-00&ServiceCd=210&Type=search" }, "geometry": { "type": "Point", "coordinates": [ 139.032357400000024, 37.8580661 ] } },
{ "type": "Feature", "properties": { "内容": "ショートステイかめだ早通の里【短期入所生活介護】新潟県新潟市江南区早通５－６－２０", "url2": "https://www.kaigokensaku.mhlw.go.jp/15/index.php?action_kouhyou_detail_004_kani=true&JigyosyoCd=1570108587-00&ServiceCd=210&Type=search" }, "geometry": { "type": "Point", "coordinates": [ 139.08603370000003, 37.8624522 ] } },
{ "type": "Feature", "properties": { "内容": "ショートステイかめだなかの【短期入所生活介護】新潟県新潟市江南区砂岡5丁目5-10", "url2": "https://www.kaigokensaku.mhlw.go.jp/15/index.php?action_kouhyou_detail_004_kani=true&JigyosyoCd=1570108116-00&ServiceCd=210&Type=search" }, "geometry": { "type": "Point", "coordinates": [ 139.1254497, 37.8628401 ] } },
{ "type": "Feature", "properties": { "内容": "ショートステイ松明【短期入所生活介護】新潟県新潟市江南区北山651", "url2": "https://www.kaigokensaku.mhlw.go.jp/15/index.php?action_kouhyou_detail_004_kani=true&JigyosyoCd=1570107274-00&ServiceCd=210&Type=search" }, "geometry": { "type": "Point", "coordinates": [ 139.118116500000042, 37.8731414 ] } },
{ "type": "Feature", "properties": { "内容": "特別養護老人ホーム　にいがた恵風園【短期入所生活介護】新潟県新潟市江南区鍋潟新田３８２番地", "url2": "https://www.kaigokensaku.mhlw.go.jp/15/index.php?action_kouhyou_detail_004_kani=true&JigyosyoCd=1570100774-00&ServiceCd=210&Type=search" }, "geometry": { "type": "Point", "coordinates": [ 139.0603238, 37.8725508 ] } },
{ "type": "Feature", "properties": { "内容": "特別養護老人ホーム　にいがた新生園【短期入所生活介護】新潟県新潟市江南区曽川甲1333番地1", "url2": "https://www.kaigokensaku.mhlw.go.jp/15/index.php?action_kouhyou_detail_004_kani=true&JigyosyoCd=1570100832-00&ServiceCd=210&Type=search" }, "geometry": { "type": "Point", "coordinates": [ 139.049155156783286, 37.867570429107992 ] } },
{ "type": "Feature", "properties": { "内容": "特別養護老人ホームにこやか【短期入所生活介護】新潟県新潟市江南区横越中央5丁目2番3号", "url2": "https://www.kaigokensaku.mhlw.go.jp/15/index.php?action_kouhyou_detail_004_kani=true&JigyosyoCd=1570110583-00&ServiceCd=210&Type=search" }, "geometry": { "type": "Point", "coordinates": [ 139.151136899999983, 37.8530694 ] } },
{ "type": "Feature", "properties": { "内容": "特別養護老人ホームいなほの郷【短期入所生活介護】新潟県新潟市江南区大渕715番地１", "url2": "https://www.kaigokensaku.mhlw.go.jp/15/index.php?action_kouhyou_detail_004_kani=true&JigyosyoCd=1570103372-00&ServiceCd=210&Type=search" }, "geometry": { "type": "Point", "coordinates": [ 139.142849299999966, 37.891465 ] } },
{ "type": "Feature", "properties": { "内容": "短期入所生活介護施設ソフィア輝【短期入所生活介護】新潟県新潟市江南区三百地2312番地3", "url2": "https://www.kaigokensaku.mhlw.go.jp/15/index.php?action_kouhyou_detail_004_kani=true&JigyosyoCd=1570103232-00&ServiceCd=210&Type=search" }, "geometry": { "type": "Point", "coordinates": [ 139.147190200000011, 37.8982032 ] } },
{ "type": "Feature", "properties": { "内容": "特別養護老人ホーム　横雲の里【短期入所生活介護】新潟県新潟市江南区阿賀野１丁目２番１号", "url2": "https://www.kaigokensaku.mhlw.go.jp/15/index.php?action_kouhyou_detail_004_kani=true&JigyosyoCd=1570103984-00&ServiceCd=210&Type=search" }, "geometry": { "type": "Point", "coordinates": [ 139.1681949, 37.8324524 ] } },
{ "type": "Feature", "properties": { "内容": "特別養護老人ホームなかかんの里【短期入所生活介護】新潟県新潟市江南区曙町4丁目1番29号", "url2": "https://www.kaigokensaku.mhlw.go.jp/15/index.php?action_kouhyou_detail_004_kani=true&JigyosyoCd=1570113132-00&ServiceCd=210&Type=search" }, "geometry": { "type": "Point", "coordinates": [ 139.127574934918243, 37.859787897237183 ] } },
{ "type": "Feature", "properties": { "内容": "特別養護老人ホームかめだ本町の里【短期入所生活介護】新潟県新潟市江南区亀田本町1-4-14", "url2": "https://www.kaigokensaku.mhlw.go.jp/15/index.php?action_kouhyou_detail_004_kani=true&JigyosyoCd=1570109940-00&ServiceCd=210&Type=search" }, "geometry": { "type": "Point", "coordinates": [ 139.10755184603272, 37.872438719837696 ] } },
{ "type": "Feature", "properties": { "内容": "特別養護老人ホーム向陽の里【短期入所生活介護】新潟県新潟市江南区亀田向陽2-6-1", "url2": "https://www.kaigokensaku.mhlw.go.jp/15/index.php?action_kouhyou_detail_004_kani=true&JigyosyoCd=1570103992-00&ServiceCd=210&Type=search" }, "geometry": { "type": "Point", "coordinates": [ 139.111991900000021, 37.8782849 ] } },
{ "type": "Feature", "properties": { "内容": "ショートステイ「藍の里」【短期入所生活介護】新潟県新潟市秋葉区市之瀬1030-1", "url2": "https://www.kaigokensaku.mhlw.go.jp/15/index.php?action_kouhyou_detail_004_kani=true&JigyosyoCd=1570105880-00&ServiceCd=210&Type=search" }, "geometry": { "type": "Point", "coordinates": [ 139.07698240000002, 37.832681099999967 ] } },
{ "type": "Feature", "properties": { "内容": "新津ショートステイ　花はな【短期入所生活介護】新潟県新潟市秋葉区新津4528-1", "url2": "https://www.kaigokensaku.mhlw.go.jp/15/index.php?action_kouhyou_detail_004_kani=true&JigyosyoCd=1570106433-00&ServiceCd=210&Type=search" }, "geometry": { "type": "Point", "coordinates": [ 139.113262099999929, 37.7893698 ] } },
{ "type": "Feature", "properties": { "内容": "ショートステイ　スマイル　花はな【短期入所生活介護】新潟県新潟市秋葉区小戸下組24番地1", "url2": "https://www.kaigokensaku.mhlw.go.jp/15/index.php?action_kouhyou_detail_004_kani=true&JigyosyoCd=1570110005-00&ServiceCd=210&Type=search" }, "geometry": { "type": "Point", "coordinates": [ 139.084636300000057, 37.7921104 ] } },
{ "type": "Feature", "properties": { "内容": "ショートステイすずらん川口【短期入所生活介護】新潟県新潟市秋葉区川口144番地", "url2": "https://www.kaigokensaku.mhlw.go.jp/15/index.php?action_kouhyou_detail_004_kani=true&JigyosyoCd=1570110930-00&ServiceCd=210&Type=search" }, "geometry": { "type": "Point", "coordinates": [ 139.117791099999977, 37.8174226 ] } },
{ "type": "Feature", "properties": { "内容": "ふれあいの杜【短期入所生活介護】新潟県新潟市秋葉区矢代田３３１６番地１", "url2": "https://www.kaigokensaku.mhlw.go.jp/15/index.php?action_kouhyou_detail_004_kani=true&JigyosyoCd=1570106367-00&ServiceCd=210&Type=search" }, "geometry": { "type": "Point", "coordinates": [ 139.099834200000032, 37.7527877 ] } },
{ "type": "Feature", "properties": { "内容": "特別養護老人ホームはさぎの里【短期入所生活介護】新潟県新潟市秋葉区七日町2186-9", "url2": "https://www.kaigokensaku.mhlw.go.jp/15/index.php?action_kouhyou_detail_004_kani=true&JigyosyoCd=1570103893-00&ServiceCd=210&Type=search" }, "geometry": { "type": "Point", "coordinates": [ 139.144891799999982, 37.8169204 ] } },
{ "type": "Feature", "properties": { "内容": "特別養護老人ホームこうめの里【短期入所生活介護】新潟県新潟市秋葉区小屋場335番地1", "url2": "https://www.kaigokensaku.mhlw.go.jp/15/index.php?action_kouhyou_detail_004_kani=true&JigyosyoCd=1570108793-00&ServiceCd=210&Type=search" }, "geometry": { "type": "Point", "coordinates": [ 139.091766299999989, 37.781845 ] } },
{ "type": "Feature", "properties": { "内容": "特別養護老人ホーム　こぐち苑【短期入所生活介護】新潟県新潟市秋葉区小口443番地", "url2": "https://www.kaigokensaku.mhlw.go.jp/15/index.php?action_kouhyou_detail_004_kani=true&JigyosyoCd=1570103919-00&ServiceCd=210&Type=search" }, "geometry": { "type": "Point", "coordinates": [ 139.149270699999988, 37.7690067 ] } },
{ "type": "Feature", "properties": { "内容": "特別養護老人ホームやしろだ苑【短期入所生活介護】新潟県新潟市秋葉区矢代田1234番地1", "url2": "https://www.kaigokensaku.mhlw.go.jp/15/index.php?action_kouhyou_detail_004_kani=true&JigyosyoCd=1570111219-00&ServiceCd=210&Type=search" }, "geometry": { "type": "Point", "coordinates": [ 139.094477028033424, 37.750526379060865 ] } },
{ "type": "Feature", "properties": { "内容": "特別養護老人ホーム　こすど蒼丘の里【短期入所生活介護】新潟県新潟市秋葉区矢代田3092番地12", "url2": "https://www.kaigokensaku.mhlw.go.jp/15/index.php?action_kouhyou_detail_004_kani=true&JigyosyoCd=1570103976-00&ServiceCd=210&Type=search" }, "geometry": { "type": "Point", "coordinates": [ 139.1015367, 37.7538765 ] } },
{ "type": "Feature", "properties": { "内容": "ショートステイたけのこ【短期入所生活介護】新潟県新潟市秋葉区滝谷町4番20号ささえ愛よろずクリニック　２階", "url2": "https://www.kaigokensaku.mhlw.go.jp/15/index.php?action_kouhyou_detail_004_kani=true&JigyosyoCd=1570111151-00&ServiceCd=210&Type=search" }, "geometry": { "type": "Point", "coordinates": [ 139.143788889024307, 37.788274221731029 ] } },
{ "type": "Feature", "properties": { "内容": "特別養護老人ホームあがうらショートステイ【短期入所生活介護】新潟県新潟市秋葉区東金沢1459番地5", "url2": "https://www.kaigokensaku.mhlw.go.jp/15/index.php?action_kouhyou_detail_004_kani=true&JigyosyoCd=1570111870-00&ServiceCd=210&Type=search" }, "geometry": { "type": "Point", "coordinates": [ 139.144492766131634, 37.803394640317443 ] } },
{ "type": "Feature", "properties": { "内容": "ショートステイ藤花【短期入所生活介護】新潟県新潟市秋葉区新津本町1丁目11-12特別養護老人ホーム藤花内", "url2": "https://www.kaigokensaku.mhlw.go.jp/15/index.php?action_kouhyou_detail_004_kani=true&JigyosyoCd=1570112787-00&ServiceCd=210&Type=search" }, "geometry": { "type": "Point", "coordinates": [ 139.119039, 37.8026628 ] } },
{ "type": "Feature", "properties": { "内容": "ショートステイ　つつじガーデン白根【短期入所生活介護】新潟県新潟市南区下木山７４９－１", "url2": "https://www.kaigokensaku.mhlw.go.jp/15/index.php?action_kouhyou_detail_004_kani=true&JigyosyoCd=1570109460-00&ServiceCd=210&Type=search" }, "geometry": { "type": "Point", "coordinates": [ 139.031529, 37.7535224 ] } },
{ "type": "Feature", "properties": { "内容": "老人介護施設南区ゆとり【短期入所生活介護】新潟県新潟市南区白根日の出町14番7号なし", "url2": "https://www.kaigokensaku.mhlw.go.jp/15/index.php?action_kouhyou_detail_004_kani=true&JigyosyoCd=1570114569-00&ServiceCd=210&Type=search" }, "geometry": { "type": "Point", "coordinates": [ 139.016171696433958, 37.75471817693947 ] } },
{ "type": "Feature", "properties": { "内容": "特別養護老人ホームしなの園【短期入所生活介護】新潟県新潟市南区庄瀬８１２０番地", "url2": "https://www.kaigokensaku.mhlw.go.jp/15/index.php?action_kouhyou_detail_004_kani=true&JigyosyoCd=1570103927-00&ServiceCd=210&Type=search" }, "geometry": { "type": "Point", "coordinates": [ 139.037871799999948, 37.7208957 ] } },
{ "type": "Feature", "properties": { "内容": "特別養護老人ホーム白根そよ風の杜【短期入所生活介護】新潟県新潟市南区能登535番地１", "url2": "https://www.kaigokensaku.mhlw.go.jp/15/index.php?action_kouhyou_detail_004_kani=true&JigyosyoCd=1570112365-00&ServiceCd=210&Type=search" }, "geometry": { "type": "Point", "coordinates": [ 139.020290031660494, 37.768141970563121 ] } },
{ "type": "Feature", "properties": { "内容": "ショートステイ　遊生の園【短期入所生活介護】新潟県新潟市南区西萱場304番地", "url2": "https://www.kaigokensaku.mhlw.go.jp/15/index.php?action_kouhyou_detail_004_kani=true&JigyosyoCd=1570113793-00&ServiceCd=210&Type=search" }, "geometry": { "type": "Point", "coordinates": [ 139.001516980703741, 37.733846549061433 ] } },
{ "type": "Feature", "properties": { "内容": "白根やすらぎの里【短期入所生活介護】新潟県新潟市南区鷲ノ木新田４０１８番地１", "url2": "https://www.kaigokensaku.mhlw.go.jp/15/index.php?action_kouhyou_detail_004_kani=true&JigyosyoCd=1570103935-00&ServiceCd=210&Type=search" }, "geometry": { "type": "Point", "coordinates": [ 139.025532, 37.8285466 ] } },
{ "type": "Feature", "properties": { "内容": "ショートステイ　新潟あそか苑【短期入所生活介護】新潟県新潟市西区大友１４１番地１", "url2": "https://www.kaigokensaku.mhlw.go.jp/15/index.php?action_kouhyou_detail_004_kani=true&JigyosyoCd=1570102390-00&ServiceCd=210&Type=search" }, "geometry": { "type": "Point", "coordinates": [ 138.9322396, 37.830737899999981 ] } },
{ "type": "Feature", "properties": { "内容": "特別養護老人ホーム　黒埼の里【短期入所生活介護】新潟県新潟市西区金巻728番地", "url2": "https://www.kaigokensaku.mhlw.go.jp/15/index.php?action_kouhyou_detail_004_kani=true&JigyosyoCd=1570101939-00&ServiceCd=210&Type=search" }, "geometry": { "type": "Point", "coordinates": [ 139.007114199999933, 37.841997200000016 ] } },
{ "type": "Feature", "properties": { "内容": "特別養護老人ホーム　ジェロントピア新潟【短期入所生活介護】新潟県新潟市西区山田3487番地", "url2": "https://www.kaigokensaku.mhlw.go.jp/15/index.php?action_kouhyou_detail_004_kani=true&JigyosyoCd=1570107266-00&ServiceCd=210&Type=search" }, "geometry": { "type": "Point", "coordinates": [ 139.0110235, 37.8718293 ] } },
{ "type": "Feature", "properties": { "内容": "特別養護老人ホーム葵の園・新潟内野【短期入所生活介護】新潟県新潟市西区内野西3丁目9番12号", "url2": "https://www.kaigokensaku.mhlw.go.jp/15/index.php?action_kouhyou_detail_004_kani=true&JigyosyoCd=1570112001-00&ServiceCd=210&Type=search" }, "geometry": { "type": "Point", "coordinates": [ 138.927577199999973, 37.8502651 ] } },
{ "type": "Feature", "properties": { "内容": "特別養護老人ホーム葵の園・新潟内野【短期入所生活介護】新潟県新潟市西区内野西3丁目9番12号", "url2": "https://www.kaigokensaku.mhlw.go.jp/15/index.php?action_kouhyou_detail_004_kani=true&JigyosyoCd=1570111995-00&ServiceCd=210&Type=search" }, "geometry": { "type": "Point", "coordinates": [ 138.927594, 37.8501828 ] } },
{ "type": "Feature", "properties": { "内容": "ショートステイこころはす槇尾【短期入所生活介護】新潟県新潟市西区槇尾229番地1", "url2": "https://www.kaigokensaku.mhlw.go.jp/15/index.php?action_kouhyou_detail_004_kani=true&JigyosyoCd=1570114601-00&ServiceCd=210&Type=search" }, "geometry": { "type": "Point", "coordinates": [ 138.944708065081869, 37.859002260678551 ] } },
{ "type": "Feature", "properties": { "内容": "ショートステイ　こころはす亀貝【短期入所生活介護】新潟県新潟市西区亀貝20番地", "url2": "https://www.kaigokensaku.mhlw.go.jp/15/index.php?action_kouhyou_detail_004_kani=true&JigyosyoCd=1570114627-00&ServiceCd=210&Type=search" }, "geometry": { "type": "Point", "coordinates": [ 138.977717900000016, 37.8671265 ] } },
{ "type": "Feature", "properties": { "内容": "ショートステイこころはす五十嵐【短期入所生活介護】新潟県新潟市西区上新栄町3丁目8番3号", "url2": "https://www.kaigokensaku.mhlw.go.jp/15/index.php?action_kouhyou_detail_004_kani=true&JigyosyoCd=1570114726-00&ServiceCd=210&Type=search" }, "geometry": { "type": "Point", "coordinates": [ 138.9673166, 37.8862212 ] } },
{ "type": "Feature", "properties": { "内容": "ショートステイこころはす小新【短期入所生活介護】新潟県新潟市西区小新大通2丁目1番28号", "url2": "https://www.kaigokensaku.mhlw.go.jp/15/index.php?action_kouhyou_detail_004_kani=true&JigyosyoCd=1570115483-00&ServiceCd=210&Type=search" }, "geometry": { "type": "Point", "coordinates": [ 138.9952705, 37.8710807 ] } },
{ "type": "Feature", "properties": { "内容": "ショートステイことぶき【短期入所生活介護】新潟県新潟市西区鳥原新田406-5", "url2": "https://www.kaigokensaku.mhlw.go.jp/15/index.php?action_kouhyou_detail_004_kani=true&JigyosyoCd=1570105377-00&ServiceCd=210&Type=search" }, "geometry": { "type": "Point", "coordinates": [ 139.004777800000056, 37.8489547 ] } },
{ "type": "Feature", "properties": { "内容": "守庵良寛ショートステイあゆみ【短期入所生活介護】新潟県新潟市西区内野西2-18-8", "url2": "https://www.kaigokensaku.mhlw.go.jp/15/index.php?action_kouhyou_detail_004_kani=true&JigyosyoCd=1570114098-00&ServiceCd=210&Type=search" }, "geometry": { "type": "Point", "coordinates": [ 138.9353347, 37.8526797 ] } },
{ "type": "Feature", "properties": { "内容": "ショートステイつつじガーデン坂井【短期入所生活介護】新潟県新潟市西区坂井911番地1", "url2": "https://www.kaigokensaku.mhlw.go.jp/15/index.php?action_kouhyou_detail_004_kani=true&JigyosyoCd=1570110922-00&ServiceCd=210&Type=search" }, "geometry": { "type": "Point", "coordinates": [ 138.959204964170794, 37.867848635900131 ] } },
{ "type": "Feature", "properties": { "内容": "特別養護老人ホーム松風園【短期入所生活介護】新潟県新潟市西区赤塚4782番地", "url2": "https://www.kaigokensaku.mhlw.go.jp/15/index.php?action_kouhyou_detail_004_kani=true&JigyosyoCd=1570100683-00&ServiceCd=210&Type=search" }, "geometry": { "type": "Point", "coordinates": [ 138.873605399999974, 37.8096495 ] } },
{ "type": "Feature", "properties": { "内容": "特別養護老人ホーム　白鳥の里【短期入所生活介護】新潟県新潟市西区小新１１４０－１", "url2": "https://www.kaigokensaku.mhlw.go.jp/15/index.php?action_kouhyou_detail_004_kani=true&JigyosyoCd=1570100493-00&ServiceCd=210&Type=search" }, "geometry": { "type": "Point", "coordinates": [ 138.994412499999953, 37.8784484 ] } },
{ "type": "Feature", "properties": { "内容": "特別養護老人ホーム　はまゆう【短期入所生活介護】新潟県新潟市西区上新栄町1-2-12", "url2": "https://www.kaigokensaku.mhlw.go.jp/15/index.php?action_kouhyou_detail_004_kani=true&JigyosyoCd=1570102994-00&ServiceCd=210&Type=search" }, "geometry": { "type": "Point", "coordinates": [ 138.971190080426027, 37.88921215835903 ] } },
{ "type": "Feature", "properties": { "内容": "ショートステイうちの桜園【短期入所生活介護】新潟県新潟市西区内野潟端2090番地", "url2": "https://www.kaigokensaku.mhlw.go.jp/15/index.php?action_kouhyou_detail_004_kani=true&JigyosyoCd=1570101863-00&ServiceCd=210&Type=search" }, "geometry": { "type": "Point", "coordinates": [ 138.934087699999964, 37.8512243 ] } },
{ "type": "Feature", "properties": { "内容": "やすらぎの杜五十嵐ショートステイ【短期入所生活介護】新潟県新潟市西区五十嵐一の町6988番地7", "url2": "https://www.kaigokensaku.mhlw.go.jp/15/index.php?action_kouhyou_detail_004_kani=true&JigyosyoCd=1570114940-00&ServiceCd=210&Type=search" }, "geometry": { "type": "Point", "coordinates": [ 138.95530610000003, 37.873888 ] } },
{ "type": "Feature", "properties": { "内容": "特別養護老人ホーム　有明園【短期入所生活介護】新潟県新潟市西区西有明町１番２０号", "url2": "https://www.kaigokensaku.mhlw.go.jp/15/index.php?action_kouhyou_detail_004_kani=true&JigyosyoCd=1570100816-00&ServiceCd=210&Type=search" }, "geometry": { "type": "Point", "coordinates": [ 138.990950110684366, 37.896042667477566 ] } },
{ "type": "Feature", "properties": { "内容": "ショートステイ　ルアナ【短期入所生活介護】新潟県新潟市西区小針上山１０番５号", "url2": "https://www.kaigokensaku.mhlw.go.jp/15/index.php?action_kouhyou_detail_004_kani=true&JigyosyoCd=1570115392-00&ServiceCd=210&Type=search" }, "geometry": { "type": "Point", "coordinates": [ 138.992050317860446, 37.89185759551853 ] } },
{ "type": "Feature", "properties": { "内容": "ショートステイ　有徳の家【短期入所生活介護】新潟県新潟市西区小針上山９番３２号", "url2": "https://www.kaigokensaku.mhlw.go.jp/15/index.php?action_kouhyou_detail_004_kani=true&JigyosyoCd=1570109916-00&ServiceCd=210&Type=search" }, "geometry": { "type": "Point", "coordinates": [ 138.992693481614651, 37.893250401422321 ] } },
{ "type": "Feature", "properties": { "内容": "特別養護老人ホーム　スマイルガーデン黒埼【短期入所生活介護】新潟県新潟市西区金巻８８０番地１", "url2": "https://www.kaigokensaku.mhlw.go.jp/15/index.php?action_kouhyou_detail_004_kani=true&JigyosyoCd=1570110641-00&ServiceCd=210&Type=search" }, "geometry": { "type": "Point", "coordinates": [ 139.01181889999998, 37.8451333 ] } },
{ "type": "Feature", "properties": { "内容": "ショートステイこころはす西蒲【短期入所生活介護】新潟県新潟市西蒲区善光寺900番地", "url2": "https://www.kaigokensaku.mhlw.go.jp/15/index.php?action_kouhyou_detail_004_kani=true&JigyosyoCd=1570112886-00&ServiceCd=210&Type=search" }, "geometry": { "type": "Point", "coordinates": [ 138.922450312750243, 37.801025584013601 ] } },
{ "type": "Feature", "properties": { "内容": "ショートステイ薫園【短期入所生活介護】新潟県新潟市西蒲区竹野町2463番地5", "url2": "https://www.kaigokensaku.mhlw.go.jp/15/index.php?action_kouhyou_detail_004_kani=true&JigyosyoCd=1570112548-00&ServiceCd=210&Type=search" }, "geometry": { "type": "Point", "coordinates": [ 138.872051400000032, 37.7715624 ] } },
{ "type": "Feature", "properties": { "内容": "短期入所生活介護施設白寿荘東【短期入所生活介護】新潟県新潟市西蒲区巻甲4448", "url2": "https://www.kaigokensaku.mhlw.go.jp/15/index.php?action_kouhyou_detail_004_kani=true&JigyosyoCd=1570115863-00&ServiceCd=210&Type=search" }, "geometry": { "type": "Point", "coordinates": [ 138.895185267770046, 37.753551084520232 ] } },
{ "type": "Feature", "properties": { "内容": "波勢屋ショートステイ【短期入所生活介護】新潟県新潟市西蒲区巻甲2886番地", "url2": "https://www.kaigokensaku.mhlw.go.jp/15/index.php?action_kouhyou_detail_004_kani=true&JigyosyoCd=1570112050-00&ServiceCd=210&Type=search" }, "geometry": { "type": "Point", "coordinates": [ 138.88649430262447, 37.755662844042362 ] } },
{ "type": "Feature", "properties": { "内容": "短期入所生活介護施設白寿荘西【短期入所生活介護】新潟県新潟市西蒲区巻甲4363番地", "url2": "https://www.kaigokensaku.mhlw.go.jp/15/index.php?action_kouhyou_detail_004_kani=true&JigyosyoCd=1570105609-00&ServiceCd=210&Type=search" }, "geometry": { "type": "Point", "coordinates": [ 138.892247414016794, 37.754234588988737 ] } },
{ "type": "Feature", "properties": { "内容": "特別養護老人ホーム　虹の里【短期入所生活介護】新潟県新潟市西蒲区称名825番地", "url2": "https://www.kaigokensaku.mhlw.go.jp/15/index.php?action_kouhyou_detail_004_kani=true&JigyosyoCd=1570104016-00&ServiceCd=210&Type=search" }, "geometry": { "type": "Point", "coordinates": [ 138.953618600000027, 37.7529671 ] } },
{ "type": "Feature", "properties": { "内容": "特別養護老人ホーム花見の里【短期入所生活介護】新潟県新潟市西蒲区大潟198番地", "url2": "https://www.kaigokensaku.mhlw.go.jp/15/index.php?action_kouhyou_detail_004_kani=true&JigyosyoCd=1570104008-00&ServiceCd=210&Type=search" }, "geometry": { "type": "Point", "coordinates": [ 138.9445174, 37.8119457 ] } },
{ "type": "Feature", "properties": { "内容": "ショートステイ　遊生の里【短期入所生活介護】新潟県新潟市西蒲区巻甲2759番地1", "url2": "https://www.kaigokensaku.mhlw.go.jp/15/index.php?action_kouhyou_detail_004_kani=true&JigyosyoCd=1570112092-00&ServiceCd=210&Type=search" }, "geometry": { "type": "Point", "coordinates": [ 138.890705799999978, 37.7612638 ] } },
{ "type": "Feature", "properties": { "内容": "短期入所事業かつぼ園【短期入所生活介護】新潟県長岡市加津保町1695番地2", "url2": "https://www.kaigokensaku.mhlw.go.jp/15/index.php?action_kouhyou_detail_004_kani=true&JigyosyoCd=1570200434-00&ServiceCd=210&Type=search" }, "geometry": { "type": "Point", "coordinates": [ 138.9171407, 37.4748018 ] } },
{ "type": "Feature", "properties": { "内容": "みどりの杜【短期入所生活介護】長岡市小曽根町９２８番地", "url2": "https://www.kaigokensaku.mhlw.go.jp/15/index.php?action_kouhyou_detail_004_kani=true&JigyosyoCd=1570202695-00&ServiceCd=210&Type=search" }, "geometry": { "type": "Point", "coordinates": [ 138.881350900000029, 37.4650909 ] } },
{ "type": "Feature", "properties": { "内容": "さわやかリバーサイド長岡【短期入所生活介護】新潟県長岡市金町2丁目5番10号", "url2": "https://www.kaigokensaku.mhlw.go.jp/15/index.php?action_kouhyou_detail_004_kani=true&JigyosyoCd=1570203560-00&ServiceCd=210&Type=search" }, "geometry": { "type": "Point", "coordinates": [ 138.994886070500115, 37.481601848081226 ] } },
{ "type": "Feature", "properties": { "内容": "短期入所生活介護　あおいの里・長岡【短期入所生活介護】新潟県長岡市稲保南三丁目820番地6", "url2": "https://www.kaigokensaku.mhlw.go.jp/15/index.php?action_kouhyou_detail_004_kani=true&JigyosyoCd=1570203826-00&ServiceCd=210&Type=search" }, "geometry": { "type": "Point", "coordinates": [ 138.867882731954069, 37.478604377972367 ] } },
{ "type": "Feature", "properties": { "内容": "ショートステイまちだ園【短期入所生活介護】新潟県長岡市町田町５４０番地", "url2": "https://www.kaigokensaku.mhlw.go.jp/15/index.php?action_kouhyou_detail_004_kani=true&JigyosyoCd=1570200285-00&ServiceCd=210&Type=search" }, "geometry": { "type": "Point", "coordinates": [ 138.860765899999933, 37.4183988 ] } },
{ "type": "Feature", "properties": { "内容": "特別養護老人ホーム　おごしの里【短期入所生活介護】新潟県長岡市小国町楢沢90番地", "url2": "https://www.kaigokensaku.mhlw.go.jp/15/index.php?action_kouhyou_detail_004_kani=true&JigyosyoCd=1570201614-00&ServiceCd=210&Type=search" }, "geometry": { "type": "Point", "coordinates": [ 138.707042499999943, 37.2878797 ] } },
{ "type": "Feature", "properties": { "内容": "あおりの里【短期入所生活介護】長岡市西川口1173番地3", "url2": "https://www.kaigokensaku.mhlw.go.jp/15/index.php?action_kouhyou_detail_004_kani=true&JigyosyoCd=1575700412-00&ServiceCd=210&Type=search" }, "geometry": { "type": "Point", "coordinates": [ 138.860678199999938, 37.2643504 ] } },
{ "type": "Feature", "properties": { "内容": "てまりショートステイ【短期入所生活介護】新潟県長岡市平1丁目3番55号", "url2": "https://www.kaigokensaku.mhlw.go.jp/15/index.php?action_kouhyou_detail_004_kani=true&JigyosyoCd=1570203016-00&ServiceCd=210&Type=search" }, "geometry": { "type": "Point", "coordinates": [ 139.004985, 37.4714871 ] } },
{ "type": "Feature", "properties": { "内容": "特別養護老人ホーム千秋【短期入所生活介護】新潟県長岡市千秋２丁目２２１番地１４", "url2": "https://www.kaigokensaku.mhlw.go.jp/15/index.php?action_kouhyou_detail_004_kani=true&JigyosyoCd=1570202711-00&ServiceCd=210&Type=search" }, "geometry": { "type": "Point", "coordinates": [ 138.827126600000042, 37.4562883 ] } },
{ "type": "Feature", "properties": { "内容": "特別養護老人ホーム　わらび園【短期入所生活介護】長岡市浦３０６０番地", "url2": "https://www.kaigokensaku.mhlw.go.jp/15/index.php?action_kouhyou_detail_004_kani=true&JigyosyoCd=1570201598-00&ServiceCd=210&Type=search" }, "geometry": { "type": "Point", "coordinates": [ 138.804131899999987, 37.3886346 ] } },
{ "type": "Feature", "properties": { "内容": "特別養護老人ホーム　縄文の杜関原【短期入所生活介護】新潟県長岡市関原町1丁目１０７２番地１", "url2": "https://www.kaigokensaku.mhlw.go.jp/15/index.php?action_kouhyou_detail_004_kani=true&JigyosyoCd=1570201820-00&ServiceCd=210&Type=search" }, "geometry": { "type": "Point", "coordinates": [ 138.77466190666965, 37.452288911013831 ] } },
{ "type": "Feature", "properties": { "内容": "特別養護老人ホーム　桐原の郷【短期入所生活介護】新潟県長岡市寺泊下桐３７００番地１", "url2": "https://www.kaigokensaku.mhlw.go.jp/15/index.php?action_kouhyou_detail_004_kani=true&JigyosyoCd=1570202190-00&ServiceCd=210&Type=search" }, "geometry": { "type": "Point", "coordinates": [ 138.807337100000041, 37.6122218 ] } },
{ "type": "Feature", "properties": { "内容": "短期入所事業いずみ苑【短期入所生活介護】長岡市栃尾泉419番地2", "url2": "https://www.kaigokensaku.mhlw.go.jp/15/index.php?action_kouhyou_detail_004_kani=true&JigyosyoCd=1570202208-00&ServiceCd=210&Type=search" }, "geometry": { "type": "Point", "coordinates": [ 139.011640400000033, 37.451295200000011 ] } },
{ "type": "Feature", "properties": { "内容": "ショートステイ　つつじガーデン【短期入所生活介護】長岡市新保町667－1", "url2": "https://www.kaigokensaku.mhlw.go.jp/15/index.php?action_kouhyou_detail_004_kani=true&JigyosyoCd=1570202703-00&ServiceCd=210&Type=search" }, "geometry": { "type": "Point", "coordinates": [ 138.868316, 37.4729594 ] } },
{ "type": "Feature", "properties": { "内容": "ショートステイつつじガーデン宮内【短期入所生活介護】新潟県長岡市曲新町２丁目２番５号", "url2": "https://www.kaigokensaku.mhlw.go.jp/15/index.php?action_kouhyou_detail_004_kani=true&JigyosyoCd=1570203305-00&ServiceCd=210&Type=search" }, "geometry": { "type": "Point", "coordinates": [ 138.8451705, 37.4178375 ] } },
{ "type": "Feature", "properties": { "内容": "レスピット・イン・こぶし【短期入所生活介護】新潟県長岡市与板町中田字江割59番地1", "url2": "https://www.kaigokensaku.mhlw.go.jp/15/index.php?action_kouhyou_detail_004_kani=true&JigyosyoCd=1570203859-00&ServiceCd=210&Type=search" }, "geometry": { "type": "Point", "coordinates": [ 138.8044174, 37.5185622 ] } },
{ "type": "Feature", "properties": { "内容": "特別養護老人ホーム槇山けやき苑【短期入所生活介護】長岡市槇山町1593番地1", "url2": "https://www.kaigokensaku.mhlw.go.jp/15/index.php?action_kouhyou_detail_004_kani=true&JigyosyoCd=1570200475-00&ServiceCd=210&Type=search" }, "geometry": { "type": "Point", "coordinates": [ 138.837449200000037, 37.4810551 ] } },
{ "type": "Feature", "properties": { "内容": "特別養護老人ホーム槇山けやき苑【短期入所生活介護】槇山町1593番地1", "url2": "https://www.kaigokensaku.mhlw.go.jp/15/index.php?action_kouhyou_detail_004_kani=true&JigyosyoCd=1570200483-00&ServiceCd=210&Type=search" }, "geometry": { "type": "Point", "coordinates": [ 138.837369700000011, 37.4812113 ] } },
{ "type": "Feature", "properties": { "内容": "ショートステイ岡南【短期入所生活介護】新潟県長岡市渡沢町字早田53番地", "url2": "https://www.kaigokensaku.mhlw.go.jp/15/index.php?action_kouhyou_detail_004_kani=true&JigyosyoCd=1570200905-00&ServiceCd=210&Type=search" }, "geometry": { "type": "Point", "coordinates": [ 138.845778299297081, 37.378366180133582 ] } },
{ "type": "Feature", "properties": { "内容": "特別養護老人ホームこしじの里【短期入所生活介護】新潟県長岡市不動沢２２１９番地５", "url2": "https://www.kaigokensaku.mhlw.go.jp/15/index.php?action_kouhyou_detail_004_kani=true&JigyosyoCd=1570201580-00&ServiceCd=210&Type=search" }, "geometry": { "type": "Point", "coordinates": [ 138.7460658, 37.3710029 ] } },
{ "type": "Feature", "properties": { "内容": "特別養護老人ホーム　みしま園【短期入所生活介護】新潟県長岡市宮沢580番地3", "url2": "https://www.kaigokensaku.mhlw.go.jp/15/index.php?action_kouhyou_detail_004_kani=true&JigyosyoCd=1570201606-00&ServiceCd=210&Type=search" }, "geometry": { "type": "Point", "coordinates": [ 138.78262380000001, 37.5114692 ] } },
{ "type": "Feature", "properties": { "内容": "特別養護老人ホーム中之島【短期入所生活介護】長岡市中之島2105番地６", "url2": "https://www.kaigokensaku.mhlw.go.jp/15/index.php?action_kouhyou_detail_004_kani=true&JigyosyoCd=1570201846-00&ServiceCd=210&Type=search" }, "geometry": { "type": "Point", "coordinates": [ 138.872942839256325, 37.535650438848371 ] } },
{ "type": "Feature", "properties": { "内容": "特別養護老人ホームわしま【短期入所生活介護】新潟県長岡市小島谷3399番地", "url2": "https://www.kaigokensaku.mhlw.go.jp/15/index.php?action_kouhyou_detail_004_kani=true&JigyosyoCd=1570203412-00&ServiceCd=210&Type=search" }, "geometry": { "type": "Point", "coordinates": [ 138.771243918246483, 37.576171181278085 ] } },
{ "type": "Feature", "properties": { "内容": "特別養護老人ホームサクラーレ福住【短期入所生活介護】新潟県長岡市福住2丁目1番7号高齢者複合施設サクラーレ福住", "url2": "https://www.kaigokensaku.mhlw.go.jp/15/index.php?action_kouhyou_detail_004_kani=true&JigyosyoCd=1570203461-00&ServiceCd=210&Type=search" }, "geometry": { "type": "Point", "coordinates": [ 138.857524, 37.4507592 ] } },
{ "type": "Feature", "properties": { "内容": "ショートステイ黒条【短期入所生活介護】新潟県長岡市黒津町字東田381番地", "url2": "https://www.kaigokensaku.mhlw.go.jp/15/index.php?action_kouhyou_detail_004_kani=true&JigyosyoCd=1570203180-00&ServiceCd=210&Type=search" }, "geometry": { "type": "Point", "coordinates": [ 138.858273936332864, 37.499353676250763 ] } },
{ "type": "Feature", "properties": { "内容": "高齢者福祉施設　薬師の郷【短期入所生活介護】新潟県三条市長嶺４１９番地", "url2": "https://www.kaigokensaku.mhlw.go.jp/15/index.php?action_kouhyou_detail_004_kani=true&JigyosyoCd=1570400836-00&ServiceCd=210&Type=search" }, "geometry": { "type": "Point", "coordinates": [ 138.960571810450801, 37.592146506489634 ] } },
{ "type": "Feature", "properties": { "内容": "特別養護老人ホームいっぷく【短期入所生活介護】新潟県三条市庭月６３０番地４", "url2": "https://www.kaigokensaku.mhlw.go.jp/15/index.php?action_kouhyou_detail_004_kani=true&JigyosyoCd=1570401032-00&ServiceCd=210&Type=search" }, "geometry": { "type": "Point", "coordinates": [ 139.113706317196602, 37.539736357840845 ] } },
{ "type": "Feature", "properties": { "内容": "特別養護老人ホーム　つかのめの里【短期入所生活介護】新潟県三条市塚野目2380番地2", "url2": "https://www.kaigokensaku.mhlw.go.jp/15/index.php?action_kouhyou_detail_004_kani=true&JigyosyoCd=1570400158-00&ServiceCd=210&Type=search" }, "geometry": { "type": "Point", "coordinates": [ 138.975878299999977, 37.6593656 ] } },
{ "type": "Feature", "properties": { "内容": "特別養護老人ホームうらだての里【短期入所生活介護】三条市東裏館3丁目6番58号", "url2": "https://www.kaigokensaku.mhlw.go.jp/15/index.php?action_kouhyou_detail_004_kani=true&JigyosyoCd=1570400323-00&ServiceCd=210&Type=search" }, "geometry": { "type": "Point", "coordinates": [ 138.961827699999958, 37.6429672 ] } },
{ "type": "Feature", "properties": { "内容": "裏館倶楽部【短期入所生活介護】新潟県三条市西裏館３丁目６番５４号", "url2": "https://www.kaigokensaku.mhlw.go.jp/15/index.php?action_kouhyou_detail_004_kani=true&JigyosyoCd=1570401925-00&ServiceCd=210&Type=search" }, "geometry": { "type": "Point", "coordinates": [ 138.960138194581617, 37.643829475768563 ] } },
{ "type": "Feature", "properties": { "内容": "特別養護老人ホーム長和園【短期入所生活介護】三条市大野畑６－８６－７", "url2": "https://www.kaigokensaku.mhlw.go.jp/15/index.php?action_kouhyou_detail_004_kani=true&JigyosyoCd=1570400315-00&ServiceCd=210&Type=search" }, "geometry": { "type": "Point", "coordinates": [ 138.939369599999964, 37.627585 ] } },
{ "type": "Feature", "properties": { "内容": "ショートステイつつじガーデン三条裏館【短期入所生活介護】新潟県三条市西裏館2丁目５番１５号", "url2": "https://www.kaigokensaku.mhlw.go.jp/15/index.php?action_kouhyou_detail_004_kani=true&JigyosyoCd=1570401867-00&ServiceCd=210&Type=search" }, "geometry": { "type": "Point", "coordinates": [ 138.955118325131224, 37.637594312505989 ] } },
{ "type": "Feature", "properties": { "内容": "ショートステイつつじガーデン三条【短期入所生活介護】新潟県三条市諏訪3丁目3番52号", "url2": "https://www.kaigokensaku.mhlw.go.jp/15/index.php?action_kouhyou_detail_004_kani=true&JigyosyoCd=1570401826-00&ServiceCd=210&Type=search" }, "geometry": { "type": "Point", "coordinates": [ 138.981799, 37.6154105 ] } },
{ "type": "Feature", "properties": { "内容": "あさひケアセンター　月の郷【短期入所生活介護】新潟県三条市月岡１－５－２７", "url2": "https://www.kaigokensaku.mhlw.go.jp/15/index.php?action_kouhyou_detail_004_kani=true&JigyosyoCd=1570401388-00&ServiceCd=210&Type=search" }, "geometry": { "type": "Point", "coordinates": [ 138.965345, 37.613135 ] } },
{ "type": "Feature", "properties": { "内容": "特別養護老人ホーム　なごみ荘【短期入所生活介護】柏崎市原町４番２３号", "url2": "https://www.kaigokensaku.mhlw.go.jp/15/index.php?action_kouhyou_detail_004_kani=true&JigyosyoCd=1570500452-00&ServiceCd=210&Type=search" }, "geometry": { "type": "Point", "coordinates": [ 138.586860300000012, 37.3891704 ] } },
{ "type": "Feature", "properties": { "内容": "ショートステイシャリテ花はな【短期入所生活介護】新潟県柏崎市西山町坂田5418番地1", "url2": "https://www.kaigokensaku.mhlw.go.jp/15/index.php?action_kouhyou_detail_004_kani=true&JigyosyoCd=1570501450-00&ServiceCd=210&Type=search" }, "geometry": { "type": "Point", "coordinates": [ 138.668156, 37.454566293977088 ] } },
{ "type": "Feature", "properties": { "内容": "ケアセンター久松【短期入所生活介護】新潟県柏崎市松波１－４－５３", "url2": "https://www.kaigokensaku.mhlw.go.jp/15/index.php?action_kouhyou_detail_004_kani=true&JigyosyoCd=1570500502-00&ServiceCd=210&Type=search" }, "geometry": { "type": "Point", "coordinates": [ 138.5701123, 37.3889424 ] } },
{ "type": "Feature", "properties": { "内容": "特別養護老人ホーム　むつみ荘【短期入所生活介護】柏崎市大字畔屋392番地1", "url2": "https://www.kaigokensaku.mhlw.go.jp/15/index.php?action_kouhyou_detail_004_kani=true&JigyosyoCd=1570500114-00&ServiceCd=210&Type=search" }, "geometry": { "type": "Point", "coordinates": [ 138.619941199999971, 37.3687262 ] } },
{ "type": "Feature", "properties": { "内容": "特別養護老人ホーム　くじらなみ【短期入所生活介護】新潟県柏崎市鯨波二丁目4番3号", "url2": "https://www.kaigokensaku.mhlw.go.jp/15/index.php?action_kouhyou_detail_004_kani=true&JigyosyoCd=1570500783-00&ServiceCd=210&Type=search" }, "geometry": { "type": "Point", "coordinates": [ 138.51727649999998, 37.3552174 ] } },
{ "type": "Feature", "properties": { "内容": "ショートステイ駅前桜寿【短期入所生活介護】新潟県柏崎市駅前２－１－３５", "url2": "https://www.kaigokensaku.mhlw.go.jp/15/index.php?action_kouhyou_detail_004_kani=true&JigyosyoCd=1570500841-00&ServiceCd=210&Type=search" }, "geometry": { "type": "Point", "coordinates": [ 138.553003699999977, 37.3669726 ] } },
{ "type": "Feature", "properties": { "内容": "特別養護老人ホーム　いこいの里【短期入所生活介護】新潟県柏崎市大字佐水3140番地", "url2": "https://www.kaigokensaku.mhlw.go.jp/15/index.php?action_kouhyou_detail_004_kani=true&JigyosyoCd=1570501575-00&ServiceCd=210&Type=search" }, "geometry": { "type": "Point", "coordinates": [ 138.575153699999987, 37.2950551 ] } },
{ "type": "Feature", "properties": { "内容": "特別養護老人ホーム　しばた【短期入所生活介護】新潟県新発田市下中山246番１", "url2": "https://www.kaigokensaku.mhlw.go.jp/15/index.php?action_kouhyou_detail_004_kani=true&JigyosyoCd=1570600401-00&ServiceCd=210&Type=search" }, "geometry": { "type": "Point", "coordinates": [ 139.442722600000025, 37.9932648 ] } },
{ "type": "Feature", "properties": { "内容": "特別養護老人ホーム　ヒルトップくしがた【短期入所生活介護】新潟県新発田市菅谷3345-1", "url2": "https://www.kaigokensaku.mhlw.go.jp/15/index.php?action_kouhyou_detail_004_kani=true&JigyosyoCd=1570601375-00&ServiceCd=210&Type=search" }, "geometry": { "type": "Point", "coordinates": [ 139.4144986, 37.9824987 ] } },
{ "type": "Feature", "properties": { "内容": "老人短期入所事業所陽だまり苑【短期入所生活介護】新発田市岡田１７４６番地１介護老人福祉施設　陽だまり苑", "url2": "https://www.kaigokensaku.mhlw.go.jp/15/index.php?action_kouhyou_detail_004_kani=true&JigyosyoCd=1570600385-00&ServiceCd=210&Type=search" }, "geometry": { "type": "Point", "coordinates": [ 139.359800100000029, 37.9510506 ] } },
{ "type": "Feature", "properties": { "内容": "パルcomfy陽だまり苑【短期入所生活介護】新潟県新発田市中央町5丁目4番2号", "url2": "https://www.kaigokensaku.mhlw.go.jp/15/index.php?action_kouhyou_detail_004_kani=true&JigyosyoCd=1570601482-00&ServiceCd=210&Type=search" }, "geometry": { "type": "Point", "coordinates": [ 139.331411399999979, 37.9520578 ] } },
{ "type": "Feature", "properties": { "内容": "特別養護老人ホーム　三の丸【短期入所生活介護】新潟県新発田市大手町４丁目３番４号", "url2": "https://www.kaigokensaku.mhlw.go.jp/15/index.php?action_kouhyou_detail_004_kani=true&JigyosyoCd=1570601680-00&ServiceCd=210&Type=search" }, "geometry": { "type": "Point", "coordinates": [ 139.325486, 37.9514945 ] } },
{ "type": "Feature", "properties": { "内容": "ほっとしばたケアセンター【短期入所生活介護】新発田市豊町三丁目5番12号", "url2": "https://www.kaigokensaku.mhlw.go.jp/15/index.php?action_kouhyou_detail_004_kani=true&JigyosyoCd=1570600906-00&ServiceCd=210&Type=search" }, "geometry": { "type": "Point", "coordinates": [ 139.341638800000027, 37.93646 ] } },
{ "type": "Feature", "properties": { "内容": "老人短期入所事業所コンフィ陽だまり苑【短期入所生活介護】新潟県新発田市諏訪町1丁目10番38号", "url2": "https://www.kaigokensaku.mhlw.go.jp/15/index.php?action_kouhyou_detail_004_kani=true&JigyosyoCd=1570601201-00&ServiceCd=210&Type=search" }, "geometry": { "type": "Point", "coordinates": [ 139.333980900000029, 37.9434978 ] } },
{ "type": "Feature", "properties": { "内容": "陽だまり苑ふぇりあ（ショートステイ）【短期入所生活介護】新潟県新発田市富塚町2丁目4番13号", "url2": "https://www.kaigokensaku.mhlw.go.jp/15/index.php?action_kouhyou_detail_004_kani=true&JigyosyoCd=1570601763-00&ServiceCd=210&Type=search" }, "geometry": { "type": "Point", "coordinates": [ 139.299341700000014, 37.9500332 ] } },
{ "type": "Feature", "properties": { "内容": "ショートステイぢりめき【短期入所生活介護】新潟県新発田市佐々木２６１０番地", "url2": "https://www.kaigokensaku.mhlw.go.jp/15/index.php?action_kouhyou_detail_004_kani=true&JigyosyoCd=1570600971-00&ServiceCd=210&Type=search" }, "geometry": { "type": "Point", "coordinates": [ 139.250897594581602, 37.952307228621521 ] } },
{ "type": "Feature", "properties": { "内容": "特別養護老人ホームくるま乃【短期入所生活介護】新潟県新発田市大友17番地１特別養護老人ホームくるま乃", "url2": "https://www.kaigokensaku.mhlw.go.jp/15/index.php?action_kouhyou_detail_004_kani=true&JigyosyoCd=1570601565-00&ServiceCd=210&Type=search" }, "geometry": { "type": "Point", "coordinates": [ 139.387215200000014, 37.9082455 ] } },
{ "type": "Feature", "properties": { "内容": "特別養護老人ホームしうんじ【短期入所生活介護】新潟県新発田市真野原外3331番地2", "url2": "https://www.kaigokensaku.mhlw.go.jp/15/index.php?action_kouhyou_detail_004_kani=true&JigyosyoCd=1570600807-00&ServiceCd=210&Type=search" }, "geometry": { "type": "Point", "coordinates": [ 139.318080099999946, 38.0181429 ] } },
{ "type": "Feature", "properties": { "内容": "ショートステイ　豊浦愛宕の園【短期入所生活介護】新発田市荒町甲1611番地13", "url2": "https://www.kaigokensaku.mhlw.go.jp/15/index.php?action_kouhyou_detail_004_kani=true&JigyosyoCd=1570601177-00&ServiceCd=210&Type=search" }, "geometry": { "type": "Point", "coordinates": [ 139.32188229999997, 37.9364372 ] } },
{ "type": "Feature", "properties": { "内容": "小粟田の里【短期入所生活介護】新潟県小千谷市大字小粟田２７３２番地７", "url2": "https://www.kaigokensaku.mhlw.go.jp/15/index.php?action_kouhyou_detail_004_kani=true&JigyosyoCd=1570800050-00&ServiceCd=210&Type=search" }, "geometry": { "type": "Point", "coordinates": [ 138.795703799999956, 37.3403908 ] } },
{ "type": "Feature", "properties": { "内容": "ショートステイつつじガーデン小千谷【短期入所生活介護】新潟県小千谷市大字四ツ子509番地1", "url2": "https://www.kaigokensaku.mhlw.go.jp/15/index.php?action_kouhyou_detail_004_kani=true&JigyosyoCd=1570800472-00&ServiceCd=210&Type=search" }, "geometry": { "type": "Point", "coordinates": [ 138.785677664804126, 37.28309477193379 ] } },
{ "type": "Feature", "properties": { "内容": "特別養護老人ホームおぢやさくら【短期入所生活介護】新潟県小千谷市小粟田字幅2732-14", "url2": "https://www.kaigokensaku.mhlw.go.jp/15/index.php?action_kouhyou_detail_004_kani=true&JigyosyoCd=1570800357-00&ServiceCd=210&Type=search" }, "geometry": { "type": "Point", "coordinates": [ 138.792998799999964, 37.3345166 ] } },
{ "type": "Feature", "properties": { "内容": "特別養護老人ホーム春風堂【短期入所生活介護】新潟県小千谷市大字山谷1635番地100", "url2": "https://www.kaigokensaku.mhlw.go.jp/15/index.php?action_kouhyou_detail_004_kani=true&JigyosyoCd=1570800662-00&ServiceCd=210&Type=search" }, "geometry": { "type": "Point", "coordinates": [ 138.7742405, 37.3370067 ] } },
{ "type": "Feature", "properties": { "内容": "地域密着型介護老人福祉施設　千谷島の家【短期入所生活介護】新潟県小千谷市千谷川302", "url2": "https://www.kaigokensaku.mhlw.go.jp/15/index.php?action_kouhyou_detail_004_kani=true&JigyosyoCd=1570800456-00&ServiceCd=210&Type=search" }, "geometry": { "type": "Point", "coordinates": [ 138.8020407, 37.3206953 ] } },
{ "type": "Feature", "properties": { "内容": "モス・コーラ（空床ショートステイ）【短期入所生活介護】新潟県小千谷市大字桜町３１４６番地２", "url2": "https://www.kaigokensaku.mhlw.go.jp/15/index.php?action_kouhyou_detail_004_kani=true&JigyosyoCd=1570800514-00&ServiceCd=210&Type=search" }, "geometry": { "type": "Point", "coordinates": [ 138.772703799999988, 37.3107916 ] } },
{ "type": "Feature", "properties": { "内容": "特別養護老人ホーム第三平成園【短期入所生活介護】加茂市神明町１丁目７番１号", "url2": "https://www.kaigokensaku.mhlw.go.jp/15/index.php?action_kouhyou_detail_004_kani=true&JigyosyoCd=1570900207-00&ServiceCd=210&Type=search" }, "geometry": { "type": "Point", "coordinates": [ 139.061968200000024, 37.6608617 ] } },
{ "type": "Feature", "properties": { "内容": "第二平成園【短期入所生活介護】新潟県加茂市石川２丁目２４７３番地１", "url2": "https://www.kaigokensaku.mhlw.go.jp/15/index.php?action_kouhyou_detail_004_kani=true&JigyosyoCd=1570900058-00&ServiceCd=210&Type=search" }, "geometry": { "type": "Point", "coordinates": [ 139.044414, 37.6705018 ] } },
{ "type": "Feature", "properties": { "内容": "特別養護老人ホーム平成園【短期入所生活介護】新潟県加茂市石川2丁目2472番地1", "url2": "https://www.kaigokensaku.mhlw.go.jp/15/index.php?action_kouhyou_detail_004_kani=true&JigyosyoCd=1570900041-00&ServiceCd=210&Type=search" }, "geometry": { "type": "Point", "coordinates": [ 139.043708599999945, 37.6707795 ] } },
{ "type": "Feature", "properties": { "内容": "特別養護老人ホームほくほくの里【短期入所生活介護】十日町市太平664-4", "url2": "https://www.kaigokensaku.mhlw.go.jp/15/index.php?action_kouhyou_detail_004_kani=true&JigyosyoCd=1571000650-00&ServiceCd=210&Type=search" }, "geometry": { "type": "Point", "coordinates": [ 138.622063900000057, 37.1351671 ] } },
{ "type": "Feature", "properties": { "内容": "特別養護老人ホームほくほくの里【短期入所生活介護】新潟県十日町市太平664番地4", "url2": "https://www.kaigokensaku.mhlw.go.jp/15/index.php?action_kouhyou_detail_004_kani=true&JigyosyoCd=1571000932-00&ServiceCd=210&Type=search" }, "geometry": { "type": "Point", "coordinates": [ 138.622222, 37.1352416 ] } },
{ "type": "Feature", "properties": { "内容": "養護老人ホーム　妻有荘【短期入所生活介護】新潟県十日町市新宮乙１９５番地３", "url2": "https://www.kaigokensaku.mhlw.go.jp/15/index.php?action_kouhyou_detail_004_kani=true&JigyosyoCd=1571000130-00&ServiceCd=210&Type=search" }, "geometry": { "type": "Point", "coordinates": [ 138.720919099999946, 37.0953406 ] } },
{ "type": "Feature", "properties": { "内容": "特別養護老人ホーム三好園しんざ【短期入所生活介護】十日町市新座甲609番地2", "url2": "https://www.kaigokensaku.mhlw.go.jp/15/index.php?action_kouhyou_detail_004_kani=true&JigyosyoCd=1571000387-00&ServiceCd=210&Type=search" }, "geometry": { "type": "Point", "coordinates": [ 138.76755049999997, 37.1433662 ] } },
{ "type": "Feature", "properties": { "内容": "短期入所生活介護事業所　あかね園【短期入所生活介護】新潟県十日町市高原田２７８番地1", "url2": "https://www.kaigokensaku.mhlw.go.jp/15/index.php?action_kouhyou_detail_004_kani=true&JigyosyoCd=1571001104-00&ServiceCd=210&Type=search" }, "geometry": { "type": "Point", "coordinates": [ 138.740471599999978, 37.1707788 ] } },
{ "type": "Feature", "properties": { "内容": "特別養護老人ホーム不老閣【短期入所生活介護】新潟県十日町市松之山1028-8", "url2": "https://www.kaigokensaku.mhlw.go.jp/15/index.php?action_kouhyou_detail_004_kani=true&JigyosyoCd=1571000544-00&ServiceCd=210&Type=search" }, "geometry": { "type": "Point", "coordinates": [ 138.609217100000023, 37.079440099999957 ] } },
{ "type": "Feature", "properties": { "内容": "特別養護老人ホームまほろばの里川治【短期入所生活介護】新潟県十日町市川治４５２５番地特別養護老人ホーム　まほろばの里川治", "url2": "https://www.kaigokensaku.mhlw.go.jp/15/index.php?action_kouhyou_detail_004_kani=true&JigyosyoCd=1571000999-00&ServiceCd=210&Type=search" }, "geometry": { "type": "Point", "coordinates": [ 138.7416756, 37.1183773 ] } },
{ "type": "Feature", "properties": { "内容": "特別養護老人ホームよしだ【短期入所生活介護】新潟県十日町市南鐙坂４４６番地１", "url2": "https://www.kaigokensaku.mhlw.go.jp/15/index.php?action_kouhyou_detail_004_kani=true&JigyosyoCd=1571001187-00&ServiceCd=210&Type=search" }, "geometry": { "type": "Point", "coordinates": [ 138.7207244, 37.1248953 ] } },
{ "type": "Feature", "properties": { "内容": "短期入所事業所　七川荘やすらぎ【短期入所生活介護】新潟県十日町市田中戊619-3短期入所事業所　七川荘やすらぎ", "url2": "https://www.kaigokensaku.mhlw.go.jp/15/index.php?action_kouhyou_detail_004_kani=true&JigyosyoCd=1571001112-00&ServiceCd=210&Type=search" }, "geometry": { "type": "Point", "coordinates": [ 138.698907016772495, 37.055494923159031 ] } },
{ "type": "Feature", "properties": { "内容": "特別養護老人ホーム　三好園【短期入所生活介護】新潟県十日町市下条3丁目485番地１", "url2": "https://www.kaigokensaku.mhlw.go.jp/15/index.php?action_kouhyou_detail_004_kani=true&JigyosyoCd=1571000163-00&ServiceCd=210&Type=search" }, "geometry": { "type": "Point", "coordinates": [ 138.778108299999985, 37.1962216 ] } },
{ "type": "Feature", "properties": { "内容": "特別養護老人ホーム　七川荘【短期入所生活介護】新潟県十日町市上山己2739番地", "url2": "https://www.kaigokensaku.mhlw.go.jp/15/index.php?action_kouhyou_detail_004_kani=true&JigyosyoCd=1571000536-00&ServiceCd=210&Type=search" }, "geometry": { "type": "Point", "coordinates": [ 138.698888899999929, 37.055384 ] } },
{ "type": "Feature", "properties": { "内容": "特別養護老人ホーム大平園【短期入所生活介護】見附市学校町2丁目13番31号", "url2": "https://www.kaigokensaku.mhlw.go.jp/15/index.php?action_kouhyou_detail_004_kani=true&JigyosyoCd=1571100096-00&ServiceCd=210&Type=search" }, "geometry": { "type": "Point", "coordinates": [ 138.919654300000047, 37.5354149 ] } },
{ "type": "Feature", "properties": { "内容": "短期入所事業すずらんの園【短期入所生活介護】新潟県見附市田井町1715番地1", "url2": "https://www.kaigokensaku.mhlw.go.jp/15/index.php?action_kouhyou_detail_004_kani=true&JigyosyoCd=1571100237-00&ServiceCd=210&Type=search" }, "geometry": { "type": "Point", "coordinates": [ 138.929202700000019, 37.4961973 ] } },
{ "type": "Feature", "properties": { "内容": "特別養護老人ホームフローラ【短期入所生活介護】見附市新幸町７番９号", "url2": "https://www.kaigokensaku.mhlw.go.jp/15/index.php?action_kouhyou_detail_004_kani=true&JigyosyoCd=1571100476-00&ServiceCd=210&Type=search" }, "geometry": { "type": "Point", "coordinates": [ 138.893629499999946, 37.5401941 ] } },
{ "type": "Feature", "properties": { "内容": "短期入所事業　古志乃里【短期入所生活介護】新潟県見附市緑町20番1号", "url2": "https://www.kaigokensaku.mhlw.go.jp/15/index.php?action_kouhyou_detail_004_kani=true&JigyosyoCd=1571100583-00&ServiceCd=210&Type=search" }, "geometry": { "type": "Point", "coordinates": [ 138.919369500000016, 37.5126676 ] } },
{ "type": "Feature", "properties": { "内容": "守庵良寛ショートステイ緑町【短期入所生活介護】新潟県村上市緑町1-2-42", "url2": "https://www.kaigokensaku.mhlw.go.jp/15/index.php?action_kouhyou_detail_004_kani=true&JigyosyoCd=1571201126-00&ServiceCd=210&Type=search" }, "geometry": { "type": "Point", "coordinates": [ 139.462595, 38.222464800000019 ] } },
{ "type": "Feature", "properties": { "内容": "ショートステイ神林の里【短期入所生活介護】新潟県村上市九日市６９番地１特別養護老人ホーム神林の里", "url2": "https://www.kaigokensaku.mhlw.go.jp/15/index.php?action_kouhyou_detail_004_kani=true&JigyosyoCd=1571201225-00&ServiceCd=210&Type=search" }, "geometry": { "type": "Point", "coordinates": [ 139.46057, 38.1812864 ] } },
{ "type": "Feature", "properties": { "内容": "特別養護老人ホームいわくすの里【短期入所生活介護】村上市上の山2番17号特別養護老人ホームいわくすの里", "url2": "https://www.kaigokensaku.mhlw.go.jp/15/index.php?action_kouhyou_detail_004_kani=true&JigyosyoCd=1571200110-00&ServiceCd=210&Type=search" }, "geometry": { "type": "Point", "coordinates": [ 139.440163900000016, 38.1847971 ] } },
{ "type": "Feature", "properties": { "内容": "特別養護老人ホームさつき園【短期入所生活介護】新潟県村上市北新保683番地9", "url2": "https://www.kaigokensaku.mhlw.go.jp/15/index.php?action_kouhyou_detail_004_kani=true&JigyosyoCd=1571200714-00&ServiceCd=210&Type=search" }, "geometry": { "type": "Point", "coordinates": [ 139.435698900000034, 38.1715402 ] } },
{ "type": "Feature", "properties": { "内容": "特別養護老人ホームゆり花園【短期入所生活介護】新潟県村上市勝木８６２番地１０", "url2": "https://www.kaigokensaku.mhlw.go.jp/15/index.php?action_kouhyou_detail_004_kani=true&JigyosyoCd=1571200706-00&ServiceCd=210&Type=search" }, "geometry": { "type": "Point", "coordinates": [ 139.520484300000021, 38.4916094 ] } },
{ "type": "Feature", "properties": { "内容": "リブインハーモニー三之町ショートステイ【短期入所生活介護】新潟県村上市三之町4番28号", "url2": "https://www.kaigokensaku.mhlw.go.jp/15/index.php?action_kouhyou_detail_004_kani=true&JigyosyoCd=1571200276-00&ServiceCd=210&Type=search" }, "geometry": { "type": "Point", "coordinates": [ 139.4827315, 38.2269537 ] } },
{ "type": "Feature", "properties": { "内容": "ショートステイいいの・ひかり苑【短期入所生活介護】村上市飯野二丁目4番13号", "url2": "https://www.kaigokensaku.mhlw.go.jp/15/index.php?action_kouhyou_detail_004_kani=true&JigyosyoCd=1571200375-00&ServiceCd=210&Type=search" }, "geometry": { "type": "Point", "coordinates": [ 139.474932699999954, 38.2214904 ] } },
{ "type": "Feature", "properties": { "内容": "特別養護老人ホームたかつぼ【短期入所生活介護】新潟県村上市下鍜冶屋５７２番地７", "url2": "https://www.kaigokensaku.mhlw.go.jp/15/index.php?action_kouhyou_detail_004_kani=true&JigyosyoCd=1571200722-00&ServiceCd=210&Type=search" }, "geometry": { "type": "Point", "coordinates": [ 139.447727103460664, 38.112940951556766 ] } },
{ "type": "Feature", "properties": { "内容": "特別養護老人ホーム羽衣園【短期入所生活介護】新潟県村上市岩沢1616番地", "url2": "https://www.kaigokensaku.mhlw.go.jp/15/index.php?action_kouhyou_detail_004_kani=true&JigyosyoCd=1571200698-00&ServiceCd=210&Type=search" }, "geometry": { "type": "Point", "coordinates": [ 139.534690800000021, 38.262124300000011 ] } },
{ "type": "Feature", "properties": { "内容": "かごやまの里ショートステイ【短期入所生活介護】新潟県村上市北新保571-10", "url2": "https://www.kaigokensaku.mhlw.go.jp/15/index.php?action_kouhyou_detail_004_kani=true&JigyosyoCd=1571200730-00&ServiceCd=210&Type=search" }, "geometry": { "type": "Point", "coordinates": [ 139.429958899999974, 38.1582888 ] } },
{ "type": "Feature", "properties": { "内容": "分水いちごの実ショートステイ【短期入所生活介護】新潟県燕市五千石3223-3", "url2": "https://www.kaigokensaku.mhlw.go.jp/15/index.php?action_kouhyou_detail_004_kani=true&JigyosyoCd=1571300993-00&ServiceCd=210&Type=search" }, "geometry": { "type": "Point", "coordinates": [ 138.838723470222476, 37.623895940231662 ] } },
{ "type": "Feature", "properties": { "内容": "特別養護老人ホ－ム分水いちごの実【短期入所生活介護】新潟県燕市五千石3223番地3特別養護老人ホ－ム分水いちごの実", "url2": "https://www.kaigokensaku.mhlw.go.jp/15/index.php?action_kouhyou_detail_004_kani=true&JigyosyoCd=1571301033-00&ServiceCd=210&Type=search" }, "geometry": { "type": "Point", "coordinates": [ 138.8389216, 37.6238959 ] } },
{ "type": "Feature", "properties": { "内容": "白ふじの里短期入所生活介護センター【短期入所生活介護】新潟県燕市大曲２４７２番地１", "url2": "https://www.kaigokensaku.mhlw.go.jp/15/index.php?action_kouhyou_detail_004_kani=true&JigyosyoCd=1571300100-00&ServiceCd=210&Type=search" }, "geometry": { "type": "Point", "coordinates": [ 138.9150722, 37.647027 ] } },
{ "type": "Feature", "properties": { "内容": "ショートステイラビット花はな【短期入所生活介護】新潟県燕市吉田鴻巣106番地1", "url2": "https://www.kaigokensaku.mhlw.go.jp/15/index.php?action_kouhyou_detail_004_kani=true&JigyosyoCd=1571300886-00&ServiceCd=210&Type=search" }, "geometry": { "type": "Point", "coordinates": [ 138.8842479, 37.7049758 ] } },
{ "type": "Feature", "properties": { "内容": "ショートステイ　遊生の町【短期入所生活介護】新潟県燕市小関1389番地4", "url2": "https://www.kaigokensaku.mhlw.go.jp/15/index.php?action_kouhyou_detail_004_kani=true&JigyosyoCd=1571301108-00&ServiceCd=210&Type=search" }, "geometry": { "type": "Point", "coordinates": [ 138.903876522753876, 37.660429508084086 ] } },
{ "type": "Feature", "properties": { "内容": "つばめ福寿園短期入所生活介護センター【短期入所生活介護】新潟県燕市佐渡７４５番地１", "url2": "https://www.kaigokensaku.mhlw.go.jp/15/index.php?action_kouhyou_detail_004_kani=true&JigyosyoCd=1571300050-00&ServiceCd=210&Type=search" }, "geometry": { "type": "Point", "coordinates": [ 138.953461100000027, 37.6660142 ] } },
{ "type": "Feature", "properties": { "内容": "なごみケアセンター【短期入所生活介護】燕市水道町２－３－３８", "url2": "https://www.kaigokensaku.mhlw.go.jp/15/index.php?action_kouhyou_detail_004_kani=true&JigyosyoCd=1571300290-00&ServiceCd=210&Type=search" }, "geometry": { "type": "Point", "coordinates": [ 138.914854200000036, 37.6585776 ] } },
{ "type": "Feature", "properties": { "内容": "つばめケアセンターそよ風【短期入所生活介護】燕市東太田６８１４", "url2": "https://www.kaigokensaku.mhlw.go.jp/15/index.php?action_kouhyou_detail_004_kani=true&JigyosyoCd=1571300324-00&ServiceCd=210&Type=search" }, "geometry": { "type": "Point", "coordinates": [ 138.914878600000065, 37.6698373 ] } },
{ "type": "Feature", "properties": { "内容": "特別養護老人ホーム分水の里【短期入所生活介護】新潟県燕市新堀2479番地2", "url2": "https://www.kaigokensaku.mhlw.go.jp/15/index.php?action_kouhyou_detail_004_kani=true&JigyosyoCd=1571300571-00&ServiceCd=210&Type=search" }, "geometry": { "type": "Point", "coordinates": [ 138.8373967, 37.6375363 ] } },
{ "type": "Feature", "properties": { "内容": "さわたりの郷短期入所生活介護センター【短期入所生活介護】燕市佐渡７４１番地１", "url2": "https://www.kaigokensaku.mhlw.go.jp/15/index.php?action_kouhyou_detail_004_kani=true&JigyosyoCd=1571300738-00&ServiceCd=210&Type=search" }, "geometry": { "type": "Point", "coordinates": [ 138.9533583, 37.6668835 ] } },
{ "type": "Feature", "properties": { "内容": "ショートステイときわ燕【短期入所生活介護】新潟県燕市上児木390番地", "url2": "https://www.kaigokensaku.mhlw.go.jp/15/index.php?action_kouhyou_detail_004_kani=true&JigyosyoCd=1571301058-00&ServiceCd=210&Type=search" }, "geometry": { "type": "Point", "coordinates": [ 138.964666829360993, 37.685601325843805 ] } },
{ "type": "Feature", "properties": { "内容": "特別養護老人ホームみやまの里【短期入所生活介護】新潟県糸魚川市大字大野129番地", "url2": "https://www.kaigokensaku.mhlw.go.jp/15/index.php?action_kouhyou_detail_004_kani=true&JigyosyoCd=1571500063-00&ServiceCd=210&Type=search" }, "geometry": { "type": "Point", "coordinates": [ 137.8611, 37.0272212 ] } },
{ "type": "Feature", "properties": { "内容": "ショートステイじょんのび圓【短期入所生活介護】新潟県糸魚川市大字須沢２０４８－１", "url2": "https://www.kaigokensaku.mhlw.go.jp/15/index.php?action_kouhyou_detail_004_kani=true&JigyosyoCd=1571500782-00&ServiceCd=210&Type=search" }, "geometry": { "type": "Point", "coordinates": [ 137.828530735929093, 37.036500155312574 ] } },
{ "type": "Feature", "properties": { "内容": "特別養護老人ホームクレイドルやけやま【短期入所生活介護】糸魚川市大字梶屋敷915番地", "url2": "https://www.kaigokensaku.mhlw.go.jp/15/index.php?action_kouhyou_detail_004_kani=true&JigyosyoCd=1571500139-00&ServiceCd=210&Type=search" }, "geometry": { "type": "Point", "coordinates": [ 137.91533759999993, 37.0498419 ] } },
{ "type": "Feature", "properties": { "内容": "おおさわの里【短期入所生活介護】新潟県糸魚川市大字大沢313番地1", "url2": "https://www.kaigokensaku.mhlw.go.jp/15/index.php?action_kouhyou_detail_004_kani=true&JigyosyoCd=1571500360-00&ServiceCd=210&Type=search" }, "geometry": { "type": "Point", "coordinates": [ 138.028054, 37.0815751 ] } },
{ "type": "Feature", "properties": { "内容": "特別養護老人ホームふくがくちの里【短期入所生活介護】新潟県糸魚川市大字寺地３０７４番地", "url2": "https://www.kaigokensaku.mhlw.go.jp/15/index.php?action_kouhyou_detail_004_kani=true&JigyosyoCd=1571500394-00&ServiceCd=210&Type=search" }, "geometry": { "type": "Point", "coordinates": [ 137.811415500000066, 37.0170552 ] } },
{ "type": "Feature", "properties": { "内容": "ショートステイおしあげ【短期入所生活介護】新潟県糸魚川市南押上１丁目３番１１号", "url2": "https://www.kaigokensaku.mhlw.go.jp/15/index.php?action_kouhyou_detail_004_kani=true&JigyosyoCd=1571500584-00&ServiceCd=210&Type=search" }, "geometry": { "type": "Point", "coordinates": [ 137.877736499999969, 37.0471997 ] } },
{ "type": "Feature", "properties": { "内容": "ケアハートみなかみ【短期入所生活介護】妙高市大字上新保554番地1", "url2": "https://www.kaigokensaku.mhlw.go.jp/15/index.php?action_kouhyou_detail_004_kani=true&JigyosyoCd=1571600103-00&ServiceCd=210&Type=search" }, "geometry": { "type": "Point", "coordinates": [ 138.265502801713495, 37.021408987087185 ] } },
{ "type": "Feature", "properties": { "内容": "名香山苑【短期入所生活介護】新潟県妙高市大字関川733－20", "url2": "https://www.kaigokensaku.mhlw.go.jp/15/index.php?action_kouhyou_detail_004_kani=true&JigyosyoCd=1571600418-00&ServiceCd=210&Type=search" }, "geometry": { "type": "Point", "coordinates": [ 138.204470799999967, 36.8697579 ] } },
{ "type": "Feature", "properties": { "内容": "ショートステイあいれふ妙高【短期入所生活介護】新潟県妙高市大字除戸243番地", "url2": "https://www.kaigokensaku.mhlw.go.jp/15/index.php?action_kouhyou_detail_004_kani=true&JigyosyoCd=1571600723-00&ServiceCd=210&Type=search" }, "geometry": { "type": "Point", "coordinates": [ 138.271819611316261, 36.975943228751298 ] } },
{ "type": "Feature", "properties": { "内容": "特別養護老人ホームブナの里【短期入所生活介護】新潟県妙高市大字西田屋新田247番地", "url2": "https://www.kaigokensaku.mhlw.go.jp/15/index.php?action_kouhyou_detail_004_kani=true&JigyosyoCd=1571600608-00&ServiceCd=210&Type=search" }, "geometry": { "type": "Point", "coordinates": [ 138.252528500000039, 36.9511662 ] } },
{ "type": "Feature", "properties": { "内容": "ショートステイ　くりはら【短期入所生活介護】妙高市栗原２丁目８番２１号", "url2": "https://www.kaigokensaku.mhlw.go.jp/15/index.php?action_kouhyou_detail_004_kani=true&JigyosyoCd=1571600541-00&ServiceCd=210&Type=search" }, "geometry": { "type": "Point", "coordinates": [ 138.2603851, 37.045386 ] } },
{ "type": "Feature", "properties": { "内容": "ショートステイ　わかつき妙高【短期入所生活介護】新潟県妙高市大字志976番地", "url2": "https://www.kaigokensaku.mhlw.go.jp/15/index.php?action_kouhyou_detail_004_kani=true&JigyosyoCd=1571600764-00&ServiceCd=210&Type=search" }, "geometry": { "type": "Point", "coordinates": [ 138.213875032469787, 37.00587602579597 ] } },
{ "type": "Feature", "properties": { "内容": "てるてるぼうず短期入所生活介護事業部【短期入所生活介護】妙高市柳井田町4丁目12番14号", "url2": "https://www.kaigokensaku.mhlw.go.jp/15/index.php?action_kouhyou_detail_004_kani=true&JigyosyoCd=1571600269-00&ServiceCd=210&Type=search" }, "geometry": { "type": "Point", "coordinates": [ 138.259509500000036, 37.0578292 ] } },
{ "type": "Feature", "properties": { "内容": "愛松園【短期入所生活介護】新潟県五泉市番坂新１７４番地２", "url2": "https://www.kaigokensaku.mhlw.go.jp/15/index.php?action_kouhyou_detail_004_kani=true&JigyosyoCd=1571700440-00&ServiceCd=210&Type=search" }, "geometry": { "type": "Point", "coordinates": [ 139.196549399999981, 37.6867091 ] } },
{ "type": "Feature", "properties": { "内容": "菅名の里【短期入所生活介護】新潟県五泉市馬下1814-19", "url2": "https://www.kaigokensaku.mhlw.go.jp/15/index.php?action_kouhyou_detail_004_kani=true&JigyosyoCd=1571700143-00&ServiceCd=210&Type=search" }, "geometry": { "type": "Point", "coordinates": [ 139.27032650000001, 37.7367693 ] } },
{ "type": "Feature", "properties": { "内容": "ショートステイ　すもとの里【短期入所生活介護】新潟県五泉市論瀬5975番地12", "url2": "https://www.kaigokensaku.mhlw.go.jp/15/index.php?action_kouhyou_detail_004_kani=true&JigyosyoCd=1571700150-00&ServiceCd=210&Type=search" }, "geometry": { "type": "Point", "coordinates": [ 139.204340300000013, 37.7469387 ] } },
{ "type": "Feature", "properties": { "内容": "ショートステイ　ひまわり【短期入所生活介護】五泉市南本町３丁目９４９番地", "url2": "https://www.kaigokensaku.mhlw.go.jp/15/index.php?action_kouhyou_detail_004_kani=true&JigyosyoCd=1571700283-00&ServiceCd=210&Type=search" }, "geometry": { "type": "Point", "coordinates": [ 139.177247927786311, 37.731040641415134 ] } },
{ "type": "Feature", "properties": { "内容": "特別養護老人ホーム山王苑【短期入所生活介護】新潟県五泉市村松203番地1", "url2": "https://www.kaigokensaku.mhlw.go.jp/15/index.php?action_kouhyou_detail_004_kani=true&JigyosyoCd=1571700457-00&ServiceCd=210&Type=search" }, "geometry": { "type": "Point", "coordinates": [ 139.167107100000067, 37.6863058 ] } },
{ "type": "Feature", "properties": { "内容": "特別養護老人ホームよねやまの里【短期入所生活介護】新潟県上越市柿崎区柿崎６４１４－１", "url2": "https://www.kaigokensaku.mhlw.go.jp/15/index.php?action_kouhyou_detail_004_kani=true&JigyosyoCd=1570301208-00&ServiceCd=210&Type=search" }, "geometry": { "type": "Point", "coordinates": [ 138.393884699999944, 37.2778513 ] } },
{ "type": "Feature", "properties": { "内容": "老人短期入所事業三和愛宕の園【短期入所生活介護】新潟県上越市三和区井ノ口1718番地４", "url2": "https://www.kaigokensaku.mhlw.go.jp/15/index.php?action_kouhyou_detail_004_kani=true&JigyosyoCd=1570301216-00&ServiceCd=210&Type=search" }, "geometry": { "type": "Point", "coordinates": [ 138.3506576, 37.127302 ] } },
{ "type": "Feature", "properties": { "内容": "ショートステイ　名立ひなさき【短期入所生活介護】新潟県上越市名立区名立大町4174番地", "url2": "https://www.kaigokensaku.mhlw.go.jp/15/index.php?action_kouhyou_detail_004_kani=true&JigyosyoCd=1570303840-00&ServiceCd=210&Type=search" }, "geometry": { "type": "Point", "coordinates": [ 138.091524708551106, 37.15855227874949 ] } },
{ "type": "Feature", "properties": { "内容": "社会福祉法人上越頸城福祉会しおさいの里【短期入所生活介護】新潟県上越市大潟区犀潟４１０番地の２", "url2": "https://www.kaigokensaku.mhlw.go.jp/15/index.php?action_kouhyou_detail_004_kani=true&JigyosyoCd=1570301232-00&ServiceCd=210&Type=search" }, "geometry": { "type": "Point", "coordinates": [ 138.30381239999997, 37.2088953 ] } },
{ "type": "Feature", "properties": { "内容": "ショートステイ　サンクス高田【短期入所生活介護】新潟県上越市寺町3-10-11介護付有料老人ホ－ム　サンクス高田", "url2": "https://www.kaigokensaku.mhlw.go.jp/15/index.php?action_kouhyou_detail_004_kani=true&JigyosyoCd=1570302180-00&ServiceCd=210&Type=search" }, "geometry": { "type": "Point", "coordinates": [ 138.241597599999977, 37.117263 ] } },
{ "type": "Feature", "properties": { "内容": "ショートステイお堀ばた【短期入所生活介護】新潟県上越市西城町２丁目８番３０号", "url2": "https://www.kaigokensaku.mhlw.go.jp/15/index.php?action_kouhyou_detail_004_kani=true&JigyosyoCd=1570302396-00&ServiceCd=210&Type=search" }, "geometry": { "type": "Point", "coordinates": [ 138.251124800000071, 37.1109505 ] } },
{ "type": "Feature", "properties": { "内容": "短期入所生活介護太陽と緑の家今泉【短期入所生活介護】新潟県上越市大字今泉字西蓮池1310-8", "url2": "https://www.kaigokensaku.mhlw.go.jp/15/index.php?action_kouhyou_detail_004_kani=true&JigyosyoCd=1570302503-00&ServiceCd=210&Type=search" }, "geometry": { "type": "Point", "coordinates": [ 138.248337895198119, 37.094050967962914 ] } },
{ "type": "Feature", "properties": { "内容": "ふれあいの杜上越【短期入所生活介護】上越市頸城区西福島９４５－１", "url2": "https://www.kaigokensaku.mhlw.go.jp/15/index.php?action_kouhyou_detail_004_kani=true&JigyosyoCd=1570303121-00&ServiceCd=210&Type=search" }, "geometry": { "type": "Point", "coordinates": [ 138.275458599999979, 37.1817282 ] } },
{ "type": "Feature", "properties": { "内容": "ショートステイかきざき【短期入所生活介護】新潟県上越市柿崎区馬正面1176番地1", "url2": "https://www.kaigokensaku.mhlw.go.jp/15/index.php?action_kouhyou_detail_004_kani=true&JigyosyoCd=1570303303-00&ServiceCd=210&Type=search" }, "geometry": { "type": "Point", "coordinates": [ 138.379972400000042, 37.2672907 ] } },
{ "type": "Feature", "properties": { "内容": "高田ケアセンターそよ風【短期入所生活介護】新潟県上越市大字中田原105-71", "url2": "https://www.kaigokensaku.mhlw.go.jp/15/index.php?action_kouhyou_detail_004_kani=true&JigyosyoCd=1570303964-00&ServiceCd=210&Type=search" }, "geometry": { "type": "Point", "coordinates": [ 138.237530500663723, 37.095566602911546 ] } },
{ "type": "Feature", "properties": { "内容": "ショートステイ　いたくら桜園【短期入所生活介護】上越市板倉区曽根田101番地7", "url2": "https://www.kaigokensaku.mhlw.go.jp/15/index.php?action_kouhyou_detail_004_kani=true&JigyosyoCd=1570301257-00&ServiceCd=210&Type=search" }, "geometry": { "type": "Point", "coordinates": [ 138.309279400000037, 37.04566 ] } },
{ "type": "Feature", "properties": { "内容": "ショートステイ　やまと【短期入所生活介護】上越市大和３丁目２１番８号", "url2": "https://www.kaigokensaku.mhlw.go.jp/15/index.php?action_kouhyou_detail_004_kani=true&JigyosyoCd=1570300960-00&ServiceCd=210&Type=search" }, "geometry": { "type": "Point", "coordinates": [ 138.250431906745916, 37.088152117400767 ] } },
{ "type": "Feature", "properties": { "内容": "特別養護老人ホームほくら園【短期入所生活介護】新潟県上越市大島区大平5131番地", "url2": "https://www.kaigokensaku.mhlw.go.jp/15/index.php?action_kouhyou_detail_004_kani=true&JigyosyoCd=1570301240-00&ServiceCd=210&Type=search" }, "geometry": { "type": "Point", "coordinates": [ 138.5116578, 37.1561578 ] } },
{ "type": "Feature", "properties": { "内容": "短期入所施設　桑の里【短期入所生活介護】新潟県上越市大字京田１３４番地１", "url2": "https://www.kaigokensaku.mhlw.go.jp/15/index.php?action_kouhyou_detail_004_kani=true&JigyosyoCd=1570302776-00&ServiceCd=210&Type=search" }, "geometry": { "type": "Point", "coordinates": [ 138.233242422862304, 37.097516805443952 ] } },
{ "type": "Feature", "properties": { "内容": "ショートステイひこばえの森【短期入所生活介護】新潟県上越市寺町２丁目１番１８号", "url2": "https://www.kaigokensaku.mhlw.go.jp/15/index.php?action_kouhyou_detail_004_kani=true&JigyosyoCd=1570302925-00&ServiceCd=210&Type=search" }, "geometry": { "type": "Point", "coordinates": [ 138.241255831352191, 37.112928303195964 ] } },
{ "type": "Feature", "properties": { "内容": "ショートステイだいにち【短期入所生活介護】新潟県上越市大字大日34番地5", "url2": "https://www.kaigokensaku.mhlw.go.jp/15/index.php?action_kouhyou_detail_004_kani=true&JigyosyoCd=1570303014-00&ServiceCd=210&Type=search" }, "geometry": { "type": "Point", "coordinates": [ 138.264577799999984, 37.1322755 ] } },
{ "type": "Feature", "properties": { "内容": "ショートステイめぐみ【短期入所生活介護】新潟県上越市鴨島１０７５番地", "url2": "https://www.kaigokensaku.mhlw.go.jp/15/index.php?action_kouhyou_detail_004_kani=true&JigyosyoCd=1570303311-00&ServiceCd=210&Type=search" }, "geometry": { "type": "Point", "coordinates": [ 138.27416976325992, 37.110766774335609 ] } },
{ "type": "Feature", "properties": { "内容": "ショートステイあさひ【短期入所生活介護】新潟県上越市日之出町１２番地１", "url2": "https://www.kaigokensaku.mhlw.go.jp/15/index.php?action_kouhyou_detail_004_kani=true&JigyosyoCd=1570303451-00&ServiceCd=210&Type=search" }, "geometry": { "type": "Point", "coordinates": [ 138.27071557036129, 37.180599635870365 ] } },
{ "type": "Feature", "properties": { "内容": "特別養護老人ホームみねの園（ショートステイ）【短期入所生活介護】新潟県上越市清里区岡野町1618", "url2": "https://www.kaigokensaku.mhlw.go.jp/15/index.php?action_kouhyou_detail_004_kani=true&JigyosyoCd=1570304038-00&ServiceCd=210&Type=search" }, "geometry": { "type": "Point", "coordinates": [ 138.331688717196641, 37.078948812054946 ] } },
{ "type": "Feature", "properties": { "内容": "短期入所施設　大潟愛宕の園【短期入所生活介護】新潟県上越市大潟区土底浜978番地1", "url2": "https://www.kaigokensaku.mhlw.go.jp/15/index.php?action_kouhyou_detail_004_kani=true&JigyosyoCd=1570303998-00&ServiceCd=210&Type=search" }, "geometry": { "type": "Point", "coordinates": [ 138.339395225467854, 37.22983338506441 ] } },
{ "type": "Feature", "properties": { "内容": "ショートステイ　シンパシー【短期入所生活介護】新潟県阿賀野市南安野町８番２０号", "url2": "https://www.kaigokensaku.mhlw.go.jp/15/index.php?action_kouhyou_detail_004_kani=true&JigyosyoCd=1572100707-00&ServiceCd=210&Type=search" }, "geometry": { "type": "Point", "coordinates": [ 139.212120700000014, 37.8363921 ] } },
{ "type": "Feature", "properties": { "内容": "特別養護老人ホーム　はぐろの里【短期入所生活介護】新潟県阿賀野市畑江333", "url2": "https://www.kaigokensaku.mhlw.go.jp/15/index.php?action_kouhyou_detail_004_kani=true&JigyosyoCd=1572100087-00&ServiceCd=210&Type=search" }, "geometry": { "type": "Point", "coordinates": [ 139.292513399999962, 37.8229067 ] } },
{ "type": "Feature", "properties": { "内容": "特別養護老人ホーム　白鳥荘【短期入所生活介護】新潟県阿賀野市百津８８", "url2": "https://www.kaigokensaku.mhlw.go.jp/15/index.php?action_kouhyou_detail_004_kani=true&JigyosyoCd=1572100061-00&ServiceCd=210&Type=search" }, "geometry": { "type": "Point", "coordinates": [ 139.213687299999947, 37.8308373 ] } },
{ "type": "Feature", "properties": { "内容": "特別養護老人ホームコスモスの里【短期入所生活介護】新潟県阿賀野市飯森杉437-2", "url2": "https://www.kaigokensaku.mhlw.go.jp/15/index.php?action_kouhyou_detail_004_kani=true&JigyosyoCd=1572100079-00&ServiceCd=210&Type=search" }, "geometry": { "type": "Point", "coordinates": [ 139.187676300000021, 37.8379079 ] } },
{ "type": "Feature", "properties": { "内容": "短期入所生活介護施設かがやき苑（ショートステイ）【短期入所生活介護】新潟県阿賀野市寺社甲3848番地212特別養護老人ホームかがやき苑内", "url2": "https://www.kaigokensaku.mhlw.go.jp/15/index.php?action_kouhyou_detail_004_kani=true&JigyosyoCd=1572100939-00&ServiceCd=210&Type=search" }, "geometry": { "type": "Point", "coordinates": [ 139.234908078712465, 37.786340265285105 ] } },
{ "type": "Feature", "properties": { "内容": "特別養護老人ホームやすだの里【短期入所生活介護】阿賀野市保田5683番地23", "url2": "https://www.kaigokensaku.mhlw.go.jp/15/index.php?action_kouhyou_detail_004_kani=true&JigyosyoCd=1572100053-00&ServiceCd=210&Type=search" }, "geometry": { "type": "Point", "coordinates": [ 139.270889, 37.7803059 ] } },
{ "type": "Feature", "properties": { "内容": "はもちの里【短期入所生活介護】新潟県佐渡市羽茂本郷２５番地", "url2": "https://www.kaigokensaku.mhlw.go.jp/15/index.php?action_kouhyou_detail_004_kani=true&JigyosyoCd=1572200259-00&ServiceCd=210&Type=search" }, "geometry": { "type": "Point", "coordinates": [ 138.312245210559013, 37.843264200730729 ] } },
{ "type": "Feature", "properties": { "内容": "スマイル赤泊【短期入所生活介護】新潟県佐渡市徳和６２０７番地２", "url2": "https://www.kaigokensaku.mhlw.go.jp/15/index.php?action_kouhyou_detail_004_kani=true&JigyosyoCd=1572200887-00&ServiceCd=210&Type=search" }, "geometry": { "type": "Point", "coordinates": [ 138.416212473016373, 37.87165270382129 ] } },
{ "type": "Feature", "properties": { "内容": "真野の里二号館【短期入所生活介護】新潟県佐渡市八幡1881番地1", "url2": "https://www.kaigokensaku.mhlw.go.jp/15/index.php?action_kouhyou_detail_004_kani=true&JigyosyoCd=1572201190-00&ServiceCd=210&Type=search" }, "geometry": { "type": "Point", "coordinates": [ 138.3425469, 37.9858973 ] } },
{ "type": "Feature", "properties": { "内容": "真野の里【短期入所生活介護】新潟県佐渡市真野新町624番地2", "url2": "https://www.kaigokensaku.mhlw.go.jp/15/index.php?action_kouhyou_detail_004_kani=true&JigyosyoCd=1572200242-00&ServiceCd=210&Type=search" }, "geometry": { "type": "Point", "coordinates": [ 138.348328199999969, 37.964461 ] } },
{ "type": "Feature", "properties": { "内容": "老人短期入所施設　すみよし【短期入所生活介護】新潟県佐渡市住吉１２６番地２", "url2": "https://www.kaigokensaku.mhlw.go.jp/15/index.php?action_kouhyou_detail_004_kani=true&JigyosyoCd=1572201091-00&ServiceCd=210&Type=search" }, "geometry": { "type": "Point", "coordinates": [ 138.45006920000003, 38.0718652 ] } },
{ "type": "Feature", "properties": { "内容": "特別養護老人ホーム朱鷺いろの杜　梅津【短期入所生活介護】新潟県佐渡市梅津2317番地1", "url2": "https://www.kaigokensaku.mhlw.go.jp/15/index.php?action_kouhyou_detail_004_kani=true&JigyosyoCd=1572290011-00&ServiceCd=210&Type=search" }, "geometry": { "type": "Point", "coordinates": [ 138.430477200000013, 38.0954638 ] } },
{ "type": "Feature", "properties": { "内容": "大浦の里【短期入所生活介護】新潟県佐渡市相川大浦５３３番地２", "url2": "https://www.kaigokensaku.mhlw.go.jp/15/index.php?action_kouhyou_detail_004_kani=true&JigyosyoCd=1572200226-00&ServiceCd=210&Type=search" }, "geometry": { "type": "Point", "coordinates": [ 138.226938, 38.0155125 ] } },
{ "type": "Feature", "properties": { "内容": "大浦の里二号館【短期入所生活介護】新潟県佐渡市相川大浦1285番地3", "url2": "https://www.kaigokensaku.mhlw.go.jp/15/index.php?action_kouhyou_detail_004_kani=true&JigyosyoCd=1572201257-00&ServiceCd=210&Type=search" }, "geometry": { "type": "Point", "coordinates": [ 138.226431043043675, 38.015778226066111 ] } },
{ "type": "Feature", "properties": { "内容": "ショートステイ　新穂愛宕の園【短期入所生活介護】佐渡市新穂瓜生屋339番地2", "url2": "https://www.kaigokensaku.mhlw.go.jp/15/index.php?action_kouhyou_detail_004_kani=true&JigyosyoCd=1572201059-00&ServiceCd=210&Type=search" }, "geometry": { "type": "Point", "coordinates": [ 138.423896099999979, 38.0162433 ] } },
{ "type": "Feature", "properties": { "内容": "やはたの里【短期入所生活介護】新潟県佐渡市八幡町340", "url2": "https://www.kaigokensaku.mhlw.go.jp/15/index.php?action_kouhyou_detail_004_kani=true&JigyosyoCd=1572200234-00&ServiceCd=210&Type=search" }, "geometry": { "type": "Point", "coordinates": [ 138.325400599999966, 37.995965 ] } },
{ "type": "Feature", "properties": { "内容": "ショートステイ　雲雀ヶ丘【短期入所生活介護】新潟県魚沼市小出島260番地1", "url2": "https://www.kaigokensaku.mhlw.go.jp/15/index.php?action_kouhyou_detail_004_kani=true&JigyosyoCd=1572300588-00&ServiceCd=210&Type=search" }, "geometry": { "type": "Point", "coordinates": [ 138.959348, 37.2291174 ] } },
{ "type": "Feature", "properties": { "内容": "特別養護老人ホーム寿和ホーム【短期入所生活介護】新潟県魚沼市大栃山628番地1", "url2": "https://www.kaigokensaku.mhlw.go.jp/15/index.php?action_kouhyou_detail_004_kani=true&JigyosyoCd=1572300190-00&ServiceCd=210&Type=search" }, "geometry": { "type": "Point", "coordinates": [ 139.06909840000003, 37.3555154 ] } },
{ "type": "Feature", "properties": { "内容": "指定短期入所介護事業所　うかじ園【短期入所生活介護】新潟県魚沼市徳田112番地1", "url2": "https://www.kaigokensaku.mhlw.go.jp/15/index.php?action_kouhyou_detail_004_kani=true&JigyosyoCd=1572300166-00&ServiceCd=210&Type=search" }, "geometry": { "type": "Point", "coordinates": [ 138.909464899999989, 37.2565193 ] } },
{ "type": "Feature", "properties": { "内容": "特別養護老人ホーム美雪園【短期入所生活介護】新潟県魚沼市和田413番地1", "url2": "https://www.kaigokensaku.mhlw.go.jp/15/index.php?action_kouhyou_detail_004_kani=true&JigyosyoCd=1572300174-00&ServiceCd=210&Type=search" }, "geometry": { "type": "Point", "coordinates": [ 138.979443899999978, 37.2785289 ] } },
{ "type": "Feature", "properties": { "内容": "あぶるま苑【短期入所生活介護】魚沼市須原1293番地", "url2": "https://www.kaigokensaku.mhlw.go.jp/15/index.php?action_kouhyou_detail_004_kani=true&JigyosyoCd=1572300182-00&ServiceCd=210&Type=search" }, "geometry": { "type": "Point", "coordinates": [ 139.018354899999963, 37.3183799 ] } },
{ "type": "Feature", "properties": { "内容": "特別養護老人ホームうおの園【短期入所生活介護】新潟県魚沼市原虫野438番地4", "url2": "https://www.kaigokensaku.mhlw.go.jp/15/index.php?action_kouhyou_detail_004_kani=true&JigyosyoCd=1572300158-00&ServiceCd=210&Type=search" }, "geometry": { "type": "Point", "coordinates": [ 138.962159199999974, 37.2148886 ] } },
{ "type": "Feature", "properties": { "内容": "ショートステイ百花園【短期入所生活介護】新潟県南魚沼市関852番地", "url2": "https://www.kaigokensaku.mhlw.go.jp/15/index.php?action_kouhyou_detail_004_kani=true&JigyosyoCd=1572401030-00&ServiceCd=210&Type=search" }, "geometry": { "type": "Point", "coordinates": [ 138.811240099999964, 36.9916818 ] } },
{ "type": "Feature", "properties": { "内容": "魚沼地域特別養護老人ホーム八色園【短期入所生活介護】新潟県南魚沼市浦佐４０５９－１", "url2": "https://www.kaigokensaku.mhlw.go.jp/15/index.php?action_kouhyou_detail_004_kani=true&JigyosyoCd=1572400206-00&ServiceCd=210&Type=search" }, "geometry": { "type": "Point", "coordinates": [ 138.936185300000034, 37.1701323 ] } },
{ "type": "Feature", "properties": { "内容": "特別養護老人ホームみなみ園【短期入所生活介護】南魚沼市六日町712-4", "url2": "https://www.kaigokensaku.mhlw.go.jp/15/index.php?action_kouhyou_detail_004_kani=true&JigyosyoCd=1572400198-00&ServiceCd=210&Type=search" }, "geometry": { "type": "Point", "coordinates": [ 138.865169199999968, 37.0553699 ] } },
{ "type": "Feature", "properties": { "内容": "特別養護老人ホームまいこ園　短期入所生活介護【短期入所生活介護】新潟県南魚沼市仙石1番地18特別養護老人ホームまいこ園", "url2": "https://www.kaigokensaku.mhlw.go.jp/15/index.php?action_kouhyou_detail_004_kani=true&JigyosyoCd=1572400594-00&ServiceCd=210&Type=search" }, "geometry": { "type": "Point", "coordinates": [ 138.841555255140094, 37.006804322433361 ] } },
{ "type": "Feature", "properties": { "内容": "特別養護老人ホーム　こころの杜【短期入所生活介護】南魚沼市六日町１１４８－１", "url2": "https://www.kaigokensaku.mhlw.go.jp/15/index.php?action_kouhyou_detail_004_kani=true&JigyosyoCd=1572400768-00&ServiceCd=210&Type=search" }, "geometry": { "type": "Point", "coordinates": [ 138.876756699999987, 37.0579116 ] } },
{ "type": "Feature", "properties": { "内容": "雪椿の里ショートステイ【短期入所生活介護】新潟県南魚沼市穴地１４番地１", "url2": "https://www.kaigokensaku.mhlw.go.jp/15/index.php?action_kouhyou_detail_004_kani=true&JigyosyoCd=1572400891-00&ServiceCd=210&Type=search" }, "geometry": { "type": "Point", "coordinates": [ 138.95387089999997, 37.1370822 ] } },
{ "type": "Feature", "properties": { "内容": "特別養護老人ホーム　第二胎内やすらぎの家【短期入所生活介護】新潟県胎内市熱田坂８８１－８６", "url2": "https://www.kaigokensaku.mhlw.go.jp/15/index.php?action_kouhyou_detail_004_kani=true&JigyosyoCd=1572500021-00&ServiceCd=210&Type=search" }, "geometry": { "type": "Point", "coordinates": [ 139.49695220000001, 38.0165412 ] } },
{ "type": "Feature", "properties": { "内容": "ショートステイアップル花はな【短期入所生活介護】新潟県胎内市西条614番地1", "url2": "https://www.kaigokensaku.mhlw.go.jp/15/index.php?action_kouhyou_detail_004_kani=true&JigyosyoCd=1572500419-00&ServiceCd=210&Type=search" }, "geometry": { "type": "Point", "coordinates": [ 139.396651344813506, 38.068318624942776 ] } },
{ "type": "Feature", "properties": { "内容": "ショートステイ　ウエルネス中条【短期入所生活介護】胎内市表町6-17-12", "url2": "https://www.kaigokensaku.mhlw.go.jp/15/index.php?action_kouhyou_detail_004_kani=true&JigyosyoCd=1572500328-00&ServiceCd=210&Type=search" }, "geometry": { "type": "Point", "coordinates": [ 139.3989494, 38.048642 ] } },
{ "type": "Feature", "properties": { "内容": "特別養護老人ホーム　はすがた園【短期入所生活介護】新潟県北蒲原郡聖籠町大字蓮潟2249番地", "url2": "https://www.kaigokensaku.mhlw.go.jp/15/index.php?action_kouhyou_detail_004_kani=true&JigyosyoCd=1575001183-00&ServiceCd=210&Type=search" }, "geometry": { "type": "Point", "coordinates": [ 139.265986, 37.9791849 ] } },
{ "type": "Feature", "properties": { "内容": "弥彦介護施設あおぞら【短期入所生活介護】新潟県西蒲原郡弥彦村大字弥彦721番地1", "url2": "https://www.kaigokensaku.mhlw.go.jp/15/index.php?action_kouhyou_detail_004_kani=true&JigyosyoCd=1575201312-00&ServiceCd=210&Type=search" }, "geometry": { "type": "Point", "coordinates": [ 138.828850800000026, 37.6914064 ] } },
{ "type": "Feature", "properties": { "内容": "特別養護老人ホーム　桜井の里【短期入所生活介護】新潟県西蒲原郡弥彦村大字麓３０３６番地", "url2": "https://www.kaigokensaku.mhlw.go.jp/15/index.php?action_kouhyou_detail_004_kani=true&JigyosyoCd=1575200314-00&ServiceCd=210&Type=search" }, "geometry": { "type": "Point", "coordinates": [ 138.826521100000036, 37.6800632 ] } },
{ "type": "Feature", "properties": { "内容": "老人介護施設　第３たがみの里【短期入所生活介護】南蒲原郡田上町大字川船河甲1052番1", "url2": "https://www.kaigokensaku.mhlw.go.jp/15/index.php?action_kouhyou_detail_004_kani=true&JigyosyoCd=1575300361-00&ServiceCd=210&Type=search" }, "geometry": { "type": "Point", "coordinates": [ 139.058179136909501, 37.679140828242041 ] } },
{ "type": "Feature", "properties": { "内容": "特別養護老人ホーム　あじさいの里【短期入所生活介護】新潟県南蒲原郡田上町大字田上丙2987-1", "url2": "https://www.kaigokensaku.mhlw.go.jp/15/index.php?action_kouhyou_detail_004_kani=true&JigyosyoCd=1575300155-00&ServiceCd=210&Type=search" }, "geometry": { "type": "Point", "coordinates": [ 139.077454699999947, 37.7202909 ] } },
{ "type": "Feature", "properties": { "内容": "老人介護施設たがみの里【短期入所生活介護】南蒲原郡田上町大字川船河８８３番地１", "url2": "https://www.kaigokensaku.mhlw.go.jp/15/index.php?action_kouhyou_detail_004_kani=true&JigyosyoCd=1575300320-00&ServiceCd=210&Type=search" }, "geometry": { "type": "Point", "coordinates": [ 139.0572459, 37.6795758 ] } },
{ "type": "Feature", "properties": { "内容": "ショートステイ　希望の丘【短期入所生活介護】新潟県南蒲原郡田上町大字坂田135番地", "url2": "https://www.kaigokensaku.mhlw.go.jp/15/index.php?action_kouhyou_detail_004_kani=true&JigyosyoCd=1575300395-00&ServiceCd=210&Type=search" }, "geometry": { "type": "Point", "coordinates": [ 139.053304641278146, 37.674333363026811 ] } },
{ "type": "Feature", "properties": { "内容": "短期入所生活介護事業所東蒲の里【短期入所生活介護】新潟県東蒲原郡阿賀町津川207番地1", "url2": "https://www.kaigokensaku.mhlw.go.jp/15/index.php?action_kouhyou_detail_004_kani=true&JigyosyoCd=1575400146-00&ServiceCd=210&Type=search" }, "geometry": { "type": "Point", "coordinates": [ 139.46331269999996, 37.6785656 ] } },
{ "type": "Feature", "properties": { "内容": "短期入所生活介護事業所東蒲の里みかわ園【短期入所生活介護】新潟県東蒲原郡阿賀町あが野南４３１９－４", "url2": "https://www.kaigokensaku.mhlw.go.jp/15/index.php?action_kouhyou_detail_004_kani=true&JigyosyoCd=1575400153-00&ServiceCd=210&Type=search" }, "geometry": { "type": "Point", "coordinates": [ 139.368379900000036, 37.7078581 ] } },
{ "type": "Feature", "properties": { "内容": "短期入所生活介護事業所どんぐり【短期入所生活介護】新潟県東蒲原郡阿賀町九島5525番地", "url2": "https://www.kaigokensaku.mhlw.go.jp/15/index.php?action_kouhyou_detail_004_kani=true&JigyosyoCd=1575400393-00&ServiceCd=210&Type=search" }, "geometry": { "type": "Point", "coordinates": [ 139.469635599999947, 37.6432339 ] } },
{ "type": "Feature", "properties": { "内容": "特別養護老人ホームやすらぎの里【短期入所生活介護】新潟県三島郡出雲崎町大字川西660番地１", "url2": "https://www.kaigokensaku.mhlw.go.jp/15/index.php?action_kouhyou_detail_004_kani=true&JigyosyoCd=1575500176-00&ServiceCd=210&Type=search" }, "geometry": { "type": "Point", "coordinates": [ 138.707417, 37.5227802 ] } },
{ "type": "Feature", "properties": { "内容": "特別養護老人ホームゆのさと園【短期入所生活介護】新潟県南魚沼郡湯沢町大字神立1647番地275", "url2": "https://www.kaigokensaku.mhlw.go.jp/15/index.php?action_kouhyou_detail_004_kani=true&JigyosyoCd=1575800253-00&ServiceCd=210&Type=search" }, "geometry": { "type": "Point", "coordinates": [ 138.832169499999964, 36.9294951 ] } },
{ "type": "Feature", "properties": { "内容": "かりん短期入所生活介護【短期入所生活介護】新潟県中魚沼郡津南町大字芦ヶ崎乙329番地1特別養護老人ホームかりんの里", "url2": "https://www.kaigokensaku.mhlw.go.jp/15/index.php?action_kouhyou_detail_004_kani=true&JigyosyoCd=1575900269-00&ServiceCd=210&Type=search" }, "geometry": { "type": "Point", "coordinates": [ 138.634307062565682, 37.004386558667512 ] } },
{ "type": "Feature", "properties": { "内容": "特別養護老人ホームみさと苑【短期入所生活介護】新潟県中魚沼郡津南町大字芦ヶ崎乙317-1特別養護老人ホームみさと苑", "url2": "https://www.kaigokensaku.mhlw.go.jp/15/index.php?action_kouhyou_detail_004_kani=true&JigyosyoCd=1575900277-00&ServiceCd=210&Type=search" }, "geometry": { "type": "Point", "coordinates": [ 138.634449875087597, 37.004524285768376 ] } },
{ "type": "Feature", "properties": { "内容": "特別養護老人ホーム　恵福園【短期入所生活介護】新潟県中魚沼郡津南町大字下船渡丁2682-3", "url2": "https://www.kaigokensaku.mhlw.go.jp/15/index.php?action_kouhyou_detail_004_kani=true&JigyosyoCd=1575900053-00&ServiceCd=210&Type=search" }, "geometry": { "type": "Point", "coordinates": [ 138.649105700000064, 37.0154851 ] } },
{ "type": "Feature", "properties": { "内容": "特別養護老人ホーム　垂水の里【短期入所生活介護】新潟県岩船郡関川村大字湯沢　728番地1", "url2": "https://www.kaigokensaku.mhlw.go.jp/15/index.php?action_kouhyou_detail_004_kani=true&JigyosyoCd=1576400202-00&ServiceCd=210&Type=search" }, "geometry": { "type": "Point", "coordinates": [ 139.573905400000058, 38.0950834 ] } }
]
}
