{
"type": "FeatureCollection",
"name": "geo_15_介護老人福祉施設",
"crs": { "type": "name", "properties": { "name": "urn:ogc:def:crs:OGC:1.3:CRS84" } },
"features": [
{ "type": "Feature", "properties": { "内容": "特別養護老人ホームまつはま園【介護老人福祉施設】新潟県新潟市北区太夫浜１７４７番地", "url2": "https://www.kaigokensaku.mhlw.go.jp/15/index.php?action_kouhyou_detail_004_kani=true&JigyosyoCd=1570101095-00&ServiceCd=510&Type=search" }, "geometry": { "type": "Point", "coordinates": [ 139.154917699999942, 37.954299081934963 ] } },
{ "type": "Feature", "properties": { "内容": "特別養護老人ホーム愛宕の園【介護老人福祉施設】新潟県新潟市北区松潟1510番地", "url2": "https://www.kaigokensaku.mhlw.go.jp/15/index.php?action_kouhyou_detail_004_kani=true&JigyosyoCd=1570101160-00&ServiceCd=510&Type=search" }, "geometry": { "type": "Point", "coordinates": [ 139.173792400000025, 37.930155199999987 ] } },
{ "type": "Feature", "properties": { "内容": "特別養護老人ホーム　新潟北愛宕の園【介護老人福祉施設】新潟県新潟市北区前新田甲７４番地１", "url2": "https://www.kaigokensaku.mhlw.go.jp/15/index.php?action_kouhyou_detail_004_kani=true&JigyosyoCd=1570112498-00&ServiceCd=510&Type=search" }, "geometry": { "type": "Point", "coordinates": [ 139.224888414958173, 37.910436159020684 ] } },
{ "type": "Feature", "properties": { "内容": "特別養護老人ホーム　新潟北愛宕の園【介護老人福祉施設】新潟県新潟市北区前新田甲７４番地１", "url2": "https://www.kaigokensaku.mhlw.go.jp/15/index.php?action_kouhyou_detail_004_kani=true&JigyosyoCd=1570112480-00&ServiceCd=510&Type=search" }, "geometry": { "type": "Point", "coordinates": [ 139.224893779376202, 37.910427694267085 ] } },
{ "type": "Feature", "properties": { "内容": "特別養護老人ホームなぎさの里【介護老人福祉施設】新潟県新潟市北区島見町4524-13", "url2": "https://www.kaigokensaku.mhlw.go.jp/15/index.php?action_kouhyou_detail_004_kani=true&JigyosyoCd=1570102820-00&ServiceCd=510&Type=search" }, "geometry": { "type": "Point", "coordinates": [ 139.187059, 37.9582275 ] } },
{ "type": "Feature", "properties": { "内容": "特別養護老人ホームほうせい園【介護老人福祉施設】新潟県新潟市北区葛塚618番地", "url2": "https://www.kaigokensaku.mhlw.go.jp/15/index.php?action_kouhyou_detail_004_kani=true&JigyosyoCd=1570104560-00&ServiceCd=510&Type=search" }, "geometry": { "type": "Point", "coordinates": [ 139.213821300000063, 37.9320084 ] } },
{ "type": "Feature", "properties": { "内容": "特別養護老人ホームながうらの郷【介護老人福祉施設】新潟県新潟市北区上土地亀２４３３番地１", "url2": "https://www.kaigokensaku.mhlw.go.jp/15/index.php?action_kouhyou_detail_004_kani=true&JigyosyoCd=1570104578-00&ServiceCd=510&Type=search" }, "geometry": { "type": "Point", "coordinates": [ 139.212103899999988, 37.898881100000011 ] } },
{ "type": "Feature", "properties": { "内容": "特別養護老人ホーム　新潟東愛宕の園【介護老人福祉施設】新潟県新潟市東区若葉町2丁目17番40号", "url2": "https://www.kaigokensaku.mhlw.go.jp/15/index.php?action_kouhyou_detail_004_kani=true&JigyosyoCd=1570111045-00&ServiceCd=510&Type=search" }, "geometry": { "type": "Point", "coordinates": [ 139.116220800000065, 37.8996077 ] } },
{ "type": "Feature", "properties": { "内容": "特別養護老人ホーム　新潟東愛宕の園【介護老人福祉施設】新潟県新潟市東区若葉町2丁目17番40号", "url2": "https://www.kaigokensaku.mhlw.go.jp/15/index.php?action_kouhyou_detail_004_kani=true&JigyosyoCd=1570111060-00&ServiceCd=510&Type=search" }, "geometry": { "type": "Point", "coordinates": [ 139.116220800000065, 37.8996077 ] } },
{ "type": "Feature", "properties": { "内容": "特別養護老人ホーム大山愛宕の園【介護老人福祉施設】新潟県新潟市東区大山2丁目13番34号あたごの杜大山台", "url2": "https://www.kaigokensaku.mhlw.go.jp/15/index.php?action_kouhyou_detail_004_kani=true&JigyosyoCd=1570116309-00&ServiceCd=510&Type=search" }, "geometry": { "type": "Point", "coordinates": [ 139.078130437959288, 37.936881622178475 ] } },
{ "type": "Feature", "properties": { "内容": "特別養護老人ホームあしぬま荘【介護老人福祉施設】新潟県新潟市東区岡山1183番地1", "url2": "https://www.kaigokensaku.mhlw.go.jp/15/index.php?action_kouhyou_detail_004_kani=true&JigyosyoCd=1570101061-00&ServiceCd=510&Type=search" }, "geometry": { "type": "Point", "coordinates": [ 139.104024, 37.9179222 ] } },
{ "type": "Feature", "properties": { "内容": "特別養護老人ホームあしぬま荘【介護老人福祉施設】新潟県新潟市東区岡山1183番地1", "url2": "https://www.kaigokensaku.mhlw.go.jp/15/index.php?action_kouhyou_detail_004_kani=true&JigyosyoCd=1570116358-00&ServiceCd=510&Type=search" }, "geometry": { "type": "Point", "coordinates": [ 139.123669799999988, 37.9154623 ] } },
{ "type": "Feature", "properties": { "内容": "特別養護老人ホーム河渡の郷【介護老人福祉施設】新潟県新潟市東区河渡2丁目4番65号", "url2": "https://www.kaigokensaku.mhlw.go.jp/15/index.php?action_kouhyou_detail_004_kani=true&JigyosyoCd=1570102606-00&ServiceCd=510&Type=search" }, "geometry": { "type": "Point", "coordinates": [ 139.098662, 37.9364232 ] } },
{ "type": "Feature", "properties": { "内容": "特別養護老人ホーム桃山園【介護老人福祉施設】新潟県新潟市東区桃山町1丁目１１４－７", "url2": "https://www.kaigokensaku.mhlw.go.jp/15/index.php?action_kouhyou_detail_004_kani=true&JigyosyoCd=1570101152-00&ServiceCd=510&Type=search" }, "geometry": { "type": "Point", "coordinates": [ 139.0758495, 37.9445493 ] } },
{ "type": "Feature", "properties": { "内容": "特別養護老人ホーム風の笛【介護老人福祉施設】新潟県新潟市東区下木戸2-28-13特別養護老人ホーム風の笛", "url2": "https://www.kaigokensaku.mhlw.go.jp/15/index.php?action_kouhyou_detail_004_kani=true&JigyosyoCd=1570111748-00&ServiceCd=510&Type=search" }, "geometry": { "type": "Point", "coordinates": [ 139.094740600000023, 37.9285988 ] } },
{ "type": "Feature", "properties": { "内容": "特別養護老人ホーム風の笛　ユニット型【介護老人福祉施設】新潟県新潟市東区下木戸2-28-13特別養護老人ホーム風の笛", "url2": "https://www.kaigokensaku.mhlw.go.jp/15/index.php?action_kouhyou_detail_004_kani=true&JigyosyoCd=1570111755-00&ServiceCd=510&Type=search" }, "geometry": { "type": "Point", "coordinates": [ 139.094740600000023, 37.9285988 ] } },
{ "type": "Feature", "properties": { "内容": "特別養護老人ホーム　山王苑にいがた【介護老人福祉施設】新潟県新潟市東区海老ヶ瀬643番地", "url2": "https://www.kaigokensaku.mhlw.go.jp/15/index.php?action_kouhyou_detail_004_kani=true&JigyosyoCd=1570110625-00&ServiceCd=510&Type=search" }, "geometry": { "type": "Point", "coordinates": [ 139.122734620901497, 37.926419362914437 ] } },
{ "type": "Feature", "properties": { "内容": "特別養護老人ホーム江東園【介護老人福祉施設】新潟県新潟市中央区姥ケ山359番地1", "url2": "https://www.kaigokensaku.mhlw.go.jp/15/index.php?action_kouhyou_detail_004_kani=true&JigyosyoCd=1570101137-00&ServiceCd=510&Type=search" }, "geometry": { "type": "Point", "coordinates": [ 139.081794299999956, 37.8859912 ] } },
{ "type": "Feature", "properties": { "内容": "特別養護老人ホーム　おもと園【介護老人福祉施設】新潟県新潟市中央区女池西二丁目6番25号", "url2": "https://www.kaigokensaku.mhlw.go.jp/15/index.php?action_kouhyou_detail_004_kani=true&JigyosyoCd=1570101079-00&ServiceCd=510&Type=search" }, "geometry": { "type": "Point", "coordinates": [ 139.035130811639419, 37.8910572646354 ] } },
{ "type": "Feature", "properties": { "内容": "特別養護老人ホーム　おもと園【介護老人福祉施設】新潟県新潟市中央区女池西二丁目6番25号", "url2": "https://www.kaigokensaku.mhlw.go.jp/15/index.php?action_kouhyou_detail_004_kani=true&JigyosyoCd=1570115756-00&ServiceCd=510&Type=search" }, "geometry": { "type": "Point", "coordinates": [ 139.0351196, 37.891064 ] } },
{ "type": "Feature", "properties": { "内容": "特別養護老人ホーム康和園【介護老人福祉施設】新潟県新潟市中央区附船町１－４３７８", "url2": "https://www.kaigokensaku.mhlw.go.jp/15/index.php?action_kouhyou_detail_004_kani=true&JigyosyoCd=1570101038-00&ServiceCd=510&Type=search" }, "geometry": { "type": "Point", "coordinates": [ 139.05579339999997, 37.9351849 ] } },
{ "type": "Feature", "properties": { "内容": "特別養護老人ホーム柳都の杜【介護老人福祉施設】新潟県新潟市中央区四ツ屋町3丁目5116番地1", "url2": "https://www.kaigokensaku.mhlw.go.jp/15/index.php?action_kouhyou_detail_004_kani=true&JigyosyoCd=1570115657-00&ServiceCd=510&Type=search" }, "geometry": { "type": "Point", "coordinates": [ 139.042709643445676, 37.932342349149366 ] } },
{ "type": "Feature", "properties": { "内容": "特別養護老人ホーム美咲の里（ユニット型）【介護老人福祉施設】新潟県新潟市中央区美咲町１丁目23番43号特別養護老人ホーム　美咲の里", "url2": "https://www.kaigokensaku.mhlw.go.jp/15/index.php?action_kouhyou_detail_004_kani=true&JigyosyoCd=1570111243-00&ServiceCd=510&Type=search" }, "geometry": { "type": "Point", "coordinates": [ 139.017426399999977, 37.889225799999984 ] } },
{ "type": "Feature", "properties": { "内容": "特別養護老人ホーム　美咲の里（従来型）【介護老人福祉施設】新潟県新潟市中央区美咲町1丁目23番43号特別養護老人ホーム　美咲の里", "url2": "https://www.kaigokensaku.mhlw.go.jp/15/index.php?action_kouhyou_detail_004_kani=true&JigyosyoCd=1570111227-00&ServiceCd=510&Type=search" }, "geometry": { "type": "Point", "coordinates": [ 139.017479099999946, 37.8891805 ] } },
{ "type": "Feature", "properties": { "内容": "特別養護老人ホーム白山やすらぎ【介護老人福祉施設】新潟県新潟市中央区川岸町2丁目1-20", "url2": "https://www.kaigokensaku.mhlw.go.jp/15/index.php?action_kouhyou_detail_004_kani=true&JigyosyoCd=1570111110-00&ServiceCd=510&Type=search" }, "geometry": { "type": "Point", "coordinates": [ 139.034495691401617, 37.911137214433104 ] } },
{ "type": "Feature", "properties": { "内容": "特別養護老人ホーム　白山やすらぎ【介護老人福祉施設】新潟県新潟市中央区川岸町2丁目1-20", "url2": "https://www.kaigokensaku.mhlw.go.jp/15/index.php?action_kouhyou_detail_004_kani=true&JigyosyoCd=1570111136-00&ServiceCd=510&Type=search" }, "geometry": { "type": "Point", "coordinates": [ 139.034452776057378, 37.911175305449682 ] } },
{ "type": "Feature", "properties": { "内容": "特別養護老人ホーム　ばんだい桜園【介護老人福祉施設】新潟県新潟市中央区幸西4丁目5番15号", "url2": "https://www.kaigokensaku.mhlw.go.jp/15/index.php?action_kouhyou_detail_004_kani=true&JigyosyoCd=1570105864-00&ServiceCd=510&Type=search" }, "geometry": { "type": "Point", "coordinates": [ 139.049456299999946, 37.9134679 ] } },
{ "type": "Feature", "properties": { "内容": "特別養護老人ホーム　にいがた恵風園【介護老人福祉施設】新潟県新潟市江南区鍋潟新田３８２番地", "url2": "https://www.kaigokensaku.mhlw.go.jp/15/index.php?action_kouhyou_detail_004_kani=true&JigyosyoCd=1570101087-00&ServiceCd=510&Type=search" }, "geometry": { "type": "Point", "coordinates": [ 139.0603238, 37.8725508 ] } },
{ "type": "Feature", "properties": { "内容": "特別養護老人ホーム　にいがた新生園【介護老人福祉施設】新潟県新潟市江南区曽川甲1333番地1", "url2": "https://www.kaigokensaku.mhlw.go.jp/15/index.php?action_kouhyou_detail_004_kani=true&JigyosyoCd=1570101145-00&ServiceCd=510&Type=search" }, "geometry": { "type": "Point", "coordinates": [ 139.049152474574271, 37.867570429108831 ] } },
{ "type": "Feature", "properties": { "内容": "特別養護老人ホームなかかんの里【介護老人福祉施設】新潟県新潟市江南区曙町4丁目1番29号", "url2": "https://www.kaigokensaku.mhlw.go.jp/15/index.php?action_kouhyou_detail_004_kani=true&JigyosyoCd=1570113108-00&ServiceCd=510&Type=search" }, "geometry": { "type": "Point", "coordinates": [ 139.127574934918243, 37.859809073677091 ] } },
{ "type": "Feature", "properties": { "内容": "特別養護老人ホームなかかんの里【介護老人福祉施設】新潟県新潟市江南区曙町4丁目1番29号", "url2": "https://www.kaigokensaku.mhlw.go.jp/15/index.php?action_kouhyou_detail_004_kani=true&JigyosyoCd=1570113116-00&ServiceCd=510&Type=search" }, "geometry": { "type": "Point", "coordinates": [ 139.127564206082184, 37.859792132525648 ] } },
{ "type": "Feature", "properties": { "内容": "特別養護老人ホームソフィア輝【介護老人福祉施設】新潟県新潟市江南区三百地2312番地3", "url2": "https://www.kaigokensaku.mhlw.go.jp/15/index.php?action_kouhyou_detail_004_kani=true&JigyosyoCd=1570103224-00&ServiceCd=510&Type=search" }, "geometry": { "type": "Point", "coordinates": [ 139.147190200000068, 37.8982032 ] } },
{ "type": "Feature", "properties": { "内容": "特別養護老人ホームいなほの郷【介護老人福祉施設】新潟県新潟市江南区大渕715番地１", "url2": "https://www.kaigokensaku.mhlw.go.jp/15/index.php?action_kouhyou_detail_004_kani=true&JigyosyoCd=1570103364-00&ServiceCd=510&Type=search" }, "geometry": { "type": "Point", "coordinates": [ 139.142961952778592, 37.891397264485555 ] } },
{ "type": "Feature", "properties": { "内容": "特別養護老人ホーム　横雲の里【介護老人福祉施設】新潟県新潟市江南区阿賀野１丁目２番１号", "url2": "https://www.kaigokensaku.mhlw.go.jp/15/index.php?action_kouhyou_detail_004_kani=true&JigyosyoCd=1570104594-00&ServiceCd=510&Type=search" }, "geometry": { "type": "Point", "coordinates": [ 139.1681949, 37.8324524 ] } },
{ "type": "Feature", "properties": { "内容": "特別養護老人ホーム向陽の里【介護老人福祉施設】新潟県新潟市江南区亀田向陽2-6-1", "url2": "https://www.kaigokensaku.mhlw.go.jp/15/index.php?action_kouhyou_detail_004_kani=true&JigyosyoCd=1570104602-00&ServiceCd=510&Type=search" }, "geometry": { "type": "Point", "coordinates": [ 139.111991900000021, 37.8782849 ] } },
{ "type": "Feature", "properties": { "内容": "特別養護老人ホームあがうら【介護老人福祉施設】新潟県新潟市秋葉区東金沢1459番地5", "url2": "https://www.kaigokensaku.mhlw.go.jp/15/index.php?action_kouhyou_detail_004_kani=true&JigyosyoCd=1570111854-00&ServiceCd=510&Type=search" }, "geometry": { "type": "Point", "coordinates": [ 139.144465944041485, 37.803398878844305 ] } },
{ "type": "Feature", "properties": { "内容": "特別養護老人ホームあがうら【介護老人福祉施設】新潟県新潟市秋葉区東金沢1459番地5特別養護老人ホームあがうら", "url2": "https://www.kaigokensaku.mhlw.go.jp/15/index.php?action_kouhyou_detail_004_kani=true&JigyosyoCd=1570111847-00&ServiceCd=510&Type=search" }, "geometry": { "type": "Point", "coordinates": [ 139.144482037295546, 37.803407355897349 ] } },
{ "type": "Feature", "properties": { "内容": "特別養護老人ホーム　こすど蒼丘の里【介護老人福祉施設】新潟県新潟市秋葉区矢代田3092番地12", "url2": "https://www.kaigokensaku.mhlw.go.jp/15/index.php?action_kouhyou_detail_004_kani=true&JigyosyoCd=1570104586-00&ServiceCd=510&Type=search" }, "geometry": { "type": "Point", "coordinates": [ 139.1015367, 37.7538765 ] } },
{ "type": "Feature", "properties": { "内容": "特別養護老人ホームはさぎの里【介護老人福祉施設】新潟県新潟市秋葉区七日町2186-9", "url2": "https://www.kaigokensaku.mhlw.go.jp/15/index.php?action_kouhyou_detail_004_kani=true&JigyosyoCd=1570104511-00&ServiceCd=510&Type=search" }, "geometry": { "type": "Point", "coordinates": [ 139.144891799999982, 37.8169204 ] } },
{ "type": "Feature", "properties": { "内容": "特別養護老人ホーム　かんばらの里【介護老人福祉施設】新潟県新潟市秋葉区古田６１３番地１", "url2": "https://www.kaigokensaku.mhlw.go.jp/15/index.php?action_kouhyou_detail_004_kani=true&JigyosyoCd=1570104529-00&ServiceCd=510&Type=search" }, "geometry": { "type": "Point", "coordinates": [ 139.101238500000022, 37.7900399 ] } },
{ "type": "Feature", "properties": { "内容": "特別養護老人ホーム　こぐち苑【介護老人福祉施設】新潟県新潟市秋葉区小口443番地", "url2": "https://www.kaigokensaku.mhlw.go.jp/15/index.php?action_kouhyou_detail_004_kani=true&JigyosyoCd=1570104537-00&ServiceCd=510&Type=search" }, "geometry": { "type": "Point", "coordinates": [ 139.149270699999988, 37.7690067 ] } },
{ "type": "Feature", "properties": { "内容": "特別養護老人ホーム白根そよ風の杜【介護老人福祉施設】新潟県新潟市南区能登５３５番地１", "url2": "https://www.kaigokensaku.mhlw.go.jp/15/index.php?action_kouhyou_detail_004_kani=true&JigyosyoCd=1570112340-00&ServiceCd=510&Type=search" }, "geometry": { "type": "Point", "coordinates": [ 139.020343675840792, 37.768243743675328 ] } },
{ "type": "Feature", "properties": { "内容": "特別養護老人ホーム白根そよ風の杜【介護老人福祉施設】新潟県新潟市南区能登535番地１", "url2": "https://www.kaigokensaku.mhlw.go.jp/15/index.php?action_kouhyou_detail_004_kani=true&JigyosyoCd=1570112332-00&ServiceCd=510&Type=search" }, "geometry": { "type": "Point", "coordinates": [ 139.020204200972017, 37.768091083953614 ] } },
{ "type": "Feature", "properties": { "内容": "特別養護老人ホーム　白根やすらぎの里【介護老人福祉施設】新潟県新潟市南区鷲ノ木新田４０１８番地１", "url2": "https://www.kaigokensaku.mhlw.go.jp/15/index.php?action_kouhyou_detail_004_kani=true&JigyosyoCd=1570104552-00&ServiceCd=510&Type=search" }, "geometry": { "type": "Point", "coordinates": [ 139.025532, 37.8285466 ] } },
{ "type": "Feature", "properties": { "内容": "特別養護老人ホームしなの園【介護老人福祉施設】新潟県新潟市南区庄瀬８１２０番地", "url2": "https://www.kaigokensaku.mhlw.go.jp/15/index.php?action_kouhyou_detail_004_kani=true&JigyosyoCd=1570104545-00&ServiceCd=510&Type=search" }, "geometry": { "type": "Point", "coordinates": [ 139.037871799999948, 37.7208957 ] } },
{ "type": "Feature", "properties": { "内容": "特別養護老人ホームにいだの里【介護老人福祉施設】新潟県新潟市南区新飯田2545番地1", "url2": "https://www.kaigokensaku.mhlw.go.jp/15/index.php?action_kouhyou_detail_004_kani=true&JigyosyoCd=1570105252-00&ServiceCd=510&Type=search" }, "geometry": { "type": "Point", "coordinates": [ 138.9855877, 37.6894645 ] } },
{ "type": "Feature", "properties": { "内容": "特別養護老人ホーム　新潟あそか苑【介護老人福祉施設】新潟県新潟市西区大友１４１番地１", "url2": "https://www.kaigokensaku.mhlw.go.jp/15/index.php?action_kouhyou_detail_004_kani=true&JigyosyoCd=1570102382-00&ServiceCd=510&Type=search" }, "geometry": { "type": "Point", "coordinates": [ 138.9322396, 37.8307379 ] } },
{ "type": "Feature", "properties": { "内容": "特別養護老人ホーム　黒埼の里【介護老人福祉施設】新潟県新潟市西区金巻728番地", "url2": "https://www.kaigokensaku.mhlw.go.jp/15/index.php?action_kouhyou_detail_004_kani=true&JigyosyoCd=1570101921-00&ServiceCd=510&Type=search" }, "geometry": { "type": "Point", "coordinates": [ 139.007114199999933, 37.841997200000016 ] } },
{ "type": "Feature", "properties": { "内容": "特別養護老人ホーム　ジェロントピア新潟【介護老人福祉施設】新潟県新潟市西区山田3487番地", "url2": "https://www.kaigokensaku.mhlw.go.jp/15/index.php?action_kouhyou_detail_004_kani=true&JigyosyoCd=1570106847-00&ServiceCd=510&Type=search" }, "geometry": { "type": "Point", "coordinates": [ 139.010975300000041, 37.8717668 ] } },
{ "type": "Feature", "properties": { "内容": "特別養護老人ホーム　葵の園・新潟内野【介護老人福祉施設】新潟県新潟市西区内野西3丁目9番12号", "url2": "https://www.kaigokensaku.mhlw.go.jp/15/index.php?action_kouhyou_detail_004_kani=true&JigyosyoCd=1570111987-00&ServiceCd=510&Type=search" }, "geometry": { "type": "Point", "coordinates": [ 138.927666199999976, 37.8503439 ] } },
{ "type": "Feature", "properties": { "内容": "特別養護老人ホーム　葵の園・新潟内野【介護老人福祉施設】新潟県新潟市西区内野西３丁目９番１２号", "url2": "https://www.kaigokensaku.mhlw.go.jp/15/index.php?action_kouhyou_detail_004_kani=true&JigyosyoCd=1570111979-00&ServiceCd=510&Type=search" }, "geometry": { "type": "Point", "coordinates": [ 138.927666199999976, 37.8503439 ] } },
{ "type": "Feature", "properties": { "内容": "特別養護老人ホーム松風園【介護老人福祉施設】新潟県新潟市西区赤塚4782番地", "url2": "https://www.kaigokensaku.mhlw.go.jp/15/index.php?action_kouhyou_detail_004_kani=true&JigyosyoCd=1570101020-00&ServiceCd=510&Type=search" }, "geometry": { "type": "Point", "coordinates": [ 138.873605399999974, 37.8096495 ] } },
{ "type": "Feature", "properties": { "内容": "特別養護老人ホーム　白鳥の里【介護老人福祉施設】新潟県新潟市西区小新１１４０－１", "url2": "https://www.kaigokensaku.mhlw.go.jp/15/index.php?action_kouhyou_detail_004_kani=true&JigyosyoCd=1570101103-00&ServiceCd=510&Type=search" }, "geometry": { "type": "Point", "coordinates": [ 138.994412499999953, 37.8784484 ] } },
{ "type": "Feature", "properties": { "内容": "特別養護老人ホーム　穂波の里【介護老人福祉施設】新潟県新潟市西区新通４７３４番地", "url2": "https://www.kaigokensaku.mhlw.go.jp/15/index.php?action_kouhyou_detail_004_kani=true&JigyosyoCd=1570101111-00&ServiceCd=510&Type=search" }, "geometry": { "type": "Point", "coordinates": [ 138.973096599999963, 37.8632211 ] } },
{ "type": "Feature", "properties": { "内容": "特別養護老人ホームはまゆう【介護老人福祉施設】新潟県新潟市西区上新栄町1-2-12", "url2": "https://www.kaigokensaku.mhlw.go.jp/15/index.php?action_kouhyou_detail_004_kani=true&JigyosyoCd=1570101129-00&ServiceCd=510&Type=search" }, "geometry": { "type": "Point", "coordinates": [ 138.971157115344198, 37.889225781281681 ] } },
{ "type": "Feature", "properties": { "内容": "特別養護老人ホームうちの桜園【介護老人福祉施設】新潟県新潟市西区内野潟端2090番地", "url2": "https://www.kaigokensaku.mhlw.go.jp/15/index.php?action_kouhyou_detail_004_kani=true&JigyosyoCd=1570101855-00&ServiceCd=510&Type=search" }, "geometry": { "type": "Point", "coordinates": [ 138.934087699999964, 37.8512243 ] } },
{ "type": "Feature", "properties": { "内容": "特別養護老人ホーム有明園【介護老人福祉施設】新潟県新潟市西区西有明町１番２０号", "url2": "https://www.kaigokensaku.mhlw.go.jp/15/index.php?action_kouhyou_detail_004_kani=true&JigyosyoCd=1570112142-00&ServiceCd=510&Type=search" }, "geometry": { "type": "Point", "coordinates": [ 138.990934863851209, 37.896050532029186 ] } },
{ "type": "Feature", "properties": { "内容": "特別養護老人ホーム　有明園【介護老人福祉施設】新潟県新潟市西区西有明町１番２０号", "url2": "https://www.kaigokensaku.mhlw.go.jp/15/index.php?action_kouhyou_detail_004_kani=true&JigyosyoCd=1570101046-00&ServiceCd=510&Type=search" }, "geometry": { "type": "Point", "coordinates": [ 138.990969090471026, 37.896061505157725 ] } },
{ "type": "Feature", "properties": { "内容": "特別養護老人ホーム　虹の里【介護老人福祉施設】新潟県新潟市西蒲区称名825番地", "url2": "https://www.kaigokensaku.mhlw.go.jp/15/index.php?action_kouhyou_detail_004_kani=true&JigyosyoCd=1570104628-00&ServiceCd=510&Type=search" }, "geometry": { "type": "Point", "coordinates": [ 138.953618600000027, 37.7529671 ] } },
{ "type": "Feature", "properties": { "内容": "特別養護老人ホーム　白寿荘東【介護老人福祉施設】新潟県新潟市西蒲区巻甲4448番地", "url2": "https://www.kaigokensaku.mhlw.go.jp/15/index.php?action_kouhyou_detail_004_kani=true&JigyosyoCd=1570115855-00&ServiceCd=510&Type=search" }, "geometry": { "type": "Point", "coordinates": [ 138.89477051614665, 37.753514234551197 ] } },
{ "type": "Feature", "properties": { "内容": "特別養護老人ホームゆきわりの里【介護老人福祉施設】新潟県新潟市西蒲区橋本1003-1", "url2": "https://www.kaigokensaku.mhlw.go.jp/15/index.php?action_kouhyou_detail_004_kani=true&JigyosyoCd=1570112381-00&ServiceCd=510&Type=search" }, "geometry": { "type": "Point", "coordinates": [ 138.843577699999969, 37.7408957 ] } },
{ "type": "Feature", "properties": { "内容": "特別養護老人ホームゆきわりの里【介護老人福祉施設】新潟県新潟市西蒲区橋本1003-1", "url2": "https://www.kaigokensaku.mhlw.go.jp/15/index.php?action_kouhyou_detail_004_kani=true&JigyosyoCd=1570112399-00&ServiceCd=510&Type=search" }, "geometry": { "type": "Point", "coordinates": [ 138.843577699999969, 37.7408957 ] } },
{ "type": "Feature", "properties": { "内容": "特別養護老人ホーム花見の里【介護老人福祉施設】新潟県新潟市西蒲区大潟198番地", "url2": "https://www.kaigokensaku.mhlw.go.jp/15/index.php?action_kouhyou_detail_004_kani=true&JigyosyoCd=1570104610-00&ServiceCd=510&Type=search" }, "geometry": { "type": "Point", "coordinates": [ 138.9445174, 37.8119457 ] } },
{ "type": "Feature", "properties": { "内容": "特別養護老人ホーム花見の里【介護老人福祉施設】新潟県新潟市西蒲区大潟198", "url2": "https://www.kaigokensaku.mhlw.go.jp/15/index.php?action_kouhyou_detail_004_kani=true&JigyosyoCd=1570112456-00&ServiceCd=510&Type=search" }, "geometry": { "type": "Point", "coordinates": [ 138.9445174, 37.8119457 ] } },
{ "type": "Feature", "properties": { "内容": "特別養護老人ホーム中之口愛宕の園【介護老人福祉施設】新潟県新潟市西蒲区福島305番地１", "url2": "https://www.kaigokensaku.mhlw.go.jp/15/index.php?action_kouhyou_detail_004_kani=true&JigyosyoCd=1570104636-00&ServiceCd=510&Type=search" }, "geometry": { "type": "Point", "coordinates": [ 138.959889200000021, 37.7247041 ] } },
{ "type": "Feature", "properties": { "内容": "特別養護老人ホーム白寿荘西【介護老人福祉施設】新潟県新潟市西蒲区巻甲4363", "url2": "https://www.kaigokensaku.mhlw.go.jp/15/index.php?action_kouhyou_detail_004_kani=true&JigyosyoCd=1570105690-00&ServiceCd=510&Type=search" }, "geometry": { "type": "Point", "coordinates": [ 138.892212772244221, 37.754131731610542 ] } },
{ "type": "Feature", "properties": { "内容": "特別養護老人ホームこしじの里（ユニット）【介護老人福祉施設】新潟県長岡市不動沢2219番地5", "url2": "https://www.kaigokensaku.mhlw.go.jp/15/index.php?action_kouhyou_detail_004_kani=true&JigyosyoCd=1570203131-00&ServiceCd=510&Type=search" }, "geometry": { "type": "Point", "coordinates": [ 138.7460658, 37.3710029 ] } },
{ "type": "Feature", "properties": { "内容": "特別養護老人ホーム　あおいの里・長岡【介護老人福祉施設】新潟県長岡市稲保南三丁目820番地6", "url2": "https://www.kaigokensaku.mhlw.go.jp/15/index.php?action_kouhyou_detail_004_kani=true&JigyosyoCd=1570203818-00&ServiceCd=510&Type=search" }, "geometry": { "type": "Point", "coordinates": [ 138.867856051766353, 37.47862310745861 ] } },
{ "type": "Feature", "properties": { "内容": "特別養護老人ホームかつぼ園【介護老人福祉施設】新潟県長岡市加津保町1695番地2", "url2": "https://www.kaigokensaku.mhlw.go.jp/15/index.php?action_kouhyou_detail_004_kani=true&JigyosyoCd=1570200392-00&ServiceCd=510&Type=search" }, "geometry": { "type": "Point", "coordinates": [ 138.9171407, 37.4748018 ] } },
{ "type": "Feature", "properties": { "内容": "特別養護老人ホームまちだ園【介護老人福祉施設】新潟県長岡市町田町５４０番地", "url2": "https://www.kaigokensaku.mhlw.go.jp/15/index.php?action_kouhyou_detail_004_kani=true&JigyosyoCd=1570200400-00&ServiceCd=510&Type=search" }, "geometry": { "type": "Point", "coordinates": [ 138.860765899999933, 37.4183988 ] } },
{ "type": "Feature", "properties": { "内容": "特別養護老人ホーム　おごしの里【介護老人福祉施設】新潟県長岡市小国町楢沢90番地", "url2": "https://www.kaigokensaku.mhlw.go.jp/15/index.php?action_kouhyou_detail_004_kani=true&JigyosyoCd=1570201721-00&ServiceCd=510&Type=search" }, "geometry": { "type": "Point", "coordinates": [ 138.707042499999943, 37.2878797 ] } },
{ "type": "Feature", "properties": { "内容": "特別養護老人ホーム　アカシアの丘黒条【介護老人福祉施設】新潟県長岡市黒津町字東田367番地", "url2": "https://www.kaigokensaku.mhlw.go.jp/15/index.php?action_kouhyou_detail_004_kani=true&JigyosyoCd=1570203537-00&ServiceCd=510&Type=search" }, "geometry": { "type": "Point", "coordinates": [ 138.8589988, 37.4976537 ] } },
{ "type": "Feature", "properties": { "内容": "特別養護老人ホームはるか【介護老人福祉施設】新潟県長岡市花園南2丁目337番地", "url2": "https://www.kaigokensaku.mhlw.go.jp/15/index.php?action_kouhyou_detail_004_kani=true&JigyosyoCd=1570203651-00&ServiceCd=510&Type=search" }, "geometry": { "type": "Point", "coordinates": [ 138.865364242080659, 37.430630962202464 ] } },
{ "type": "Feature", "properties": { "内容": "特別養護老人ホームあおりの里【介護老人福祉施設】長岡市西川口1173番地3", "url2": "https://www.kaigokensaku.mhlw.go.jp/15/index.php?action_kouhyou_detail_004_kani=true&JigyosyoCd=1575700404-00&ServiceCd=510&Type=search" }, "geometry": { "type": "Point", "coordinates": [ 138.860678199999938, 37.2643504 ] } },
{ "type": "Feature", "properties": { "内容": "特別養護老人ホームこぶし園【介護老人福祉施設】新潟県長岡市喜多町2900番地", "url2": "https://www.kaigokensaku.mhlw.go.jp/15/index.php?action_kouhyou_detail_004_kani=true&JigyosyoCd=1570200384-00&ServiceCd=510&Type=search" }, "geometry": { "type": "Point", "coordinates": [ 138.805306, 37.4530083 ] } },
{ "type": "Feature", "properties": { "内容": "特別養護老人ホーム　わらび園【介護老人福祉施設】長岡市浦３０６０番地", "url2": "https://www.kaigokensaku.mhlw.go.jp/15/index.php?action_kouhyou_detail_004_kani=true&JigyosyoCd=1570201697-00&ServiceCd=510&Type=search" }, "geometry": { "type": "Point", "coordinates": [ 138.804131899999987, 37.3886346 ] } },
{ "type": "Feature", "properties": { "内容": "特別養護老人ホーム　縄文の杜関原【介護老人福祉施設】新潟県長岡市関原町1丁目１０７２番地１", "url2": "https://www.kaigokensaku.mhlw.go.jp/15/index.php?action_kouhyou_detail_004_kani=true&JigyosyoCd=1570201812-00&ServiceCd=510&Type=search" }, "geometry": { "type": "Point", "coordinates": [ 138.774669348352234, 37.452492973133133 ] } },
{ "type": "Feature", "properties": { "内容": "特別養護老人ホーム中之島【介護老人福祉施設】長岡市中之島2105番地６", "url2": "https://www.kaigokensaku.mhlw.go.jp/15/index.php?action_kouhyou_detail_004_kani=true&JigyosyoCd=1570201838-00&ServiceCd=510&Type=search" }, "geometry": { "type": "Point", "coordinates": [ 138.873007212272682, 37.535680215765986 ] } },
{ "type": "Feature", "properties": { "内容": "特別養護老人ホーム桐原の郷【介護老人福祉施設】新潟県長岡市寺泊下桐３７００番地１", "url2": "https://www.kaigokensaku.mhlw.go.jp/15/index.php?action_kouhyou_detail_004_kani=true&JigyosyoCd=1570202257-00&ServiceCd=510&Type=search" }, "geometry": { "type": "Point", "coordinates": [ 138.8072962, 37.612453600000016 ] } },
{ "type": "Feature", "properties": { "内容": "特別養護老人ホームいずみ苑【介護老人福祉施設】長岡市栃尾泉419番地2", "url2": "https://www.kaigokensaku.mhlw.go.jp/15/index.php?action_kouhyou_detail_004_kani=true&JigyosyoCd=1570202265-00&ServiceCd=510&Type=search" }, "geometry": { "type": "Point", "coordinates": [ 139.011640400000033, 37.4512952 ] } },
{ "type": "Feature", "properties": { "内容": "特別養護老人ホームサクラーレ福住【介護老人福祉施設】長岡市福住２丁目１番７号", "url2": "https://www.kaigokensaku.mhlw.go.jp/15/index.php?action_kouhyou_detail_004_kani=true&JigyosyoCd=1570203453-00&ServiceCd=510&Type=search" }, "geometry": { "type": "Point", "coordinates": [ 138.8578291, 37.4511703 ] } },
{ "type": "Feature", "properties": { "内容": "特別養護老人ホーム槇山けやき苑【介護老人福祉施設】長岡市槇山町1593番地1", "url2": "https://www.kaigokensaku.mhlw.go.jp/15/index.php?action_kouhyou_detail_004_kani=true&JigyosyoCd=1570200418-00&ServiceCd=510&Type=search" }, "geometry": { "type": "Point", "coordinates": [ 138.837449200000037, 37.4810551 ] } },
{ "type": "Feature", "properties": { "内容": "特別養護老人ホーム岡南の郷【介護老人福祉施設】新潟県長岡市渡沢町字早田53番地", "url2": "https://www.kaigokensaku.mhlw.go.jp/15/index.php?action_kouhyou_detail_004_kani=true&JigyosyoCd=1570200897-00&ServiceCd=510&Type=search" }, "geometry": { "type": "Point", "coordinates": [ 138.845652342702834, 37.378384851224965 ] } },
{ "type": "Feature", "properties": { "内容": "特別養護老人ホームこしじの里【介護老人福祉施設】新潟県長岡市不動沢２２１９番地５", "url2": "https://www.kaigokensaku.mhlw.go.jp/15/index.php?action_kouhyou_detail_004_kani=true&JigyosyoCd=1570201705-00&ServiceCd=510&Type=search" }, "geometry": { "type": "Point", "coordinates": [ 138.7460658, 37.3710029 ] } },
{ "type": "Feature", "properties": { "内容": "特別養護老人ホーム　みしま園【介護老人福祉施設】新潟県長岡市宮沢580番地3", "url2": "https://www.kaigokensaku.mhlw.go.jp/15/index.php?action_kouhyou_detail_004_kani=true&JigyosyoCd=1570201713-00&ServiceCd=510&Type=search" }, "geometry": { "type": "Point", "coordinates": [ 138.78262380000001, 37.5114692 ] } },
{ "type": "Feature", "properties": { "内容": "特別養護老人ホーム　サンホーム【介護老人福祉施設】長岡市楡原784番地13", "url2": "https://www.kaigokensaku.mhlw.go.jp/15/index.php?action_kouhyou_detail_004_kani=true&JigyosyoCd=1570202273-00&ServiceCd=510&Type=search" }, "geometry": { "type": "Point", "coordinates": [ 139.000970100000018, 37.495554 ] } },
{ "type": "Feature", "properties": { "内容": "特別養護老人ホームいっぷく【介護老人福祉施設】新潟県三条市庭月６３０番地４", "url2": "https://www.kaigokensaku.mhlw.go.jp/15/index.php?action_kouhyou_detail_004_kani=true&JigyosyoCd=1570401057-00&ServiceCd=510&Type=search" }, "geometry": { "type": "Point", "coordinates": [ 139.113695588360542, 37.539732104227603 ] } },
{ "type": "Feature", "properties": { "内容": "特別養護老人ホーム　つかのめの里【介護老人福祉施設】新潟県三条市塚野目2380番地2", "url2": "https://www.kaigokensaku.mhlw.go.jp/15/index.php?action_kouhyou_detail_004_kani=true&JigyosyoCd=1570400265-00&ServiceCd=510&Type=search" }, "geometry": { "type": "Point", "coordinates": [ 138.975878299999977, 37.6593656 ] } },
{ "type": "Feature", "properties": { "内容": "特別養護老人ホームうらだての里【介護老人福祉施設】三条市東裏館3丁目6番58号", "url2": "https://www.kaigokensaku.mhlw.go.jp/15/index.php?action_kouhyou_detail_004_kani=true&JigyosyoCd=1570400273-00&ServiceCd=510&Type=search" }, "geometry": { "type": "Point", "coordinates": [ 138.961827699999958, 37.6429672 ] } },
{ "type": "Feature", "properties": { "内容": "特別養護老人ホームさかえの里【介護老人福祉施設】新潟県三条市福島新田丁1481番地1", "url2": "https://www.kaigokensaku.mhlw.go.jp/15/index.php?action_kouhyou_detail_004_kani=true&JigyosyoCd=1570401107-00&ServiceCd=510&Type=search" }, "geometry": { "type": "Point", "coordinates": [ 138.91852, 37.5876031 ] } },
{ "type": "Feature", "properties": { "内容": "特別養護老人ホームさかえの里（ユニット型）【介護老人福祉施設】新潟県三条市福島新田丁1481番地1", "url2": "https://www.kaigokensaku.mhlw.go.jp/15/index.php?action_kouhyou_detail_004_kani=true&JigyosyoCd=1570401644-00&ServiceCd=510&Type=search" }, "geometry": { "type": "Point", "coordinates": [ 138.918497800000068, 37.5876086 ] } },
{ "type": "Feature", "properties": { "内容": "特別養護老人ホーム長和園【介護老人福祉施設】三条市大野畑６－８６－７", "url2": "https://www.kaigokensaku.mhlw.go.jp/15/index.php?action_kouhyou_detail_004_kani=true&JigyosyoCd=1570400257-00&ServiceCd=510&Type=search" }, "geometry": { "type": "Point", "coordinates": [ 138.939369599999964, 37.627585 ] } },
{ "type": "Feature", "properties": { "内容": "特別養護老人ホーム　おおじまの里【介護老人福祉施設】新潟県三条市大島3783番地1", "url2": "https://www.kaigokensaku.mhlw.go.jp/15/index.php?action_kouhyou_detail_004_kani=true&JigyosyoCd=1570401602-00&ServiceCd=510&Type=search" }, "geometry": { "type": "Point", "coordinates": [ 138.967621115466272, 37.676894698357167 ] } },
{ "type": "Feature", "properties": { "内容": "特別養護老人ホームしおかぜ荘【介護老人福祉施設】柏崎市北園町２１－１９", "url2": "https://www.kaigokensaku.mhlw.go.jp/15/index.php?action_kouhyou_detail_004_kani=true&JigyosyoCd=1570500148-00&ServiceCd=510&Type=search" }, "geometry": { "type": "Point", "coordinates": [ 138.561513500000046, 37.3813238 ] } },
{ "type": "Feature", "properties": { "内容": "特別養護老人ホーム　なごみ荘【介護老人福祉施設】柏崎市原町４番２３号", "url2": "https://www.kaigokensaku.mhlw.go.jp/15/index.php?action_kouhyou_detail_004_kani=true&JigyosyoCd=1570500460-00&ServiceCd=510&Type=search" }, "geometry": { "type": "Point", "coordinates": [ 138.586860300000012, 37.3891704 ] } },
{ "type": "Feature", "properties": { "内容": "特別養護老人ホーム柏柳の里【介護老人福祉施設】新潟県柏崎市高柳町岡野町2254番地1柏柳の里", "url2": "https://www.kaigokensaku.mhlw.go.jp/15/index.php?action_kouhyou_detail_004_kani=true&JigyosyoCd=1570500619-00&ServiceCd=510&Type=search" }, "geometry": { "type": "Point", "coordinates": [ 138.637755877246036, 37.217012771956718 ] } },
{ "type": "Feature", "properties": { "内容": "特別養護老人ホームむつみ荘【介護老人福祉施設】新潟県柏崎市大字畔屋392番地1", "url2": "https://www.kaigokensaku.mhlw.go.jp/15/index.php?action_kouhyou_detail_004_kani=true&JigyosyoCd=1570500122-00&ServiceCd=510&Type=search" }, "geometry": { "type": "Point", "coordinates": [ 138.619941199999971, 37.3687262 ] } },
{ "type": "Feature", "properties": { "内容": "特別養護老人ホームいこいの里【介護老人福祉施設】新潟県柏崎市大字佐水3140番地", "url2": "https://www.kaigokensaku.mhlw.go.jp/15/index.php?action_kouhyou_detail_004_kani=true&JigyosyoCd=1570500130-00&ServiceCd=510&Type=search" }, "geometry": { "type": "Point", "coordinates": [ 138.572168599999941, 37.2875521 ] } },
{ "type": "Feature", "properties": { "内容": "特別養護老人ホームにしかりの里【介護老人福祉施設】柏崎市西山町長嶺1726番地1", "url2": "https://www.kaigokensaku.mhlw.go.jp/15/index.php?action_kouhyou_detail_004_kani=true&JigyosyoCd=1570500676-00&ServiceCd=510&Type=search" }, "geometry": { "type": "Point", "coordinates": [ 138.6414588, 37.4509078 ] } },
{ "type": "Feature", "properties": { "内容": "特別養護老人ホーム　くじらなみ【介護老人福祉施設】新潟県柏崎市鯨波二丁目4番3号", "url2": "https://www.kaigokensaku.mhlw.go.jp/15/index.php?action_kouhyou_detail_004_kani=true&JigyosyoCd=1570500775-00&ServiceCd=510&Type=search" }, "geometry": { "type": "Point", "coordinates": [ 138.51727649999998, 37.3552174 ] } },
{ "type": "Feature", "properties": { "内容": "特別養護老人ホーム　ペペ・メメール【介護老人福祉施設】新潟県柏崎市鏡町2番14号", "url2": "https://www.kaigokensaku.mhlw.go.jp/15/index.php?action_kouhyou_detail_004_kani=true&JigyosyoCd=1570501237-00&ServiceCd=510&Type=search" }, "geometry": { "type": "Point", "coordinates": [ 138.559236400000032, 37.3660923 ] } },
{ "type": "Feature", "properties": { "内容": "特別養護老人ホーム　しばた【介護老人福祉施設】新潟県新発田市下中山246番１", "url2": "https://www.kaigokensaku.mhlw.go.jp/15/index.php?action_kouhyou_detail_004_kani=true&JigyosyoCd=1570600393-00&ServiceCd=510&Type=search" }, "geometry": { "type": "Point", "coordinates": [ 139.442722600000025, 37.9932648 ] } },
{ "type": "Feature", "properties": { "内容": "特別養護老人ホーム　ヒルトップくしがた【介護老人福祉施設】新潟県新発田市菅谷3345-1", "url2": "https://www.kaigokensaku.mhlw.go.jp/15/index.php?action_kouhyou_detail_004_kani=true&JigyosyoCd=1570601367-00&ServiceCd=510&Type=search" }, "geometry": { "type": "Point", "coordinates": [ 139.4144986, 37.9824987 ] } },
{ "type": "Feature", "properties": { "内容": "特別養護老人ホーム　二の丸【介護老人福祉施設】新潟県新発田市上館520番地1", "url2": "https://www.kaigokensaku.mhlw.go.jp/15/index.php?action_kouhyou_detail_004_kani=true&JigyosyoCd=1570601797-00&ServiceCd=510&Type=search" }, "geometry": { "type": "Point", "coordinates": [ 139.359258264983936, 37.968928184412746 ] } },
{ "type": "Feature", "properties": { "内容": "特別養護老人ホームつきおかの里【介護老人福祉施設】新潟県新発田市本田壬393番地1", "url2": "https://www.kaigokensaku.mhlw.go.jp/15/index.php?action_kouhyou_detail_004_kani=true&JigyosyoCd=1570600575-00&ServiceCd=510&Type=search" }, "geometry": { "type": "Point", "coordinates": [ 139.298006343516619, 37.882380072631534 ] } },
{ "type": "Feature", "properties": { "内容": "特別養護老人ホームコンフィ陽だまり苑【介護老人福祉施設】新潟県新発田市諏訪町1丁目10番38号", "url2": "https://www.kaigokensaku.mhlw.go.jp/15/index.php?action_kouhyou_detail_004_kani=true&JigyosyoCd=1570601193-00&ServiceCd=510&Type=search" }, "geometry": { "type": "Point", "coordinates": [ 139.333980900000029, 37.9434978 ] } },
{ "type": "Feature", "properties": { "内容": "特別養護老人ホーム陽だまり苑【介護老人福祉施設】新発田市岡田１７４６番地１介護老人福祉施設　陽だまり苑", "url2": "https://www.kaigokensaku.mhlw.go.jp/15/index.php?action_kouhyou_detail_004_kani=true&JigyosyoCd=1570600377-00&ServiceCd=510&Type=search" }, "geometry": { "type": "Point", "coordinates": [ 139.359800100000029, 37.9510506 ] } },
{ "type": "Feature", "properties": { "内容": "特別養護老人ホームしうんじ【介護老人福祉施設】新潟県新発田市真野原外3331番地2", "url2": "https://www.kaigokensaku.mhlw.go.jp/15/index.php?action_kouhyou_detail_004_kani=true&JigyosyoCd=1570600823-00&ServiceCd=510&Type=search" }, "geometry": { "type": "Point", "coordinates": [ 139.318080099999946, 38.0181429 ] } },
{ "type": "Feature", "properties": { "内容": "特別養護老人ホーム豊浦愛宕の園【介護老人福祉施設】新発田市荒町甲1611番地13", "url2": "https://www.kaigokensaku.mhlw.go.jp/15/index.php?action_kouhyou_detail_004_kani=true&JigyosyoCd=1570601169-00&ServiceCd=510&Type=search" }, "geometry": { "type": "Point", "coordinates": [ 139.32188229999997, 37.9364372 ] } },
{ "type": "Feature", "properties": { "内容": "特別養護老人ホーム　小粟田の里【介護老人福祉施設】新潟県小千谷市大字小粟田2732番地7", "url2": "https://www.kaigokensaku.mhlw.go.jp/15/index.php?action_kouhyou_detail_004_kani=true&JigyosyoCd=1570800068-00&ServiceCd=510&Type=search" }, "geometry": { "type": "Point", "coordinates": [ 138.795703799999956, 37.3403908 ] } },
{ "type": "Feature", "properties": { "内容": "特別養護老人ホームおぢやさくら【介護老人福祉施設】小千谷市小粟田字幅2732-14", "url2": "https://www.kaigokensaku.mhlw.go.jp/15/index.php?action_kouhyou_detail_004_kani=true&JigyosyoCd=1570800340-00&ServiceCd=510&Type=search" }, "geometry": { "type": "Point", "coordinates": [ 138.798073539456141, 37.343451857644354 ] } },
{ "type": "Feature", "properties": { "内容": "特別養護老人ホーム雪あかり【介護老人福祉施設】新潟県小千谷市元町10番1号", "url2": "https://www.kaigokensaku.mhlw.go.jp/15/index.php?action_kouhyou_detail_004_kani=true&JigyosyoCd=1570800605-00&ServiceCd=510&Type=search" }, "geometry": { "type": "Point", "coordinates": [ 138.7997729, 37.3086551 ] } },
{ "type": "Feature", "properties": { "内容": "特別養護老人ホーム春風堂【介護老人福祉施設】新潟県小千谷市山谷1635番地100", "url2": "https://www.kaigokensaku.mhlw.go.jp/15/index.php?action_kouhyou_detail_004_kani=true&JigyosyoCd=1570800654-00&ServiceCd=510&Type=search" }, "geometry": { "type": "Point", "coordinates": [ 138.7742405, 37.3370067 ] } },
{ "type": "Feature", "properties": { "内容": "特別養護老人ホーム第三平成園【介護老人福祉施設】加茂市神明町１丁目７番１号", "url2": "https://www.kaigokensaku.mhlw.go.jp/15/index.php?action_kouhyou_detail_004_kani=true&JigyosyoCd=1570900199-00&ServiceCd=510&Type=search" }, "geometry": { "type": "Point", "coordinates": [ 139.061968200000024, 37.6608617 ] } },
{ "type": "Feature", "properties": { "内容": "特別養護老人ホーム　第二平成園【介護老人福祉施設】加茂市石川２丁目２４７３番地１", "url2": "https://www.kaigokensaku.mhlw.go.jp/15/index.php?action_kouhyou_detail_004_kani=true&JigyosyoCd=1570900090-00&ServiceCd=510&Type=search" }, "geometry": { "type": "Point", "coordinates": [ 139.044414, 37.6705018 ] } },
{ "type": "Feature", "properties": { "内容": "特別養護老人ホーム平成園【介護老人福祉施設】新潟県加茂市石川2丁目2472番地1", "url2": "https://www.kaigokensaku.mhlw.go.jp/15/index.php?action_kouhyou_detail_004_kani=true&JigyosyoCd=1570900082-00&ServiceCd=510&Type=search" }, "geometry": { "type": "Point", "coordinates": [ 139.043708599999945, 37.6707795 ] } },
{ "type": "Feature", "properties": { "内容": "特別養護老人ホームほくほくの里【介護老人福祉施設】十日町市太平664-4", "url2": "https://www.kaigokensaku.mhlw.go.jp/15/index.php?action_kouhyou_detail_004_kani=true&JigyosyoCd=1571000668-00&ServiceCd=510&Type=search" }, "geometry": { "type": "Point", "coordinates": [ 138.622063900000057, 37.1351671 ] } },
{ "type": "Feature", "properties": { "内容": "特別養護老人ホームあかね園【介護老人福祉施設】新潟県十日町市高原田２７８番地１", "url2": "https://www.kaigokensaku.mhlw.go.jp/15/index.php?action_kouhyou_detail_004_kani=true&JigyosyoCd=1571000585-00&ServiceCd=510&Type=search" }, "geometry": { "type": "Point", "coordinates": [ 138.740471599999978, 37.1707788 ] } },
{ "type": "Feature", "properties": { "内容": "特別養護老人ホーム不老閣【介護老人福祉施設】新潟県十日町市松之山1028-8", "url2": "https://www.kaigokensaku.mhlw.go.jp/15/index.php?action_kouhyou_detail_004_kani=true&JigyosyoCd=1571000601-00&ServiceCd=510&Type=search" }, "geometry": { "type": "Point", "coordinates": [ 138.609217100000023, 37.079440099999957 ] } },
{ "type": "Feature", "properties": { "内容": "特別養護老人ホーム　まほろばの里川治【介護老人福祉施設】新潟県十日町市川治４５２５番地特別養護老人ホーム　まほろばの里川治", "url2": "https://www.kaigokensaku.mhlw.go.jp/15/index.php?action_kouhyou_detail_004_kani=true&JigyosyoCd=1571001005-00&ServiceCd=510&Type=search" }, "geometry": { "type": "Point", "coordinates": [ 138.7416756, 37.1183773 ] } },
{ "type": "Feature", "properties": { "内容": "特別養護老人ホーム　桜湯の里【介護老人福祉施設】新潟県十日町市田中会所前字ロ475番地1", "url2": "https://www.kaigokensaku.mhlw.go.jp/15/index.php?action_kouhyou_detail_004_kani=true&JigyosyoCd=1571001120-00&ServiceCd=510&Type=search" }, "geometry": { "type": "Point", "coordinates": [ 138.695317, 37.0547562 ] } },
{ "type": "Feature", "properties": { "内容": "特別養護老人ホーム　　三好園【介護老人福祉施設】新潟県十日町市下条3丁目485番地１", "url2": "https://www.kaigokensaku.mhlw.go.jp/15/index.php?action_kouhyou_detail_004_kani=true&JigyosyoCd=1571000213-00&ServiceCd=510&Type=search" }, "geometry": { "type": "Point", "coordinates": [ 138.778108299999985, 37.1962216 ] } },
{ "type": "Feature", "properties": { "内容": "特別養護老人ホーム三好園しんざ【介護老人福祉施設】十日町市新座甲609番地2", "url2": "https://www.kaigokensaku.mhlw.go.jp/15/index.php?action_kouhyou_detail_004_kani=true&JigyosyoCd=1571000379-00&ServiceCd=510&Type=search" }, "geometry": { "type": "Point", "coordinates": [ 138.76755049999997, 37.1433662 ] } },
{ "type": "Feature", "properties": { "内容": "特別養護老人ホーム　七川荘【介護老人福祉施設】新潟県十日町市上山己2739番地", "url2": "https://www.kaigokensaku.mhlw.go.jp/15/index.php?action_kouhyou_detail_004_kani=true&JigyosyoCd=1571000593-00&ServiceCd=510&Type=search" }, "geometry": { "type": "Point", "coordinates": [ 138.698888899999929, 37.055384 ] } },
{ "type": "Feature", "properties": { "内容": "特別養護老人ホームなの花【介護老人福祉施設】新潟県十日町市中条己2958番地1特別養護老人ホームなの花", "url2": "https://www.kaigokensaku.mhlw.go.jp/15/index.php?action_kouhyou_detail_004_kani=true&JigyosyoCd=1571001245-00&ServiceCd=510&Type=search" }, "geometry": { "type": "Point", "coordinates": [ 138.7757694, 37.1758573 ] } },
{ "type": "Feature", "properties": { "内容": "特別養護老人ホーム桜湯の里2号館　レインボー【介護老人福祉施設】十日町市田中庚42番地", "url2": "https://www.kaigokensaku.mhlw.go.jp/15/index.php?action_kouhyou_detail_004_kani=true&JigyosyoCd=1571001153-00&ServiceCd=510&Type=search" }, "geometry": { "type": "Point", "coordinates": [ 138.696916900000019, 37.0550312 ] } },
{ "type": "Feature", "properties": { "内容": "特別養護老人ホーム大平園【介護老人福祉施設】見附市学校町2丁目13番31号", "url2": "https://www.kaigokensaku.mhlw.go.jp/15/index.php?action_kouhyou_detail_004_kani=true&JigyosyoCd=1571100120-00&ServiceCd=510&Type=search" }, "geometry": { "type": "Point", "coordinates": [ 138.919654300000047, 37.5354149 ] } },
{ "type": "Feature", "properties": { "内容": "特別養護老人ホームすずらんの園【介護老人福祉施設】新潟県見附市田井町1715番地1", "url2": "https://www.kaigokensaku.mhlw.go.jp/15/index.php?action_kouhyou_detail_004_kani=true&JigyosyoCd=1571100229-00&ServiceCd=510&Type=search" }, "geometry": { "type": "Point", "coordinates": [ 138.929202700000019, 37.4961973 ] } },
{ "type": "Feature", "properties": { "内容": "特別養護老人ホーム　フローラ【介護老人福祉施設】新潟県見附市新幸町７番９号", "url2": "https://www.kaigokensaku.mhlw.go.jp/15/index.php?action_kouhyou_detail_004_kani=true&JigyosyoCd=1571100484-00&ServiceCd=510&Type=search" }, "geometry": { "type": "Point", "coordinates": [ 138.893629499999946, 37.5401941 ] } },
{ "type": "Feature", "properties": { "内容": "特別養護老人ホーム　ケアガーデン新幸【介護老人福祉施設】新潟県見附市新幸町7番18号特別養護老人ホーム　ケアガーデン新幸", "url2": "https://www.kaigokensaku.mhlw.go.jp/15/index.php?action_kouhyou_detail_004_kani=true&JigyosyoCd=1571100625-00&ServiceCd=510&Type=search" }, "geometry": { "type": "Point", "coordinates": [ 138.892532399999936, 37.5401052 ] } },
{ "type": "Feature", "properties": { "内容": "特別養護老人ホーム　古志乃里【介護老人福祉施設】新潟県見附市緑町20番1号", "url2": "https://www.kaigokensaku.mhlw.go.jp/15/index.php?action_kouhyou_detail_004_kani=true&JigyosyoCd=1571100575-00&ServiceCd=510&Type=search" }, "geometry": { "type": "Point", "coordinates": [ 138.919369500000016, 37.5126676 ] } },
{ "type": "Feature", "properties": { "内容": "特別養護老人ホームいわくすの里【介護老人福祉施設】村上市上の山2番17号特別養護老人ホームいわくすの里", "url2": "https://www.kaigokensaku.mhlw.go.jp/15/index.php?action_kouhyou_detail_004_kani=true&JigyosyoCd=1571200136-00&ServiceCd=510&Type=search" }, "geometry": { "type": "Point", "coordinates": [ 139.440163900000016, 38.1847971 ] } },
{ "type": "Feature", "properties": { "内容": "特別養護老人ホームさつき園【介護老人福祉施設】新潟県村上市北新保683番地9", "url2": "https://www.kaigokensaku.mhlw.go.jp/15/index.php?action_kouhyou_detail_004_kani=true&JigyosyoCd=1571200565-00&ServiceCd=510&Type=search" }, "geometry": { "type": "Point", "coordinates": [ 139.435698900000034, 38.1715402 ] } },
{ "type": "Feature", "properties": { "内容": "特別養護老人ホームゆり花園【介護老人福祉施設】新潟県村上市勝木８６２番地１０", "url2": "https://www.kaigokensaku.mhlw.go.jp/15/index.php?action_kouhyou_detail_004_kani=true&JigyosyoCd=1571200581-00&ServiceCd=510&Type=search" }, "geometry": { "type": "Point", "coordinates": [ 139.520902724606344, 38.491433053279799 ] } },
{ "type": "Feature", "properties": { "内容": "特別養護老人ホームたかつぼ【介護老人福祉施設】新潟県村上市下鍜冶屋５７２番地７特別養護老人ホームたかつぼ", "url2": "https://www.kaigokensaku.mhlw.go.jp/15/index.php?action_kouhyou_detail_004_kani=true&JigyosyoCd=1571200557-00&ServiceCd=510&Type=search" }, "geometry": { "type": "Point", "coordinates": [ 139.447711010206547, 38.113198413845225 ] } },
{ "type": "Feature", "properties": { "内容": "特別養護老人ホーム羽衣園【介護老人福祉施設】村上市岩沢1616番地", "url2": "https://www.kaigokensaku.mhlw.go.jp/15/index.php?action_kouhyou_detail_004_kani=true&JigyosyoCd=1571200573-00&ServiceCd=510&Type=search" }, "geometry": { "type": "Point", "coordinates": [ 139.534690800000021, 38.262124300000011 ] } },
{ "type": "Feature", "properties": { "内容": "特別養護老人ホーム　白ふじの里【介護老人福祉施設】燕市大曲２４７２－１", "url2": "https://www.kaigokensaku.mhlw.go.jp/15/index.php?action_kouhyou_detail_004_kani=true&JigyosyoCd=1571300167-00&ServiceCd=510&Type=search" }, "geometry": { "type": "Point", "coordinates": [ 138.91489660000002, 37.6469486 ] } },
{ "type": "Feature", "properties": { "内容": "特別養護老人ホーム燕愛宕の園【介護老人福祉施設】新潟県燕市東太田1066番地5", "url2": "https://www.kaigokensaku.mhlw.go.jp/15/index.php?action_kouhyou_detail_004_kani=true&JigyosyoCd=1571301090-00&ServiceCd=510&Type=search" }, "geometry": { "type": "Point", "coordinates": [ 138.939792084655778, 37.677831729560687 ] } },
{ "type": "Feature", "properties": { "内容": "特別養護老人ホームつばめ福寿園【介護老人福祉施設】新潟県燕市佐渡７４５番地１", "url2": "https://www.kaigokensaku.mhlw.go.jp/15/index.php?action_kouhyou_detail_004_kani=true&JigyosyoCd=1571300035-00&ServiceCd=510&Type=search" }, "geometry": { "type": "Point", "coordinates": [ 138.953461100000027, 37.6660142 ] } },
{ "type": "Feature", "properties": { "内容": "特別養護老人ホーム分水の里【介護老人福祉施設】新潟県燕市新堀2479番地2", "url2": "https://www.kaigokensaku.mhlw.go.jp/15/index.php?action_kouhyou_detail_004_kani=true&JigyosyoCd=1571300621-00&ServiceCd=510&Type=search" }, "geometry": { "type": "Point", "coordinates": [ 138.8373967, 37.6375363 ] } },
{ "type": "Feature", "properties": { "内容": "特別養護老人ホーム　さわたりの郷【介護老人福祉施設】燕市佐渡741番地1", "url2": "https://www.kaigokensaku.mhlw.go.jp/15/index.php?action_kouhyou_detail_004_kani=true&JigyosyoCd=1571300720-00&ServiceCd=510&Type=search" }, "geometry": { "type": "Point", "coordinates": [ 138.95344447301639, 37.667339941200005 ] } },
{ "type": "Feature", "properties": { "内容": "特別養護老人ホーム太陽の園【介護老人福祉施設】新潟県燕市吉田法花堂740番地", "url2": "https://www.kaigokensaku.mhlw.go.jp/15/index.php?action_kouhyou_detail_004_kani=true&JigyosyoCd=1571300514-00&ServiceCd=510&Type=search" }, "geometry": { "type": "Point", "coordinates": [ 138.884259499999985, 37.6860781 ] } },
{ "type": "Feature", "properties": { "内容": "特別養護老人ホーム吉田愛宕の園【介護老人福祉施設】燕市粟生津855番地", "url2": "https://www.kaigokensaku.mhlw.go.jp/15/index.php?action_kouhyou_detail_004_kani=true&JigyosyoCd=1571300746-00&ServiceCd=510&Type=search" }, "geometry": { "type": "Point", "coordinates": [ 138.871987399999966, 37.6497771 ] } },
{ "type": "Feature", "properties": { "内容": "特別養護老人ホームみやまの里【介護老人福祉施設】新潟県糸魚川市大字大野129番地", "url2": "https://www.kaigokensaku.mhlw.go.jp/15/index.php?action_kouhyou_detail_004_kani=true&JigyosyoCd=1571500097-00&ServiceCd=510&Type=search" }, "geometry": { "type": "Point", "coordinates": [ 137.8611, 37.0272212 ] } },
{ "type": "Feature", "properties": { "内容": "特別養護老人ホームみやまの里　ユニット型【介護老人福祉施設】新潟県糸魚川市大字大野129番地", "url2": "https://www.kaigokensaku.mhlw.go.jp/15/index.php?action_kouhyou_detail_004_kani=true&JigyosyoCd=1571500774-00&ServiceCd=510&Type=search" }, "geometry": { "type": "Point", "coordinates": [ 137.8611, 37.0272212 ] } },
{ "type": "Feature", "properties": { "内容": "特別養護老人ホームクレイドルやけやま【介護老人福祉施設】糸魚川市大字梶屋敷915番地", "url2": "https://www.kaigokensaku.mhlw.go.jp/15/index.php?action_kouhyou_detail_004_kani=true&JigyosyoCd=1571500105-00&ServiceCd=510&Type=search" }, "geometry": { "type": "Point", "coordinates": [ 137.91533759999993, 37.0498419 ] } },
{ "type": "Feature", "properties": { "内容": "特別養護老人ホームおおさわの里【介護老人福祉施設】新潟県糸魚川市大字大沢313番地1", "url2": "https://www.kaigokensaku.mhlw.go.jp/15/index.php?action_kouhyou_detail_004_kani=true&JigyosyoCd=1571500386-00&ServiceCd=510&Type=search" }, "geometry": { "type": "Point", "coordinates": [ 138.028054, 37.0815751 ] } },
{ "type": "Feature", "properties": { "内容": "特別養護老人ホームおおさわの里（ユニット型）【介護老人福祉施設】新潟県糸魚川市大字大沢313-1", "url2": "https://www.kaigokensaku.mhlw.go.jp/15/index.php?action_kouhyou_detail_004_kani=true&JigyosyoCd=1571500816-00&ServiceCd=510&Type=search" }, "geometry": { "type": "Point", "coordinates": [ 138.028054, 37.0815751 ] } },
{ "type": "Feature", "properties": { "内容": "特別養護老人ホームふくがくちの里【介護老人福祉施設】新潟県糸魚川市大字寺地３０７４番地", "url2": "https://www.kaigokensaku.mhlw.go.jp/15/index.php?action_kouhyou_detail_004_kani=true&JigyosyoCd=1571500410-00&ServiceCd=510&Type=search" }, "geometry": { "type": "Point", "coordinates": [ 137.811415500000066, 37.0170552 ] } },
{ "type": "Feature", "properties": { "内容": "特別養護老人ホームあいれふ妙高【介護老人福祉施設】新潟県妙高市大字除戸243番地", "url2": "https://www.kaigokensaku.mhlw.go.jp/15/index.php?action_kouhyou_detail_004_kani=true&JigyosyoCd=1571600731-00&ServiceCd=510&Type=search" }, "geometry": { "type": "Point", "coordinates": [ 138.271819139758094, 36.975941682181634 ] } },
{ "type": "Feature", "properties": { "内容": "特別養護老人ホームみなかみの里【介護老人福祉施設】新潟県妙高市大字上新保549番地", "url2": "https://www.kaigokensaku.mhlw.go.jp/15/index.php?action_kouhyou_detail_004_kani=true&JigyosyoCd=1571600087-00&ServiceCd=510&Type=search" }, "geometry": { "type": "Point", "coordinates": [ 138.265568700000017, 37.0211444 ] } },
{ "type": "Feature", "properties": { "内容": "特別養護老人ホーム名香山苑【介護老人福祉施設】新潟県妙高市大字関川733－20", "url2": "https://www.kaigokensaku.mhlw.go.jp/15/index.php?action_kouhyou_detail_004_kani=true&JigyosyoCd=1571600442-00&ServiceCd=510&Type=search" }, "geometry": { "type": "Point", "coordinates": [ 138.204470799999967, 36.8697579 ] } },
{ "type": "Feature", "properties": { "内容": "特別養護老人ホームブナの里【介護老人福祉施設】新潟県妙高市大字西田屋新田247", "url2": "https://www.kaigokensaku.mhlw.go.jp/15/index.php?action_kouhyou_detail_004_kani=true&JigyosyoCd=1571600616-00&ServiceCd=510&Type=search" }, "geometry": { "type": "Point", "coordinates": [ 138.252528500000039, 36.951166200000017 ] } },
{ "type": "Feature", "properties": { "内容": "特別養護老人ホーム　わかつき妙高【介護老人福祉施設】新潟県妙高市大字志976番地特別養護老人ホームわかつき妙高", "url2": "https://www.kaigokensaku.mhlw.go.jp/15/index.php?action_kouhyou_detail_004_kani=true&JigyosyoCd=1571600756-00&ServiceCd=510&Type=search" }, "geometry": { "type": "Point", "coordinates": [ 138.213772840167167, 37.006216636498195 ] } },
{ "type": "Feature", "properties": { "内容": "特別養護老人ホーム愛松園【介護老人福祉施設】新潟県五泉市番坂新１７４番地2", "url2": "https://www.kaigokensaku.mhlw.go.jp/15/index.php?action_kouhyou_detail_004_kani=true&JigyosyoCd=1571700473-00&ServiceCd=510&Type=search" }, "geometry": { "type": "Point", "coordinates": [ 139.196549399999981, 37.6867091 ] } },
{ "type": "Feature", "properties": { "内容": "特別養護老人ホームうずらはし【介護老人福祉施設】新潟県五泉市橋田丙497-2特別養護老人ホームうずらはし", "url2": "https://www.kaigokensaku.mhlw.go.jp/15/index.php?action_kouhyou_detail_004_kani=true&JigyosyoCd=1571700804-00&ServiceCd=510&Type=search" }, "geometry": { "type": "Point", "coordinates": [ 139.1358305, 37.7282726 ] } },
{ "type": "Feature", "properties": { "内容": "特別養護老人ホーム　まおろしの郷【介護老人福祉施設】新潟県五泉市馬下1429番地", "url2": "https://www.kaigokensaku.mhlw.go.jp/15/index.php?action_kouhyou_detail_004_kani=true&JigyosyoCd=1571700861-00&ServiceCd=510&Type=search" }, "geometry": { "type": "Point", "coordinates": [ 139.2600948, 37.7356659 ] } },
{ "type": "Feature", "properties": { "内容": "特別養護老人ホーム　菅名の里【介護老人福祉施設】新潟県五泉市馬下1814-19", "url2": "https://www.kaigokensaku.mhlw.go.jp/15/index.php?action_kouhyou_detail_004_kani=true&JigyosyoCd=1571700077-00&ServiceCd=510&Type=search" }, "geometry": { "type": "Point", "coordinates": [ 139.27032650000001, 37.7367693 ] } },
{ "type": "Feature", "properties": { "内容": "特別養護老人ホーム　すもとの里【介護老人福祉施設】新潟県五泉市論瀬5975番地12", "url2": "https://www.kaigokensaku.mhlw.go.jp/15/index.php?action_kouhyou_detail_004_kani=true&JigyosyoCd=1571700085-00&ServiceCd=510&Type=search" }, "geometry": { "type": "Point", "coordinates": [ 139.204579099999989, 37.746939300000015 ] } },
{ "type": "Feature", "properties": { "内容": "特別養護老人ホーム山王苑【介護老人福祉施設】新潟県五泉市村松203番地1", "url2": "https://www.kaigokensaku.mhlw.go.jp/15/index.php?action_kouhyou_detail_004_kani=true&JigyosyoCd=1571700481-00&ServiceCd=510&Type=search" }, "geometry": { "type": "Point", "coordinates": [ 139.167107100000067, 37.6863058 ] } },
{ "type": "Feature", "properties": { "内容": "特別養護老人ホームさくら聖母の園【介護老人福祉施設】上越市西城町２丁目３番２０号", "url2": "https://www.kaigokensaku.mhlw.go.jp/15/index.php?action_kouhyou_detail_004_kani=true&JigyosyoCd=1570300333-00&ServiceCd=510&Type=search" }, "geometry": { "type": "Point", "coordinates": [ 138.249911, 37.1116392 ] } },
{ "type": "Feature", "properties": { "内容": "特別養護老人ホームよねやまの里【介護老人福祉施設】新潟県上越市柿崎区柿崎６４１４－１", "url2": "https://www.kaigokensaku.mhlw.go.jp/15/index.php?action_kouhyou_detail_004_kani=true&JigyosyoCd=1570301463-00&ServiceCd=510&Type=search" }, "geometry": { "type": "Point", "coordinates": [ 138.393884699999944, 37.2778513 ] } },
{ "type": "Feature", "properties": { "内容": "特別養護老人ホーム　三和愛宕の園【介護老人福祉施設】上越市三和区井ノ口1718番地4", "url2": "https://www.kaigokensaku.mhlw.go.jp/15/index.php?action_kouhyou_detail_004_kani=true&JigyosyoCd=1570301471-00&ServiceCd=510&Type=search" }, "geometry": { "type": "Point", "coordinates": [ 138.350515500000029, 37.1273508 ] } },
{ "type": "Feature", "properties": { "内容": "特別養護老人ホーム悠久の里【介護老人福祉施設】新潟県上越市とよば186番地", "url2": "https://www.kaigokensaku.mhlw.go.jp/15/index.php?action_kouhyou_detail_004_kani=true&JigyosyoCd=1570302313-00&ServiceCd=510&Type=search" }, "geometry": { "type": "Point", "coordinates": [ 138.274800899999946, 37.1028186 ] } },
{ "type": "Feature", "properties": { "内容": "特別養護老人ホーム　サンクスレルヒの森【介護老人福祉施設】新潟県上越市大貫二丁目１６番２３号", "url2": "https://www.kaigokensaku.mhlw.go.jp/15/index.php?action_kouhyou_detail_004_kani=true&JigyosyoCd=1570303717-00&ServiceCd=510&Type=search" }, "geometry": { "type": "Point", "coordinates": [ 138.231272685319482, 37.106163487100119 ] } },
{ "type": "Feature", "properties": { "内容": "特別養護老人ホーム沖見の里【介護老人福祉施設】新潟県上越市牧区大月252番地", "url2": "https://www.kaigokensaku.mhlw.go.jp/15/index.php?action_kouhyou_detail_004_kani=true&JigyosyoCd=1570301521-00&ServiceCd=510&Type=search" }, "geometry": { "type": "Point", "coordinates": [ 138.39935909999997, 37.0987085 ] } },
{ "type": "Feature", "properties": { "内容": "特別養護老人ホームあいれふ安塚【介護老人福祉施設】新潟県上越市安塚区安塚２２０９番地３", "url2": "https://www.kaigokensaku.mhlw.go.jp/15/index.php?action_kouhyou_detail_004_kani=true&JigyosyoCd=1570303030-00&ServiceCd=510&Type=search" }, "geometry": { "type": "Point", "coordinates": [ 138.447178600000029, 37.1354861 ] } },
{ "type": "Feature", "properties": { "内容": "特別養護老人ホームしおさいの里【介護老人福祉施設】新潟県上越市大潟区犀潟４１０番地２", "url2": "https://www.kaigokensaku.mhlw.go.jp/15/index.php?action_kouhyou_detail_004_kani=true&JigyosyoCd=1570301497-00&ServiceCd=510&Type=search" }, "geometry": { "type": "Point", "coordinates": [ 138.30381239999997, 37.2088953 ] } },
{ "type": "Feature", "properties": { "内容": "特別養護老人ホーム太陽と緑の家今泉【介護老人福祉施設】新潟県上越市大字今泉字西蓮池1310-8", "url2": "https://www.kaigokensaku.mhlw.go.jp/15/index.php?action_kouhyou_detail_004_kani=true&JigyosyoCd=1570302511-00&ServiceCd=510&Type=search" }, "geometry": { "type": "Point", "coordinates": [ 138.248337895198119, 37.094050967965551 ] } },
{ "type": "Feature", "properties": { "内容": "特別養護老人ホーム　上吉野愛宕の園【介護老人福祉施設】上越市大字上吉野１９１２番地１", "url2": "https://www.kaigokensaku.mhlw.go.jp/15/index.php?action_kouhyou_detail_004_kani=true&JigyosyoCd=1570302610-00&ServiceCd=510&Type=search" }, "geometry": { "type": "Point", "coordinates": [ 138.331135200000062, 37.1702201 ] } },
{ "type": "Feature", "properties": { "内容": "介護老人福祉施設　和久楽【介護老人福祉施設】新潟県上越市五智4-7-21", "url2": "https://www.kaigokensaku.mhlw.go.jp/15/index.php?action_kouhyou_detail_004_kani=true&JigyosyoCd=1570300812-00&ServiceCd=510&Type=search" }, "geometry": { "type": "Point", "coordinates": [ 138.22564669999997, 37.1709724 ] } },
{ "type": "Feature", "properties": { "内容": "特別養護老人ホームいたくら桜園【介護老人福祉施設】上越市板倉区曽根田101番地7", "url2": "https://www.kaigokensaku.mhlw.go.jp/15/index.php?action_kouhyou_detail_004_kani=true&JigyosyoCd=1570301505-00&ServiceCd=510&Type=search" }, "geometry": { "type": "Point", "coordinates": [ 138.309279400000037, 37.04566 ] } },
{ "type": "Feature", "properties": { "内容": "特別養護老人ホームほほ笑よしかわの里【介護老人福祉施設】新潟県上越市吉川区原之町1819番地1", "url2": "https://www.kaigokensaku.mhlw.go.jp/15/index.php?action_kouhyou_detail_004_kani=true&JigyosyoCd=1570304111-00&ServiceCd=510&Type=search" }, "geometry": { "type": "Point", "coordinates": [ 138.4051612, 37.2232021 ] } },
{ "type": "Feature", "properties": { "内容": "特別養護老人ホーム新光園【介護老人福祉施設】新潟県上越市新光町3-10-31", "url2": "https://www.kaigokensaku.mhlw.go.jp/15/index.php?action_kouhyou_detail_004_kani=true&JigyosyoCd=1570300341-00&ServiceCd=510&Type=search" }, "geometry": { "type": "Point", "coordinates": [ 138.241248600000063, 37.1584882 ] } },
{ "type": "Feature", "properties": { "内容": "特別養護老人ホームほくら園【介護老人福祉施設】新潟県上越市大島区大平5131番地", "url2": "https://www.kaigokensaku.mhlw.go.jp/15/index.php?action_kouhyou_detail_004_kani=true&JigyosyoCd=1570301513-00&ServiceCd=510&Type=search" }, "geometry": { "type": "Point", "coordinates": [ 138.511356, 37.1561126 ] } },
{ "type": "Feature", "properties": { "内容": "特別養護老人ホームみねの園【介護老人福祉施設】新潟県上越市清里区岡野町1618番地", "url2": "https://www.kaigokensaku.mhlw.go.jp/15/index.php?action_kouhyou_detail_004_kani=true&JigyosyoCd=1570304046-00&ServiceCd=510&Type=search" }, "geometry": { "type": "Point", "coordinates": [ 138.331683352778612, 37.078948812054946 ] } },
{ "type": "Feature", "properties": { "内容": "特別養護老人ホームいなほ園【介護老人福祉施設】上越市上真砂219番地", "url2": "https://www.kaigokensaku.mhlw.go.jp/15/index.php?action_kouhyou_detail_004_kani=true&JigyosyoCd=1570300325-00&ServiceCd=510&Type=search" }, "geometry": { "type": "Point", "coordinates": [ 138.301254100000051, 37.1438724 ] } },
{ "type": "Feature", "properties": { "内容": "広域型特別養護老人ホームシンパシー【介護老人福祉施設】新潟県阿賀野市南安野町８番２０号広域型特別養護老人ホームシンパシー", "url2": "https://www.kaigokensaku.mhlw.go.jp/15/index.php?action_kouhyou_detail_004_kani=true&JigyosyoCd=1572100921-00&ServiceCd=510&Type=search" }, "geometry": { "type": "Point", "coordinates": [ 139.211890030024733, 37.836764922726466 ] } },
{ "type": "Feature", "properties": { "内容": "特別養護老人ホームはぐろの里【介護老人福祉施設】新潟県阿賀野市畑江333", "url2": "https://www.kaigokensaku.mhlw.go.jp/15/index.php?action_kouhyou_detail_004_kani=true&JigyosyoCd=1572100129-00&ServiceCd=510&Type=search" }, "geometry": { "type": "Point", "coordinates": [ 139.292513399999962, 37.822432108895207 ] } },
{ "type": "Feature", "properties": { "内容": "特別養護老人ホーム　白鳥荘【介護老人福祉施設】新潟県阿賀野市百津８８", "url2": "https://www.kaigokensaku.mhlw.go.jp/15/index.php?action_kouhyou_detail_004_kani=true&JigyosyoCd=1572100103-00&ServiceCd=510&Type=search" }, "geometry": { "type": "Point", "coordinates": [ 139.213687299999947, 37.8308373 ] } },
{ "type": "Feature", "properties": { "内容": "特別養護老人ホームコスモスの里【介護老人福祉施設】新潟県阿賀野市飯森杉437-2特別養護老人ホーム　コスモスの里", "url2": "https://www.kaigokensaku.mhlw.go.jp/15/index.php?action_kouhyou_detail_004_kani=true&JigyosyoCd=1572100111-00&ServiceCd=510&Type=search" }, "geometry": { "type": "Point", "coordinates": [ 139.187676300000021, 37.8379079 ] } },
{ "type": "Feature", "properties": { "内容": "特別養護老人ホームかがやき苑【介護老人福祉施設】新潟県阿賀野市寺社甲3848番地212", "url2": "https://www.kaigokensaku.mhlw.go.jp/15/index.php?action_kouhyou_detail_004_kani=true&JigyosyoCd=1572100889-00&ServiceCd=510&Type=search" }, "geometry": { "type": "Point", "coordinates": [ 139.234634980627334, 37.786089733233929 ] } },
{ "type": "Feature", "properties": { "内容": "特別養護老人ホームかがやき苑【介護老人福祉施設】新潟県阿賀野市寺社甲3848番地212", "url2": "https://www.kaigokensaku.mhlw.go.jp/15/index.php?action_kouhyou_detail_004_kani=true&JigyosyoCd=1572100897-00&ServiceCd=510&Type=search" }, "geometry": { "type": "Point", "coordinates": [ 139.234892419078051, 37.786061031628215 ] } },
{ "type": "Feature", "properties": { "内容": "特別養護老人ホームやすだの里【介護老人福祉施設】阿賀野市保田5683番地23", "url2": "https://www.kaigokensaku.mhlw.go.jp/15/index.php?action_kouhyou_detail_004_kani=true&JigyosyoCd=1572100095-00&ServiceCd=510&Type=search" }, "geometry": { "type": "Point", "coordinates": [ 139.270889, 37.7803059 ] } },
{ "type": "Feature", "properties": { "内容": "特別養護老人ホームあがの八雲苑【介護老人福祉施設】新潟県阿賀野市保田５６８５番地１", "url2": "https://www.kaigokensaku.mhlw.go.jp/15/index.php?action_kouhyou_detail_004_kani=true&JigyosyoCd=1572100640-00&ServiceCd=510&Type=search" }, "geometry": { "type": "Point", "coordinates": [ 139.273536, 37.7807614 ] } },
{ "type": "Feature", "properties": { "内容": "特別養護老人ホームはもちの里【介護老人福祉施設】新潟県佐渡市羽茂本郷２５番地", "url2": "https://www.kaigokensaku.mhlw.go.jp/15/index.php?action_kouhyou_detail_004_kani=true&JigyosyoCd=1572200291-00&ServiceCd=510&Type=search" }, "geometry": { "type": "Point", "coordinates": [ 138.312282761485221, 37.843268436968856 ] } },
{ "type": "Feature", "properties": { "内容": "特別養護老人ホームスマイル赤泊【介護老人福祉施設】新潟県佐渡市徳和６２０７番地２", "url2": "https://www.kaigokensaku.mhlw.go.jp/15/index.php?action_kouhyou_detail_004_kani=true&JigyosyoCd=1572200879-00&ServiceCd=510&Type=search" }, "geometry": { "type": "Point", "coordinates": [ 138.416148099999987, 37.87164 ] } },
{ "type": "Feature", "properties": { "内容": "特別養護老人ホーム真野の里【介護老人福祉施設】新潟県佐渡市真野新町624番地2", "url2": "https://www.kaigokensaku.mhlw.go.jp/15/index.php?action_kouhyou_detail_004_kani=true&JigyosyoCd=1572200283-00&ServiceCd=510&Type=search" }, "geometry": { "type": "Point", "coordinates": [ 138.348328199999969, 37.964461 ] } },
{ "type": "Feature", "properties": { "内容": "特別養護老人ホーム朱鷺いろの杜　梅津【介護老人福祉施設】新潟県佐渡市梅津2317番地1", "url2": "https://www.kaigokensaku.mhlw.go.jp/15/index.php?action_kouhyou_detail_004_kani=true&JigyosyoCd=1572290037-00&ServiceCd=510&Type=search" }, "geometry": { "type": "Point", "coordinates": [ 138.430477200000013, 38.0954638 ] } },
{ "type": "Feature", "properties": { "内容": "特別養護老人ホーム朱鷺いろの杜　梅津【介護老人福祉施設】新潟県佐渡市梅津2317-1", "url2": "https://www.kaigokensaku.mhlw.go.jp/15/index.php?action_kouhyou_detail_004_kani=true&JigyosyoCd=1572290045-00&ServiceCd=510&Type=search" }, "geometry": { "type": "Point", "coordinates": [ 138.430477200000013, 38.0954638 ] } },
{ "type": "Feature", "properties": { "内容": "特別養護老人ホーム大浦の里【介護老人福祉施設】新潟県佐渡市相川大浦５３３番地２", "url2": "https://www.kaigokensaku.mhlw.go.jp/15/index.php?action_kouhyou_detail_004_kani=true&JigyosyoCd=1572200267-00&ServiceCd=510&Type=search" }, "geometry": { "type": "Point", "coordinates": [ 138.226938, 38.0155125 ] } },
{ "type": "Feature", "properties": { "内容": "特別養護老人ホーム　やはたの里【介護老人福祉施設】新潟県佐渡市八幡町340番地", "url2": "https://www.kaigokensaku.mhlw.go.jp/15/index.php?action_kouhyou_detail_004_kani=true&JigyosyoCd=1572200275-00&ServiceCd=510&Type=search" }, "geometry": { "type": "Point", "coordinates": [ 138.325400599999966, 37.995965 ] } },
{ "type": "Feature", "properties": { "内容": "特別養護老人ホーム　新穂愛宕の園【介護老人福祉施設】佐渡市新穂瓜生屋339番地2", "url2": "https://www.kaigokensaku.mhlw.go.jp/15/index.php?action_kouhyou_detail_004_kani=true&JigyosyoCd=1572201042-00&ServiceCd=510&Type=search" }, "geometry": { "type": "Point", "coordinates": [ 138.423896099999979, 38.0162433 ] } },
{ "type": "Feature", "properties": { "内容": "特別養護老人ホーム寿和ホーム【介護老人福祉施設】新潟県魚沼市大栃山628番地1", "url2": "https://www.kaigokensaku.mhlw.go.jp/15/index.php?action_kouhyou_detail_004_kani=true&JigyosyoCd=1572300315-00&ServiceCd=510&Type=search" }, "geometry": { "type": "Point", "coordinates": [ 139.06909840000003, 37.3555154 ] } },
{ "type": "Feature", "properties": { "内容": "特別養護老人ホームうかじ園【介護老人福祉施設】新潟県魚沼市徳田112番地1", "url2": "https://www.kaigokensaku.mhlw.go.jp/15/index.php?action_kouhyou_detail_004_kani=true&JigyosyoCd=1572300281-00&ServiceCd=510&Type=search" }, "geometry": { "type": "Point", "coordinates": [ 138.909464899999989, 37.2565193 ] } },
{ "type": "Feature", "properties": { "内容": "特別養護老人ホーム美雪園【介護老人福祉施設】新潟県魚沼市和田413番地1", "url2": "https://www.kaigokensaku.mhlw.go.jp/15/index.php?action_kouhyou_detail_004_kani=true&JigyosyoCd=1572300299-00&ServiceCd=510&Type=search" }, "geometry": { "type": "Point", "coordinates": [ 138.979443899999978, 37.2785289 ] } },
{ "type": "Feature", "properties": { "内容": "特別養護老人ホーム　あぶるま苑【介護老人福祉施設】魚沼市須原1293番地", "url2": "https://www.kaigokensaku.mhlw.go.jp/15/index.php?action_kouhyou_detail_004_kani=true&JigyosyoCd=1572300307-00&ServiceCd=510&Type=search" }, "geometry": { "type": "Point", "coordinates": [ 139.018354899999963, 37.3183799 ] } },
{ "type": "Feature", "properties": { "内容": "特別養護老人ホームうおの園【介護老人福祉施設】新潟県魚沼市原虫野438番地4", "url2": "https://www.kaigokensaku.mhlw.go.jp/15/index.php?action_kouhyou_detail_004_kani=true&JigyosyoCd=1572300273-00&ServiceCd=510&Type=search" }, "geometry": { "type": "Point", "coordinates": [ 138.962159199999974, 37.2148886 ] } },
{ "type": "Feature", "properties": { "内容": "魚沼地域特別養護老人ホーム八色園【介護老人福祉施設】新潟県南魚沼市浦佐４０５９－１", "url2": "https://www.kaigokensaku.mhlw.go.jp/15/index.php?action_kouhyou_detail_004_kani=true&JigyosyoCd=1572400289-00&ServiceCd=510&Type=search" }, "geometry": { "type": "Point", "coordinates": [ 138.936185300000034, 37.1701323 ] } },
{ "type": "Feature", "properties": { "内容": "特別養護老人ホームみなみ園【介護老人福祉施設】南魚沼市六日町712-4", "url2": "https://www.kaigokensaku.mhlw.go.jp/15/index.php?action_kouhyou_detail_004_kani=true&JigyosyoCd=1572400271-00&ServiceCd=510&Type=search" }, "geometry": { "type": "Point", "coordinates": [ 138.865169199999968, 37.0553699 ] } },
{ "type": "Feature", "properties": { "内容": "特別養護老人ホームまいこ園【介護老人福祉施設】新潟県南魚沼市仙石１番地１８特別養護老人ホームまいこ園", "url2": "https://www.kaigokensaku.mhlw.go.jp/15/index.php?action_kouhyou_detail_004_kani=true&JigyosyoCd=1572400578-00&ServiceCd=510&Type=search" }, "geometry": { "type": "Point", "coordinates": [ 138.841398, 37.0063528 ] } },
{ "type": "Feature", "properties": { "内容": "特別養護老人ホーム　こころの杜【介護老人福祉施設】南魚沼市六日町1148番地1", "url2": "https://www.kaigokensaku.mhlw.go.jp/15/index.php?action_kouhyou_detail_004_kani=true&JigyosyoCd=1572400750-00&ServiceCd=510&Type=search" }, "geometry": { "type": "Point", "coordinates": [ 138.876756699999987, 37.0579116 ] } },
{ "type": "Feature", "properties": { "内容": "特別養護老人ホーム雪椿の里【介護老人福祉施設】新潟県南魚沼市穴地１４番地１", "url2": "https://www.kaigokensaku.mhlw.go.jp/15/index.php?action_kouhyou_detail_004_kani=true&JigyosyoCd=1572400909-00&ServiceCd=510&Type=search" }, "geometry": { "type": "Point", "coordinates": [ 138.954128392065371, 37.136799951896322 ] } },
{ "type": "Feature", "properties": { "内容": "特別養護老人ホーム坂戸楽生園【介護老人福祉施設】新潟県南魚沼市坂戸7番地3", "url2": "https://www.kaigokensaku.mhlw.go.jp/15/index.php?action_kouhyou_detail_004_kani=true&JigyosyoCd=1572401204-00&ServiceCd=510&Type=search" }, "geometry": { "type": "Point", "coordinates": [ 138.8825726, 37.0606942 ] } },
{ "type": "Feature", "properties": { "内容": "特別養護老人ホーム　第二胎内やすらぎの家【介護老人福祉施設】新潟県胎内市熱田坂８８１－８６", "url2": "https://www.kaigokensaku.mhlw.go.jp/15/index.php?action_kouhyou_detail_004_kani=true&JigyosyoCd=1572500161-00&ServiceCd=510&Type=search" }, "geometry": { "type": "Point", "coordinates": [ 139.49695220000001, 38.0165412 ] } },
{ "type": "Feature", "properties": { "内容": "特別養護老人ホームとっさか【介護老人福祉施設】胎内市西本町11番27号", "url2": "https://www.kaigokensaku.mhlw.go.jp/15/index.php?action_kouhyou_detail_004_kani=true&JigyosyoCd=1572500179-00&ServiceCd=510&Type=search" }, "geometry": { "type": "Point", "coordinates": [ 139.394416200000023, 38.0524552 ] } },
{ "type": "Feature", "properties": { "内容": "特別養護老人ホーム　聖籠まごころの里【介護老人福祉施設】新潟県北蒲原郡聖籠町大字次第浜5298番地", "url2": "https://www.kaigokensaku.mhlw.go.jp/15/index.php?action_kouhyou_detail_004_kani=true&JigyosyoCd=1575001100-00&ServiceCd=510&Type=search" }, "geometry": { "type": "Point", "coordinates": [ 139.273166100000026, 38.0176226 ] } },
{ "type": "Feature", "properties": { "内容": "特別養護老人ホーム　はすがた園【介護老人福祉施設】新潟県北蒲原郡聖籠町大字蓮潟2249番地", "url2": "https://www.kaigokensaku.mhlw.go.jp/15/index.php?action_kouhyou_detail_004_kani=true&JigyosyoCd=1575001175-00&ServiceCd=510&Type=search" }, "geometry": { "type": "Point", "coordinates": [ 139.265986, 37.9791849 ] } },
{ "type": "Feature", "properties": { "内容": "特別養護老人ホーム　桜井の里【介護老人福祉施設】新潟県西蒲原郡弥彦村大字麓3036番地", "url2": "https://www.kaigokensaku.mhlw.go.jp/15/index.php?action_kouhyou_detail_004_kani=true&JigyosyoCd=1575200553-00&ServiceCd=510&Type=search" }, "geometry": { "type": "Point", "coordinates": [ 138.826521100000036, 37.6800632 ] } },
{ "type": "Feature", "properties": { "内容": "特別養護老人ホーム　あじさいの里【介護老人福祉施設】新潟県南蒲原郡田上町大字田上丙2987-1", "url2": "https://www.kaigokensaku.mhlw.go.jp/15/index.php?action_kouhyou_detail_004_kani=true&JigyosyoCd=1575300130-00&ServiceCd=510&Type=search" }, "geometry": { "type": "Point", "coordinates": [ 139.077454699999947, 37.7202909 ] } },
{ "type": "Feature", "properties": { "内容": "特別養護老人ホーム東蒲の里【介護老人福祉施設】新潟県東蒲原郡阿賀町津川207番地1", "url2": "https://www.kaigokensaku.mhlw.go.jp/15/index.php?action_kouhyou_detail_004_kani=true&JigyosyoCd=1575400096-00&ServiceCd=510&Type=search" }, "geometry": { "type": "Point", "coordinates": [ 139.46331269999996, 37.6785656 ] } },
{ "type": "Feature", "properties": { "内容": "特別養護老人ホーム東蒲の里みかわ園【介護老人福祉施設】新潟県東蒲原郡阿賀町あが野南４３１９－４", "url2": "https://www.kaigokensaku.mhlw.go.jp/15/index.php?action_kouhyou_detail_004_kani=true&JigyosyoCd=1575400104-00&ServiceCd=510&Type=search" }, "geometry": { "type": "Point", "coordinates": [ 139.368384307934576, 37.707843708659993 ] } },
{ "type": "Feature", "properties": { "内容": "特別養護老人ホームやすらぎの里【介護老人福祉施設】新潟県三島郡出雲崎町大字川西660番地１", "url2": "https://www.kaigokensaku.mhlw.go.jp/15/index.php?action_kouhyou_detail_004_kani=true&JigyosyoCd=1575500242-00&ServiceCd=510&Type=search" }, "geometry": { "type": "Point", "coordinates": [ 138.707417, 37.5227802 ] } },
{ "type": "Feature", "properties": { "内容": "特別養護老人ホームゆのさと園【介護老人福祉施設】新潟県南魚沼郡湯沢町大字神立1647番地275", "url2": "https://www.kaigokensaku.mhlw.go.jp/15/index.php?action_kouhyou_detail_004_kani=true&JigyosyoCd=1575800311-00&ServiceCd=510&Type=search" }, "geometry": { "type": "Point", "coordinates": [ 138.832169499999964, 36.9294951 ] } },
{ "type": "Feature", "properties": { "内容": "特別養護老人ホームゆのさと園（ユニット）【介護老人福祉施設】新潟県南魚沼郡湯沢町大字神立1647番地275", "url2": "https://www.kaigokensaku.mhlw.go.jp/15/index.php?action_kouhyou_detail_004_kani=true&JigyosyoCd=1575800691-00&ServiceCd=510&Type=search" }, "geometry": { "type": "Point", "coordinates": [ 138.832169499999964, 36.9294951 ] } },
{ "type": "Feature", "properties": { "内容": "特別養護老人ホームみさと苑【介護老人福祉施設】新潟県中魚沼郡津南町大字芦ヶ崎乙317-1特別養護老人ホームみさと苑", "url2": "https://www.kaigokensaku.mhlw.go.jp/15/index.php?action_kouhyou_detail_004_kani=true&JigyosyoCd=1575900285-00&ServiceCd=510&Type=search" }, "geometry": { "type": "Point", "coordinates": [ 138.63445, 37.0045096 ] } },
{ "type": "Feature", "properties": { "内容": "特別養護老人ホーム　恵福園【介護老人福祉施設】新潟県中魚沼郡津南町大字下船渡丁2682-3", "url2": "https://www.kaigokensaku.mhlw.go.jp/15/index.php?action_kouhyou_detail_004_kani=true&JigyosyoCd=1575900137-00&ServiceCd=510&Type=search" }, "geometry": { "type": "Point", "coordinates": [ 138.649105700000064, 37.0154851 ] } },
{ "type": "Feature", "properties": { "内容": "特別養護老人ホーム　垂水の里【介護老人福祉施設】新潟県岩船郡関川村大字湯沢　728番地1", "url2": "https://www.kaigokensaku.mhlw.go.jp/15/index.php?action_kouhyou_detail_004_kani=true&JigyosyoCd=1576400327-00&ServiceCd=510&Type=search" }, "geometry": { "type": "Point", "coordinates": [ 139.573905400000058, 38.0950834 ] } }
]
}
