{
"type": "FeatureCollection",
"name": "geo_15_特定施設入居者生活介護（有料老人ホーム（サービス付き高齢者向け住宅））",
"crs": { "type": "name", "properties": { "name": "urn:ogc:def:crs:OGC:1.3:CRS84" } },
"features": [
{ "type": "Feature", "properties": { "内容": "さわやかリバーサイド長岡【特定施設入居者生活介護（有料老人ホーム（サービス付き高齢者向け住宅））】新潟県長岡市金町2丁目5番10号", "url2": "https://www.kaigokensaku.mhlw.go.jp/15/index.php?action_kouhyou_detail_004_kani=true&JigyosyoCd=1570203552-00&ServiceCd=&Type=search" }, "geometry": { "type": "Point", "coordinates": [ 138.995213299999932, 37.4822191 ] } },
{ "type": "Feature", "properties": { "内容": "ナーシングホーム長岡駅東【特定施設入居者生活介護（有料老人ホーム（サービス付き高齢者向け住宅））】新潟県長岡市沖田３丁目１０６番地", "url2": "https://www.kaigokensaku.mhlw.go.jp/15/index.php?action_kouhyou_detail_004_kani=true&JigyosyoCd=1570203354-00&ServiceCd=&Type=search" }, "geometry": { "type": "Point", "coordinates": [ 138.870725757424879, 37.444510579871377 ] } },
{ "type": "Feature", "properties": { "内容": "サクラーレ福住【特定施設入居者生活介護（有料老人ホーム（サービス付き高齢者向け住宅））】新潟県長岡市福住２丁目１番７号", "url2": "https://www.kaigokensaku.mhlw.go.jp/15/index.php?action_kouhyou_detail_004_kani=true&JigyosyoCd=1570203446-00&ServiceCd=&Type=search" }, "geometry": { "type": "Point", "coordinates": [ 138.8578291, 37.4511703 ] } },
{ "type": "Feature", "properties": { "内容": "ナーシングホームメッツ大手【特定施設入居者生活介護（有料老人ホーム（サービス付き高齢者向け住宅））】新潟県長岡市表町2丁目2番地21", "url2": "https://www.kaigokensaku.mhlw.go.jp/15/index.php?action_kouhyou_detail_004_kani=true&JigyosyoCd=1570203594-00&ServiceCd=&Type=search" }, "geometry": { "type": "Point", "coordinates": [ 138.847814104893473, 37.448967074795597 ] } },
{ "type": "Feature", "properties": { "内容": "ナーシングホームメッツ中島【特定施設入居者生活介護（有料老人ホーム（サービス付き高齢者向け住宅））】新潟県長岡市中島4丁目16番4号", "url2": "https://www.kaigokensaku.mhlw.go.jp/15/index.php?action_kouhyou_detail_004_kani=true&JigyosyoCd=1570203164-00&ServiceCd=&Type=search" }, "geometry": { "type": "Point", "coordinates": [ 138.846569100000011, 37.454169700000016 ] } },
{ "type": "Feature", "properties": { "内容": "介護付きホームメッツ長岡【特定施設入居者生活介護（有料老人ホーム（サービス付き高齢者向け住宅））】新潟県長岡市昭和2丁目2番34号", "url2": "https://www.kaigokensaku.mhlw.go.jp/15/index.php?action_kouhyou_detail_004_kani=true&JigyosyoCd=1570203933-00&ServiceCd=&Type=search" }, "geometry": { "type": "Point", "coordinates": [ 138.848962130688506, 37.45919666641408 ] } },
{ "type": "Feature", "properties": { "内容": "介護付有料老人ホーム　あさひガーデン【特定施設入居者生活介護（有料老人ホーム（サービス付き高齢者向け住宅））】新潟県三条市西本成寺１－３６－２５", "url2": "https://www.kaigokensaku.mhlw.go.jp/15/index.php?action_kouhyou_detail_004_kani=true&JigyosyoCd=1570401800-00&ServiceCd=&Type=search" }, "geometry": { "type": "Point", "coordinates": [ 138.9394254, 37.6196499 ] } },
{ "type": "Feature", "properties": { "内容": "ヴィラわか葉【特定施設入居者生活介護（有料老人ホーム（サービス付き高齢者向け住宅））】新潟県小千谷市若葉1丁目14番", "url2": "https://www.kaigokensaku.mhlw.go.jp/15/index.php?action_kouhyou_detail_004_kani=true&JigyosyoCd=1570800589-00&ServiceCd=&Type=search" }, "geometry": { "type": "Point", "coordinates": [ 138.785502, 37.3076936 ] } },
{ "type": "Feature", "properties": { "内容": "介護付き有料老人ホームあさひガーデンかも寿楽園【特定施設入居者生活介護（有料老人ホーム（サービス付き高齢者向け住宅））】新潟県加茂市寿町8番17号あさひガーデンかも寿楽園", "url2": "https://www.kaigokensaku.mhlw.go.jp/15/index.php?action_kouhyou_detail_004_kani=true&JigyosyoCd=1570900330-00&ServiceCd=&Type=search" }, "geometry": { "type": "Point", "coordinates": [ 139.0456527, 37.6594053 ] } },
{ "type": "Feature", "properties": { "内容": "サービス付き高齢者向け住宅　ヴィラあかし【特定施設入居者生活介護（有料老人ホーム（サービス付き高齢者向け住宅））】新潟県十日町市川治4525番地", "url2": "https://www.kaigokensaku.mhlw.go.jp/15/index.php?action_kouhyou_detail_004_kani=true&JigyosyoCd=1571001195-00&ServiceCd=&Type=search" }, "geometry": { "type": "Point", "coordinates": [ 138.741901456483419, 37.118896012626472 ] } },
{ "type": "Feature", "properties": { "内容": "リーシェ上越さくら【特定施設入居者生活介護（有料老人ホーム（サービス付き高齢者向け住宅））】新潟県上越市とよば121番地", "url2": "https://www.kaigokensaku.mhlw.go.jp/15/index.php?action_kouhyou_detail_004_kani=true&JigyosyoCd=1570303808-00&ServiceCd=&Type=search" }, "geometry": { "type": "Point", "coordinates": [ 138.274092500000052, 37.1045628 ] } },
{ "type": "Feature", "properties": { "内容": "サービス付き高齢者向け住宅　ハートフルケア阿賀野【特定施設入居者生活介護（有料老人ホーム（サービス付き高齢者向け住宅））】新潟県阿賀野市保田7313番地", "url2": "https://www.kaigokensaku.mhlw.go.jp/15/index.php?action_kouhyou_detail_004_kani=true&JigyosyoCd=1572100814-00&ServiceCd=&Type=search" }, "geometry": { "type": "Point", "coordinates": [ 139.239066500000035, 37.7857518 ] } },
{ "type": "Feature", "properties": { "内容": "サービス付き高齢者向け住宅うららか【特定施設入居者生活介護（有料老人ホーム（サービス付き高齢者向け住宅））】新潟県南魚沼市八幡123番地1", "url2": "https://www.kaigokensaku.mhlw.go.jp/15/index.php?action_kouhyou_detail_004_kani=true&JigyosyoCd=1572400941-00&ServiceCd=&Type=search" }, "geometry": { "type": "Point", "coordinates": [ 138.879782452114938, 37.069799429071182 ] } },
{ "type": "Feature", "properties": { "内容": "サービス付き高齢者向け住宅　悠々の杜石打【特定施設入居者生活介護（有料老人ホーム（サービス付き高齢者向け住宅））】新潟県南魚沼市石打190-5", "url2": "https://www.kaigokensaku.mhlw.go.jp/15/index.php?action_kouhyou_detail_004_kani=true&JigyosyoCd=1572401253-00&ServiceCd=&Type=search" }, "geometry": { "type": "Point", "coordinates": [ 138.8048315, 36.9760748 ] } }
]
}
