{
"type": "FeatureCollection",
"name": "geo_15_地域密着型介護老人福祉施設入所者生活介護",
"crs": { "type": "name", "properties": { "name": "urn:ogc:def:crs:OGC:1.3:CRS84" } },
"features": [
{ "type": "Feature", "properties": { "内容": "特別養護老人ホーム新屋敷まつはま園【地域密着型介護老人福祉施設入所者生活介護】新潟県新潟市北区松浜本町４丁目１番２０号", "url2": "https://www.kaigokensaku.mhlw.go.jp/15/index.php?action_kouhyou_detail_004_kani=true&JigyosyoCd=1590100481-00&ServiceCd=540&Type=search" }, "geometry": { "type": "Point", "coordinates": [ 139.139282302852877, 37.950502380215113 ] } },
{ "type": "Feature", "properties": { "内容": "特別養護老人ホームまつはま園【地域密着型介護老人福祉施設入所者生活介護】新潟県新潟市北区太夫浜１７４７番地", "url2": "https://www.kaigokensaku.mhlw.go.jp/15/index.php?action_kouhyou_detail_004_kani=true&JigyosyoCd=1590101265-00&ServiceCd=540&Type=search" }, "geometry": { "type": "Point", "coordinates": [ 139.154917699999942, 37.9538501 ] } },
{ "type": "Feature", "properties": { "内容": "特別養護老人ホームほうせい園【地域密着型介護老人福祉施設入所者生活介護】新潟県新潟市北区葛塚618番地", "url2": "https://www.kaigokensaku.mhlw.go.jp/15/index.php?action_kouhyou_detail_004_kani=true&JigyosyoCd=1590101182-00&ServiceCd=540&Type=search" }, "geometry": { "type": "Point", "coordinates": [ 139.213821300000063, 37.9320084 ] } },
{ "type": "Feature", "properties": { "内容": "特別養護老人ホームいなほの郷下山【地域密着型介護老人福祉施設入所者生活介護】新潟県新潟市東区下山２丁目５８７番地１", "url2": "https://www.kaigokensaku.mhlw.go.jp/15/index.php?action_kouhyou_detail_004_kani=true&JigyosyoCd=1590101281-00&ServiceCd=540&Type=search" }, "geometry": { "type": "Point", "coordinates": [ 139.126513903457635, 37.948386689772832 ] } },
{ "type": "Feature", "properties": { "内容": "特別養護老人ホーム逢谷内【地域密着型介護老人福祉施設入所者生活介護】新潟県新潟市東区新松崎１丁目１番１２号", "url2": "https://www.kaigokensaku.mhlw.go.jp/15/index.php?action_kouhyou_detail_004_kani=true&JigyosyoCd=1590101992-00&ServiceCd=540&Type=search" }, "geometry": { "type": "Point", "coordinates": [ 139.11517215463104, 37.92922802662568 ] } },
{ "type": "Feature", "properties": { "内容": "介護老人福祉施設つしまの郷【地域密着型介護老人福祉施設入所者生活介護】新潟県新潟市東区津島屋7丁目1番地１", "url2": "https://www.kaigokensaku.mhlw.go.jp/15/index.php?action_kouhyou_detail_004_kani=true&JigyosyoCd=1590101869-00&ServiceCd=540&Type=search" }, "geometry": { "type": "Point", "coordinates": [ 139.123120100000051, 37.9394115 ] } },
{ "type": "Feature", "properties": { "内容": "特別養護老人ホーム　カナン【地域密着型介護老人福祉施設入所者生活介護】新潟県新潟市東区寺山３丁目６番１１号", "url2": "https://www.kaigokensaku.mhlw.go.jp/15/index.php?action_kouhyou_detail_004_kani=true&JigyosyoCd=1590100838-00&ServiceCd=540&Type=search" }, "geometry": { "type": "Point", "coordinates": [ 139.112633995615397, 37.922973093507586 ] } },
{ "type": "Feature", "properties": { "内容": "特別養護老人ホーム　徳蓮荘【地域密着型介護老人福祉施設入所者生活介護】新潟県新潟市東区中木戸３７７番地１１", "url2": "https://www.kaigokensaku.mhlw.go.jp/15/index.php?action_kouhyou_detail_004_kani=true&JigyosyoCd=1590100671-00&ServiceCd=540&Type=search" }, "geometry": { "type": "Point", "coordinates": [ 139.096746899999971, 37.926845400000047 ] } },
{ "type": "Feature", "properties": { "内容": "特別養護老人ホーム関屋おもと園【地域密着型介護老人福祉施設入所者生活介護】新潟県新潟市中央区関屋大川前1丁目2番36号", "url2": "https://www.kaigokensaku.mhlw.go.jp/15/index.php?action_kouhyou_detail_004_kani=true&JigyosyoCd=1590100325-00&ServiceCd=540&Type=search" }, "geometry": { "type": "Point", "coordinates": [ 139.015292499999987, 37.9019322 ] } },
{ "type": "Feature", "properties": { "内容": "特別養護老人ホームアルシェふるまち【地域密着型介護老人福祉施設入所者生活介護】新潟県新潟市中央区古町通13番町2900番地5", "url2": "https://www.kaigokensaku.mhlw.go.jp/15/index.php?action_kouhyou_detail_004_kani=true&JigyosyoCd=1590101844-00&ServiceCd=540&Type=search" }, "geometry": { "type": "Point", "coordinates": [ 139.045713333204617, 37.931053579005727 ] } },
{ "type": "Feature", "properties": { "内容": "特別養護老人ホーム　せきやの里【地域密着型介護老人福祉施設入所者生活介護】新潟県新潟市中央区関屋大川前2丁目7番12号", "url2": "https://www.kaigokensaku.mhlw.go.jp/15/index.php?action_kouhyou_detail_004_kani=true&JigyosyoCd=1590101141-00&ServiceCd=540&Type=search" }, "geometry": { "type": "Point", "coordinates": [ 139.015197899999947, 37.9053124 ] } },
{ "type": "Feature", "properties": { "内容": "特別養護老人ホーム　くりの木【地域密着型介護老人福祉施設入所者生活介護】新潟県新潟市中央区本馬越2丁目15番34号", "url2": "https://www.kaigokensaku.mhlw.go.jp/15/index.php?action_kouhyou_detail_004_kani=true&JigyosyoCd=1590101356-00&ServiceCd=540&Type=search" }, "geometry": { "type": "Point", "coordinates": [ 139.077871100000038, 37.9118025 ] } },
{ "type": "Feature", "properties": { "内容": "特別養護老人ホーム　プリメーロ女池【地域密着型介護老人福祉施設入所者生活介護】新潟県新潟市中央区女池５丁目２番１４号", "url2": "https://www.kaigokensaku.mhlw.go.jp/15/index.php?action_kouhyou_detail_004_kani=true&JigyosyoCd=1590100853-00&ServiceCd=540&Type=search" }, "geometry": { "type": "Point", "coordinates": [ 139.043271499999946, 37.8935591 ] } },
{ "type": "Feature", "properties": { "内容": "小規模特別養護老人ホーム　昴【地域密着型介護老人福祉施設入所者生活介護】新潟県新潟市中央区山二ツ531番地１", "url2": "https://www.kaigokensaku.mhlw.go.jp/15/index.php?action_kouhyou_detail_004_kani=true&JigyosyoCd=1590100762-00&ServiceCd=540&Type=search" }, "geometry": { "type": "Point", "coordinates": [ 139.093898200000012, 37.891200100000049 ] } },
{ "type": "Feature", "properties": { "内容": "特別養護老人ホームにこやか【地域密着型介護老人福祉施設入所者生活介護】新潟県新潟市江南区横越中央5丁目2番3号", "url2": "https://www.kaigokensaku.mhlw.go.jp/15/index.php?action_kouhyou_detail_004_kani=true&JigyosyoCd=1590100911-00&ServiceCd=540&Type=search" }, "geometry": { "type": "Point", "coordinates": [ 139.151136899999983, 37.8530694 ] } },
{ "type": "Feature", "properties": { "内容": "特別養護老人ホーム　横雲の里【地域密着型介護老人福祉施設入所者生活介護】新潟県新潟市江南区阿賀野１丁目２番１号", "url2": "https://www.kaigokensaku.mhlw.go.jp/15/index.php?action_kouhyou_detail_004_kani=true&JigyosyoCd=1590101547-00&ServiceCd=540&Type=search" }, "geometry": { "type": "Point", "coordinates": [ 139.1681949, 37.8324524 ] } },
{ "type": "Feature", "properties": { "内容": "特別養護老人ホームかめだ本町の里【地域密着型介護老人福祉施設入所者生活介護】新潟県新潟市江南区亀田本町1-4-14", "url2": "https://www.kaigokensaku.mhlw.go.jp/15/index.php?action_kouhyou_detail_004_kani=true&JigyosyoCd=1590100770-00&ServiceCd=540&Type=search" }, "geometry": { "type": "Point", "coordinates": [ 139.107429893254107, 37.872474680169248 ] } },
{ "type": "Feature", "properties": { "内容": "特別養護老人ホームこうめの里【地域密着型介護老人福祉施設入所者生活介護】新潟県新潟市秋葉区小屋場335番地1", "url2": "https://www.kaigokensaku.mhlw.go.jp/15/index.php?action_kouhyou_detail_004_kani=true&JigyosyoCd=1590100515-00&ServiceCd=540&Type=search" }, "geometry": { "type": "Point", "coordinates": [ 139.091766299999989, 37.781845 ] } },
{ "type": "Feature", "properties": { "内容": "特別養護老人ホームやしろだ苑【地域密着型介護老人福祉施設入所者生活介護】新潟県新潟市秋葉区矢代田1234番地1", "url2": "https://www.kaigokensaku.mhlw.go.jp/15/index.php?action_kouhyou_detail_004_kani=true&JigyosyoCd=1590101034-00&ServiceCd=540&Type=search" }, "geometry": { "type": "Point", "coordinates": [ 139.094471663615394, 37.750539103740977 ] } },
{ "type": "Feature", "properties": { "内容": "特別養護老人ホーム藤花・小阿賀【地域密着型介護老人福祉施設入所者生活介護】新潟県新潟市秋葉区車場1丁目389番地１", "url2": "https://www.kaigokensaku.mhlw.go.jp/15/index.php?action_kouhyou_detail_004_kani=true&JigyosyoCd=1590102016-00&ServiceCd=540&Type=search" }, "geometry": { "type": "Point", "coordinates": [ 139.092853394283225, 37.834575790099905 ] } },
{ "type": "Feature", "properties": { "内容": "特別養護老人ホーム藤花【地域密着型介護老人福祉施設入所者生活介護】新潟県新潟市秋葉区新津本町１丁目１１－１２", "url2": "https://www.kaigokensaku.mhlw.go.jp/15/index.php?action_kouhyou_detail_004_kani=true&JigyosyoCd=1590101299-00&ServiceCd=540&Type=search" }, "geometry": { "type": "Point", "coordinates": [ 139.119100200000048, 37.8024295 ] } },
{ "type": "Feature", "properties": { "内容": "特別養護老人ホーム藤花・荻川【地域密着型介護老人福祉施設入所者生活介護】新潟県新潟市秋葉区田島109番地", "url2": "https://www.kaigokensaku.mhlw.go.jp/15/index.php?action_kouhyou_detail_004_kani=true&JigyosyoCd=1590101638-00&ServiceCd=540&Type=search" }, "geometry": { "type": "Point", "coordinates": [ 139.113056704540895, 37.828726960310625 ] } },
{ "type": "Feature", "properties": { "内容": "特別養護老人ホーム　真寿苑【地域密着型介護老人福祉施設入所者生活介護】新潟県新潟市秋葉区大鹿516番地1", "url2": "https://www.kaigokensaku.mhlw.go.jp/15/index.php?action_kouhyou_detail_004_kani=true&JigyosyoCd=1590100788-00&ServiceCd=540&Type=search" }, "geometry": { "type": "Point", "coordinates": [ 139.098112899999933, 37.7956408 ] } },
{ "type": "Feature", "properties": { "内容": "特別養護老人ホーム　遊生の園【地域密着型介護老人福祉施設入所者生活介護】新潟県新潟市南区西萱場304番地", "url2": "https://www.kaigokensaku.mhlw.go.jp/15/index.php?action_kouhyou_detail_004_kani=true&JigyosyoCd=1590101489-00&ServiceCd=540&Type=search" }, "geometry": { "type": "Point", "coordinates": [ 139.001530391748787, 37.733808366416604 ] } },
{ "type": "Feature", "properties": { "内容": "特別養護老人ホーム坂井愛宕の園【地域密着型介護老人福祉施設入所者生活介護】新潟県新潟市西区坂井1450番地1", "url2": "https://www.kaigokensaku.mhlw.go.jp/15/index.php?action_kouhyou_detail_004_kani=true&JigyosyoCd=1590102453-00&ServiceCd=540&Type=search" }, "geometry": { "type": "Point", "coordinates": [ 138.956616505032315, 37.861613509636953 ] } },
{ "type": "Feature", "properties": { "内容": "特別養護老人ホームてらお愛宕の園【地域密着型介護老人福祉施設入所者生活介護】新潟県新潟市西区寺尾東１丁目１８番２９号", "url2": "https://www.kaigokensaku.mhlw.go.jp/15/index.php?action_kouhyou_detail_004_kani=true&JigyosyoCd=1590101950-00&ServiceCd=540&Type=search" }, "geometry": { "type": "Point", "coordinates": [ 138.977148400000033, 37.8777248 ] } },
{ "type": "Feature", "properties": { "内容": "地域密着型特別養護老人ホームあい・いからしの郷あじさいホーム【地域密着型介護老人福祉施設入所者生活介護】新潟県新潟市西区上新栄町３丁目４番７７号高齢者総合生活支援施設あい・いからしの郷", "url2": "https://www.kaigokensaku.mhlw.go.jp/15/index.php?action_kouhyou_detail_004_kani=true&JigyosyoCd=1590101752-00&ServiceCd=540&Type=search" }, "geometry": { "type": "Point", "coordinates": [ 138.965986028564885, 37.884916583885833 ] } },
{ "type": "Feature", "properties": { "内容": "特別養護老人ホームスマイルガーデン黒埼【地域密着型介護老人福祉施設入所者生活介護】新潟県新潟市西区金巻８８０番地１", "url2": "https://www.kaigokensaku.mhlw.go.jp/15/index.php?action_kouhyou_detail_004_kani=true&JigyosyoCd=1590100952-00&ServiceCd=540&Type=search" }, "geometry": { "type": "Point", "coordinates": [ 139.011866026472944, 37.845163842491118 ] } },
{ "type": "Feature", "properties": { "内容": "特別養護老人ホーム　道場山穂波の里【地域密着型介護老人福祉施設入所者生活介護】新潟県新潟市西区寺尾上6丁目17番23号", "url2": "https://www.kaigokensaku.mhlw.go.jp/15/index.php?action_kouhyou_detail_004_kani=true&JigyosyoCd=1590100663-00&ServiceCd=540&Type=search" }, "geometry": { "type": "Point", "coordinates": [ 138.9632485, 37.8723326 ] } },
{ "type": "Feature", "properties": { "内容": "特別養護老人ホーム　有徳の家【地域密着型介護老人福祉施設入所者生活介護】新潟県新潟市西区小針上山９番３２号", "url2": "https://www.kaigokensaku.mhlw.go.jp/15/index.php?action_kouhyou_detail_004_kani=true&JigyosyoCd=1590100754-00&ServiceCd=540&Type=search" }, "geometry": { "type": "Point", "coordinates": [ 138.992570099999966, 37.8930853 ] } },
{ "type": "Feature", "properties": { "内容": "特別養護老人ホーム　ルアナ【地域密着型介護老人福祉施設入所者生活介護】新潟県新潟市西区小針上山１０番５号", "url2": "https://www.kaigokensaku.mhlw.go.jp/15/index.php?action_kouhyou_detail_004_kani=true&JigyosyoCd=1590102040-00&ServiceCd=540&Type=search" }, "geometry": { "type": "Point", "coordinates": [ 138.992055682278476, 37.891861828963584 ] } },
{ "type": "Feature", "properties": { "内容": "特別養護老人ホーム　遊生の森【地域密着型介護老人福祉施設入所者生活介護】新潟県新潟市西蒲区西中694番地", "url2": "https://www.kaigokensaku.mhlw.go.jp/15/index.php?action_kouhyou_detail_004_kani=true&JigyosyoCd=1590100507-00&ServiceCd=540&Type=search" }, "geometry": { "type": "Point", "coordinates": [ 138.866987800000061, 37.725334 ] } },
{ "type": "Feature", "properties": { "内容": "地域密着型介護老人福祉施設　特別養護老人ホーム　虹の里【地域密着型介護老人福祉施設入所者生活介護】新潟県新潟市西蒲区称名825番地", "url2": "https://www.kaigokensaku.mhlw.go.jp/15/index.php?action_kouhyou_detail_004_kani=true&JigyosyoCd=1590101430-00&ServiceCd=540&Type=search" }, "geometry": { "type": "Point", "coordinates": [ 138.953618600000027, 37.7529671 ] } },
{ "type": "Feature", "properties": { "内容": "特別養護老人ホーム　遊生の里【地域密着型介護老人福祉施設入所者生活介護】新潟県新潟市西蒲区巻甲2759番地1", "url2": "https://www.kaigokensaku.mhlw.go.jp/15/index.php?action_kouhyou_detail_004_kani=true&JigyosyoCd=1590101133-00&ServiceCd=540&Type=search" }, "geometry": { "type": "Point", "coordinates": [ 138.890875008698231, 37.761189689262551 ] } },
{ "type": "Feature", "properties": { "内容": "特別養護老人ホーム美沢【地域密着型介護老人福祉施設入所者生活介護】長岡市美沢4丁目211番地6", "url2": "https://www.kaigokensaku.mhlw.go.jp/15/index.php?action_kouhyou_detail_004_kani=true&JigyosyoCd=1570202364-00&ServiceCd=540&Type=search" }, "geometry": { "type": "Point", "coordinates": [ 138.863764700000047, 37.443274 ] } },
{ "type": "Feature", "properties": { "内容": "特別養護老人ホーム千秋【地域密着型介護老人福祉施設入所者生活介護】新潟県長岡市千秋２丁目２２１番地１４", "url2": "https://www.kaigokensaku.mhlw.go.jp/15/index.php?action_kouhyou_detail_004_kani=true&JigyosyoCd=1590200166-00&ServiceCd=540&Type=search" }, "geometry": { "type": "Point", "coordinates": [ 138.827126600000042, 37.4562883 ] } },
{ "type": "Feature", "properties": { "内容": "特別養護老人ホーム千手【地域密着型介護老人福祉施設入所者生活介護】新潟県長岡市千手３丁目１番１４号", "url2": "https://www.kaigokensaku.mhlw.go.jp/15/index.php?action_kouhyou_detail_004_kani=true&JigyosyoCd=1590200240-00&ServiceCd=540&Type=search" }, "geometry": { "type": "Point", "coordinates": [ 138.844958600000041, 37.4439292 ] } },
{ "type": "Feature", "properties": { "内容": "特別養護老人ホーム摂田屋【地域密着型介護老人福祉施設入所者生活介護】新潟県長岡市摂田屋５丁目９番地６", "url2": "https://www.kaigokensaku.mhlw.go.jp/15/index.php?action_kouhyou_detail_004_kani=true&JigyosyoCd=1590200364-00&ServiceCd=540&Type=search" }, "geometry": { "type": "Point", "coordinates": [ 138.83786859999995, 37.416740300000015 ] } },
{ "type": "Feature", "properties": { "内容": "特別養護老人ホーム川崎【地域密着型介護老人福祉施設入所者生活介護】新潟県長岡市川崎6丁目1286番地サポートセンター川崎", "url2": "https://www.kaigokensaku.mhlw.go.jp/15/index.php?action_kouhyou_detail_004_kani=true&JigyosyoCd=1590200489-00&ServiceCd=540&Type=search" }, "geometry": { "type": "Point", "coordinates": [ 138.87342979999994, 37.4563169 ] } },
{ "type": "Feature", "properties": { "内容": "特別養護老人ホーム福住【地域密着型介護老人福祉施設入所者生活介護】長岡市福住2丁目1番15号", "url2": "https://www.kaigokensaku.mhlw.go.jp/15/index.php?action_kouhyou_detail_004_kani=true&JigyosyoCd=1590200265-00&ServiceCd=540&Type=search" }, "geometry": { "type": "Point", "coordinates": [ 138.8578291, 37.4514703 ] } },
{ "type": "Feature", "properties": { "内容": "特別養護老人ホームはるか高町【地域密着型介護老人福祉施設入所者生活介護】新潟県長岡市高町2丁目59番地363", "url2": "https://www.kaigokensaku.mhlw.go.jp/15/index.php?action_kouhyou_detail_004_kani=true&JigyosyoCd=1590200703-00&ServiceCd=540&Type=search" }, "geometry": { "type": "Point", "coordinates": [ 138.865265499999964, 37.4170212 ] } },
{ "type": "Feature", "properties": { "内容": "特別養護老人ホーム花の里かつぼ【地域密着型介護老人福祉施設入所者生活介護】新潟県長岡市水穴町３９３番地", "url2": "https://www.kaigokensaku.mhlw.go.jp/15/index.php?action_kouhyou_detail_004_kani=true&JigyosyoCd=1590200182-00&ServiceCd=540&Type=search" }, "geometry": { "type": "Point", "coordinates": [ 138.92057090000003, 37.4745381 ] } },
{ "type": "Feature", "properties": { "内容": "てまり特別養護老人ホーム【地域密着型介護老人福祉施設入所者生活介護】新潟県長岡市平1丁目3番55号", "url2": "https://www.kaigokensaku.mhlw.go.jp/15/index.php?action_kouhyou_detail_004_kani=true&JigyosyoCd=1590200414-00&ServiceCd=540&Type=search" }, "geometry": { "type": "Point", "coordinates": [ 139.004985, 37.4714871 ] } },
{ "type": "Feature", "properties": { "内容": "特別養護老人ホーム小国あいあい【地域密着型介護老人福祉施設入所者生活介護】新潟県長岡市小国町太郎丸１５２０番地１", "url2": "https://www.kaigokensaku.mhlw.go.jp/15/index.php?action_kouhyou_detail_004_kani=true&JigyosyoCd=1590200521-00&ServiceCd=540&Type=search" }, "geometry": { "type": "Point", "coordinates": [ 138.710012, 37.2783667 ] } },
{ "type": "Feature", "properties": { "内容": "特別養護老人ホームみやざわ苑【地域密着型介護老人福祉施設入所者生活介護】新潟県長岡市栃尾宮沢1778番地", "url2": "https://www.kaigokensaku.mhlw.go.jp/15/index.php?action_kouhyou_detail_004_kani=true&JigyosyoCd=1590200588-00&ServiceCd=540&Type=search" }, "geometry": { "type": "Point", "coordinates": [ 139.007939867072992, 37.460746365736519 ] } },
{ "type": "Feature", "properties": { "内容": "特別養護老人ホームわしま【地域密着型介護老人福祉施設入所者生活介護】新潟県長岡市小島谷3399番地", "url2": "https://www.kaigokensaku.mhlw.go.jp/15/index.php?action_kouhyou_detail_004_kani=true&JigyosyoCd=1590200612-00&ServiceCd=540&Type=search" }, "geometry": { "type": "Point", "coordinates": [ 138.771268058127617, 37.576118037088193 ] } },
{ "type": "Feature", "properties": { "内容": "地域密着型特別養護老人ホーム第二さかえの里【地域密着型介護老人福祉施設入所者生活介護】新潟県三条市福島新田丙480番地", "url2": "https://www.kaigokensaku.mhlw.go.jp/15/index.php?action_kouhyou_detail_004_kani=true&JigyosyoCd=1590400113-00&ServiceCd=540&Type=search" }, "geometry": { "type": "Point", "coordinates": [ 138.905096400000048, 37.6103638 ] } },
{ "type": "Feature", "properties": { "内容": "特別養護老人ホーム裏館倶楽部【地域密着型介護老人福祉施設入所者生活介護】新潟県三条市西裏館３丁目６番５４号", "url2": "https://www.kaigokensaku.mhlw.go.jp/15/index.php?action_kouhyou_detail_004_kani=true&JigyosyoCd=1590400188-00&ServiceCd=540&Type=search" }, "geometry": { "type": "Point", "coordinates": [ 138.960154287835707, 37.643867704768994 ] } },
{ "type": "Feature", "properties": { "内容": "特別養護老人ホーム　大崎倶楽部【地域密着型介護老人福祉施設入所者生活介護】新潟県三条市西大崎2丁目20番9号", "url2": "https://www.kaigokensaku.mhlw.go.jp/15/index.php?action_kouhyou_detail_004_kani=true&JigyosyoCd=1590400238-00&ServiceCd=540&Type=search" }, "geometry": { "type": "Point", "coordinates": [ 138.9883319, 37.6188811 ] } },
{ "type": "Feature", "properties": { "内容": "地域密着型介護老人福祉施設つつじガーデン三条【地域密着型介護老人福祉施設入所者生活介護】新潟県三条市諏訪3丁目3番52号", "url2": "https://www.kaigokensaku.mhlw.go.jp/15/index.php?action_kouhyou_detail_004_kani=true&JigyosyoCd=1590400154-00&ServiceCd=540&Type=search" }, "geometry": { "type": "Point", "coordinates": [ 138.981799, 37.6154105 ] } },
{ "type": "Feature", "properties": { "内容": "特別養護老人ホーム　たんねの里【地域密着型介護老人福祉施設入所者生活介護】新潟県柏崎市大字谷根3190番地1", "url2": "https://www.kaigokensaku.mhlw.go.jp/15/index.php?action_kouhyou_detail_004_kani=true&JigyosyoCd=1590500086-00&ServiceCd=540&Type=search" }, "geometry": { "type": "Point", "coordinates": [ 138.503433964418036, 37.323806018073206 ] } },
{ "type": "Feature", "properties": { "内容": "特別養護老人ホームはやまの里【地域密着型介護老人福祉施設入所者生活介護】新潟県柏崎市西山町大崎1593番地1特別養護老人ホームはやまの里", "url2": "https://www.kaigokensaku.mhlw.go.jp/15/index.php?action_kouhyou_detail_004_kani=true&JigyosyoCd=1590500185-00&ServiceCd=540&Type=search" }, "geometry": { "type": "Point", "coordinates": [ 138.643631700129504, 37.501592787565592 ] } },
{ "type": "Feature", "properties": { "内容": "特別養護老人ホーム　しばた【地域密着型介護老人福祉施設入所者生活介護】新潟県新発田市下中山246番1", "url2": "https://www.kaigokensaku.mhlw.go.jp/15/index.php?action_kouhyou_detail_004_kani=true&JigyosyoCd=1590600126-00&ServiceCd=540&Type=search" }, "geometry": { "type": "Point", "coordinates": [ 139.442722600000025, 37.9932648 ] } },
{ "type": "Feature", "properties": { "内容": "特別養護老人ホーム　新発田まごころの里【地域密着型介護老人福祉施設入所者生活介護】新潟県新発田市下小中山1107番地", "url2": "https://www.kaigokensaku.mhlw.go.jp/15/index.php?action_kouhyou_detail_004_kani=true&JigyosyoCd=1590600159-00&ServiceCd=540&Type=search" }, "geometry": { "type": "Point", "coordinates": [ 139.380908934618986, 38.017185950576405 ] } },
{ "type": "Feature", "properties": { "内容": "パルｃｏｍｆｙ陽だまり苑【地域密着型介護老人福祉施設入所者生活介護】新潟県新発田市中央町5丁目4番2号", "url2": "https://www.kaigokensaku.mhlw.go.jp/15/index.php?action_kouhyou_detail_004_kani=true&JigyosyoCd=1590600134-00&ServiceCd=540&Type=search" }, "geometry": { "type": "Point", "coordinates": [ 139.331411399999979, 37.9520578 ] } },
{ "type": "Feature", "properties": { "内容": "特別養護老人ホーム　三の丸【地域密着型介護老人福祉施設入所者生活介護】新潟県新発田市大手町４丁目３番４号", "url2": "https://www.kaigokensaku.mhlw.go.jp/15/index.php?action_kouhyou_detail_004_kani=true&JigyosyoCd=1590600175-00&ServiceCd=540&Type=search" }, "geometry": { "type": "Point", "coordinates": [ 139.325404599999956, 37.9514752 ] } },
{ "type": "Feature", "properties": { "内容": "陽だまり苑ふぇりあ【地域密着型介護老人福祉施設入所者生活介護】新潟県新発田市富塚町2丁目4番13号", "url2": "https://www.kaigokensaku.mhlw.go.jp/15/index.php?action_kouhyou_detail_004_kani=true&JigyosyoCd=1590600209-00&ServiceCd=540&Type=search" }, "geometry": { "type": "Point", "coordinates": [ 139.299341700000014, 37.9500332 ] } },
{ "type": "Feature", "properties": { "内容": "特別養護老人ホームぢりめき【地域密着型介護老人福祉施設入所者生活介護】新潟県新発田市佐々木２６１０番地", "url2": "https://www.kaigokensaku.mhlw.go.jp/15/index.php?action_kouhyou_detail_004_kani=true&JigyosyoCd=1590600183-00&ServiceCd=540&Type=search" }, "geometry": { "type": "Point", "coordinates": [ 139.250940425270073, 37.952316278490997 ] } },
{ "type": "Feature", "properties": { "内容": "特別養護老人ホームくるま乃【地域密着型介護老人福祉施設入所者生活介護】新潟県新発田市大友17-1", "url2": "https://www.kaigokensaku.mhlw.go.jp/15/index.php?action_kouhyou_detail_004_kani=true&JigyosyoCd=1590600142-00&ServiceCd=540&Type=search" }, "geometry": { "type": "Point", "coordinates": [ 139.386962400000016, 37.9089121 ] } },
{ "type": "Feature", "properties": { "内容": "特別養護老人ホームしうんじ(地域密着型)【地域密着型介護老人福祉施設入所者生活介護】新潟県新発田市真野原外3331番地2", "url2": "https://www.kaigokensaku.mhlw.go.jp/15/index.php?action_kouhyou_detail_004_kani=true&JigyosyoCd=1590600100-00&ServiceCd=540&Type=search" }, "geometry": { "type": "Point", "coordinates": [ 139.318080099999946, 38.0181429 ] } },
{ "type": "Feature", "properties": { "内容": "特別養護老人ホーム片貝さくら【地域密着型介護老人福祉施設入所者生活介護】新潟県小千谷市片貝町４７０８番地１", "url2": "https://www.kaigokensaku.mhlw.go.jp/15/index.php?action_kouhyou_detail_004_kani=true&JigyosyoCd=1590800064-00&ServiceCd=540&Type=search" }, "geometry": { "type": "Point", "coordinates": [ 138.778887899999972, 37.3705835 ] } },
{ "type": "Feature", "properties": { "内容": "地域密着型介護老人福祉施設　つつじガーデン小千谷【地域密着型介護老人福祉施設入所者生活介護】新潟県小千谷市大字四ツ子509番地1", "url2": "https://www.kaigokensaku.mhlw.go.jp/15/index.php?action_kouhyou_detail_004_kani=true&JigyosyoCd=1590800080-00&ServiceCd=540&Type=search" }, "geometry": { "type": "Point", "coordinates": [ 138.785740696715976, 37.283079833194762 ] } },
{ "type": "Feature", "properties": { "内容": "モス・コーラ特別養護老人ホーム【地域密着型介護老人福祉施設入所者生活介護】新潟県小千谷市大字桜町3146番地2", "url2": "https://www.kaigokensaku.mhlw.go.jp/15/index.php?action_kouhyou_detail_004_kani=true&JigyosyoCd=1590800098-00&ServiceCd=540&Type=search" }, "geometry": { "type": "Point", "coordinates": [ 138.772766017907742, 37.310652065969386 ] } },
{ "type": "Feature", "properties": { "内容": "地域密着型介護老人福祉施設ときみずの家【地域密着型介護老人福祉施設入所者生活介護】新潟県小千谷市時水１８２－１", "url2": "https://www.kaigokensaku.mhlw.go.jp/15/index.php?action_kouhyou_detail_004_kani=true&JigyosyoCd=1590800056-00&ServiceCd=540&Type=search" }, "geometry": { "type": "Point", "coordinates": [ 138.773264126965756, 37.30183688158511 ] } },
{ "type": "Feature", "properties": { "内容": "地域密着型介護老人福祉施設　千谷島の家【地域密着型介護老人福祉施設入所者生活介護】新潟県小千谷市大字千谷川３０２", "url2": "https://www.kaigokensaku.mhlw.go.jp/15/index.php?action_kouhyou_detail_004_kani=true&JigyosyoCd=1590800072-00&ServiceCd=540&Type=search" }, "geometry": { "type": "Point", "coordinates": [ 138.802095309047417, 37.320626789827074 ] } },
{ "type": "Feature", "properties": { "内容": "特別養護老人ホームほくほくの里【地域密着型介護老人福祉施設入所者生活介護】十日町市太平664-4", "url2": "https://www.kaigokensaku.mhlw.go.jp/15/index.php?action_kouhyou_detail_004_kani=true&JigyosyoCd=1591000045-00&ServiceCd=540&Type=search" }, "geometry": { "type": "Point", "coordinates": [ 138.622063900000086, 37.1351671 ] } },
{ "type": "Feature", "properties": { "内容": "特別養護老人ホーム三好園四ッ宮【地域密着型介護老人福祉施設入所者生活介護】新潟県十日町市本町６の1丁目３２０番地９", "url2": "https://www.kaigokensaku.mhlw.go.jp/15/index.php?action_kouhyou_detail_004_kani=true&JigyosyoCd=1591000037-00&ServiceCd=540&Type=search" }, "geometry": { "type": "Point", "coordinates": [ 138.76308169999993, 37.1367727 ] } },
{ "type": "Feature", "properties": { "内容": "特別養護老人ホームあかね園【地域密着型介護老人福祉施設入所者生活介護】新潟県十日町市高原田２７８番地１", "url2": "https://www.kaigokensaku.mhlw.go.jp/15/index.php?action_kouhyou_detail_004_kani=true&JigyosyoCd=1591000078-00&ServiceCd=540&Type=search" }, "geometry": { "type": "Point", "coordinates": [ 138.740471599999978, 37.1707788 ] } },
{ "type": "Feature", "properties": { "内容": "特別養護老人ホームよしだ【地域密着型介護老人福祉施設入所者生活介護】新潟県十日町市南鐙坂４４６番地１", "url2": "https://www.kaigokensaku.mhlw.go.jp/15/index.php?action_kouhyou_detail_004_kani=true&JigyosyoCd=1591000052-00&ServiceCd=540&Type=search" }, "geometry": { "type": "Point", "coordinates": [ 138.720493730024685, 37.124980843295774 ] } },
{ "type": "Feature", "properties": { "内容": "地域密着型特別養護老人ホーム七川荘やすらぎ【地域密着型介護老人福祉施設入所者生活介護】新潟県十日町市田中戊６１９番地３", "url2": "https://www.kaigokensaku.mhlw.go.jp/15/index.php?action_kouhyou_detail_004_kani=true&JigyosyoCd=1591000086-00&ServiceCd=540&Type=search" }, "geometry": { "type": "Point", "coordinates": [ 138.698536200000035, 37.055795 ] } },
{ "type": "Feature", "properties": { "内容": "特別養護老人ホーム　いいねか邸【地域密着型介護老人福祉施設入所者生活介護】新潟県見附市本所１丁目２５番７０号", "url2": "https://www.kaigokensaku.mhlw.go.jp/15/index.php?action_kouhyou_detail_004_kani=true&JigyosyoCd=1591100092-00&ServiceCd=540&Type=search" }, "geometry": { "type": "Point", "coordinates": [ 138.915201070253033, 37.538766429136864 ] } },
{ "type": "Feature", "properties": { "内容": "特別養護老人ホーム　アットホーム今町【地域密着型介護老人福祉施設入所者生活介護】新潟県見附市今町5-41-37", "url2": "https://www.kaigokensaku.mhlw.go.jp/15/index.php?action_kouhyou_detail_004_kani=true&JigyosyoCd=1591100068-00&ServiceCd=540&Type=search" }, "geometry": { "type": "Point", "coordinates": [ 138.891254634918226, 37.554003489694523 ] } },
{ "type": "Feature", "properties": { "内容": "特別養護老人ホーム神林の里【地域密着型介護老人福祉施設入所者生活介護】新潟県村上市九日市69-1", "url2": "https://www.kaigokensaku.mhlw.go.jp/15/index.php?action_kouhyou_detail_004_kani=true&JigyosyoCd=1591200249-00&ServiceCd=540&Type=search" }, "geometry": { "type": "Point", "coordinates": [ 139.46044, 38.1811175 ] } },
{ "type": "Feature", "properties": { "内容": "特別養護老人ホーム　村上まごころの里【地域密着型介護老人福祉施設入所者生活介護】新潟県　村上市　大津　3689番地2", "url2": "https://www.kaigokensaku.mhlw.go.jp/15/index.php?action_kouhyou_detail_004_kani=true&JigyosyoCd=1591200165-00&ServiceCd=540&Type=search" }, "geometry": { "type": "Point", "coordinates": [ 139.434474857372237, 38.131239214533011 ] } },
{ "type": "Feature", "properties": { "内容": "特別養護老人ホームあさひ【地域密着型介護老人福祉施設入所者生活介護】新潟県村上市猿沢2160", "url2": "https://www.kaigokensaku.mhlw.go.jp/15/index.php?action_kouhyou_detail_004_kani=true&JigyosyoCd=1591200140-00&ServiceCd=540&Type=search" }, "geometry": { "type": "Point", "coordinates": [ 139.527469995800743, 38.287261785060842 ] } },
{ "type": "Feature", "properties": { "内容": "地域密着型特別養護老人ホーム羽衣園【地域密着型介護老人福祉施設入所者生活介護】新潟県村上市岩沢1616番地", "url2": "https://www.kaigokensaku.mhlw.go.jp/15/index.php?action_kouhyou_detail_004_kani=true&JigyosyoCd=1591200157-00&ServiceCd=540&Type=search" }, "geometry": { "type": "Point", "coordinates": [ 139.534690800000021, 38.262124300000011 ] } },
{ "type": "Feature", "properties": { "内容": "特別養護老人ホ－ム分水いちごの実【地域密着型介護老人福祉施設入所者生活介護】新潟県燕市五千石3223番3特別養護老人ホ－ム分水いちごの実", "url2": "https://www.kaigokensaku.mhlw.go.jp/15/index.php?action_kouhyou_detail_004_kani=true&JigyosyoCd=1591300148-00&ServiceCd=540&Type=search" }, "geometry": { "type": "Point", "coordinates": [ 138.8389038777824, 37.623605793148542 ] } },
{ "type": "Feature", "properties": { "内容": "地域密着ユニット型介護福祉施設　はな広場・しまかみ【地域密着型介護老人福祉施設入所者生活介護】新潟県燕市横田９９４８番地１", "url2": "https://www.kaigokensaku.mhlw.go.jp/15/index.php?action_kouhyou_detail_004_kani=true&JigyosyoCd=1591300080-00&ServiceCd=540&Type=search" }, "geometry": { "type": "Point", "coordinates": [ 138.888089499999978, 37.6321718 ] } },
{ "type": "Feature", "properties": { "内容": "特別養護老人ホーム　遊生の町【地域密着型介護老人福祉施設入所者生活介護】新潟県燕市小関1389番地4", "url2": "https://www.kaigokensaku.mhlw.go.jp/15/index.php?action_kouhyou_detail_004_kani=true&JigyosyoCd=1591300213-00&ServiceCd=540&Type=search" }, "geometry": { "type": "Point", "coordinates": [ 138.903828242991608, 37.660429508084086 ] } },
{ "type": "Feature", "properties": { "内容": "地域密着型特別養護老人ホームときわ燕【地域密着型介護老人福祉施設入所者生活介護】新潟県燕市上児木３９０番地", "url2": "https://www.kaigokensaku.mhlw.go.jp/15/index.php?action_kouhyou_detail_004_kani=true&JigyosyoCd=1591300221-00&ServiceCd=540&Type=search" }, "geometry": { "type": "Point", "coordinates": [ 138.96459228493805, 37.685755870995905 ] } },
{ "type": "Feature", "properties": { "内容": "地域密着型介護老人福祉施設じょんのび掌【地域密着型介護老人福祉施設入所者生活介護】新潟県糸魚川市大野１７２４－１", "url2": "https://www.kaigokensaku.mhlw.go.jp/15/index.php?action_kouhyou_detail_004_kani=true&JigyosyoCd=1591500036-00&ServiceCd=540&Type=search" }, "geometry": { "type": "Point", "coordinates": [ 137.8713497, 37.0049405 ] } },
{ "type": "Feature", "properties": { "内容": "地域密着型介護老人福祉施設じょんのび慈【地域密着型介護老人福祉施設入所者生活介護】新潟県糸魚川市大字須沢3250番地", "url2": "https://www.kaigokensaku.mhlw.go.jp/15/index.php?action_kouhyou_detail_004_kani=true&JigyosyoCd=1591500051-00&ServiceCd=540&Type=search" }, "geometry": { "type": "Point", "coordinates": [ 137.827675, 37.0319622 ] } },
{ "type": "Feature", "properties": { "内容": "地域密着型介護老人福祉施設ゆきのみや【地域密着型介護老人福祉施設入所者生活介護】妙高市大字宮内92番地3", "url2": "https://www.kaigokensaku.mhlw.go.jp/15/index.php?action_kouhyou_detail_004_kani=true&JigyosyoCd=1591600117-00&ServiceCd=540&Type=search" }, "geometry": { "type": "Point", "coordinates": [ 138.236067199999979, 37.0573786 ] } },
{ "type": "Feature", "properties": { "内容": "特別養護老人ホーム　結の里【地域密着型介護老人福祉施設入所者生活介護】新潟県五泉市五十嵐新田855-1", "url2": "https://www.kaigokensaku.mhlw.go.jp/15/index.php?action_kouhyou_detail_004_kani=true&JigyosyoCd=1591700115-00&ServiceCd=540&Type=search" }, "geometry": { "type": "Point", "coordinates": [ 139.196413799999959, 37.7349399 ] } },
{ "type": "Feature", "properties": { "内容": "特別養護老人ホーム帛の郷【地域密着型介護老人福祉施設入所者生活介護】新潟県五泉市本町6丁目7番7号", "url2": "https://www.kaigokensaku.mhlw.go.jp/15/index.php?action_kouhyou_detail_004_kani=true&JigyosyoCd=1591700131-00&ServiceCd=540&Type=search" }, "geometry": { "type": "Point", "coordinates": [ 139.177037026983612, 37.745942904692825 ] } },
{ "type": "Feature", "properties": { "内容": "特別養護老人ホームみどりの園【地域密着型介護老人福祉施設入所者生活介護】新潟県五泉市村松甲5551番地1", "url2": "https://www.kaigokensaku.mhlw.go.jp/15/index.php?action_kouhyou_detail_004_kani=true&JigyosyoCd=1591700164-00&ServiceCd=540&Type=search" }, "geometry": { "type": "Point", "coordinates": [ 139.181732299999965, 37.686598600000018 ] } },
{ "type": "Feature", "properties": { "内容": "地域密着型介護老人福祉施設　みのりの丘中郷【地域密着型介護老人福祉施設入所者生活介護】新潟県上越市中郷区藤沢998番地1", "url2": "https://www.kaigokensaku.mhlw.go.jp/15/index.php?action_kouhyou_detail_004_kani=true&JigyosyoCd=1590300305-00&ServiceCd=540&Type=search" }, "geometry": { "type": "Point", "coordinates": [ 138.223730199999977, 36.9809174 ] } },
{ "type": "Feature", "properties": { "内容": "地域密着型介護老人福祉施設　名立ひなさき【地域密着型介護老人福祉施設入所者生活介護】新潟県上越市名立区名立大町4174番地", "url2": "https://www.kaigokensaku.mhlw.go.jp/15/index.php?action_kouhyou_detail_004_kani=true&JigyosyoCd=1590300545-00&ServiceCd=540&Type=search" }, "geometry": { "type": "Point", "coordinates": [ 138.091558255255876, 37.158666051096723 ] } },
{ "type": "Feature", "properties": { "内容": "サテライト型特別養護老人ホーム笛吹の里【地域密着型介護老人福祉施設入所者生活介護】上越市大字藪野１３８番地", "url2": "https://www.kaigokensaku.mhlw.go.jp/15/index.php?action_kouhyou_detail_004_kani=true&JigyosyoCd=1590300164-00&ServiceCd=540&Type=search" }, "geometry": { "type": "Point", "coordinates": [ 138.294687899999985, 37.0938116 ] } },
{ "type": "Feature", "properties": { "内容": "小規模特別養護老人ホーム直江津愛宕の園【地域密着型介護老人福祉施設入所者生活介護】新潟県上越市五智2丁目1番3号", "url2": "https://www.kaigokensaku.mhlw.go.jp/15/index.php?action_kouhyou_detail_004_kani=true&JigyosyoCd=1590300222-00&ServiceCd=540&Type=search" }, "geometry": { "type": "Point", "coordinates": [ 138.234132, 37.1717504 ] } },
{ "type": "Feature", "properties": { "内容": "地域密着型介護老人福祉施設みずほ園【地域密着型介護老人福祉施設入所者生活介護】新潟県上越市米岡434番1", "url2": "https://www.kaigokensaku.mhlw.go.jp/15/index.php?action_kouhyou_detail_004_kani=true&JigyosyoCd=1590300461-00&ServiceCd=540&Type=search" }, "geometry": { "type": "Point", "coordinates": [ 138.319691105696194, 37.131454634602257 ] } },
{ "type": "Feature", "properties": { "内容": "小規模特別養護老人ホーム大潟愛宕の園【地域密着型介護老人福祉施設入所者生活介護】新潟県上越市大潟区土底浜978番地1", "url2": "https://www.kaigokensaku.mhlw.go.jp/15/index.php?action_kouhyou_detail_004_kani=true&JigyosyoCd=1590300420-00&ServiceCd=540&Type=search" }, "geometry": { "type": "Point", "coordinates": [ 138.339527274343908, 37.22988141939144 ] } },
{ "type": "Feature", "properties": { "内容": "サテライト型特別養護老人ホームほくら園ユニット【地域密着型介護老人福祉施設入所者生活介護】新潟県上越市大島区大平5131番地", "url2": "https://www.kaigokensaku.mhlw.go.jp/15/index.php?action_kouhyou_detail_004_kani=true&JigyosyoCd=1590300396-00&ServiceCd=540&Type=search" }, "geometry": { "type": "Point", "coordinates": [ 138.511356, 37.1561126 ] } },
{ "type": "Feature", "properties": { "内容": "地域密着型特別養護老人ホームシンパシー【地域密着型介護老人福祉施設入所者生活介護】新潟県阿賀野市南安野町８番２０号地域密着型特別養護老人ホームシンパシー", "url2": "https://www.kaigokensaku.mhlw.go.jp/15/index.php?action_kouhyou_detail_004_kani=true&JigyosyoCd=1592100125-00&ServiceCd=540&Type=search" }, "geometry": { "type": "Point", "coordinates": [ 139.212120700000014, 37.8363921 ] } },
{ "type": "Feature", "properties": { "内容": "特別養護老人ホーム　シンパシー【地域密着型介護老人福祉施設入所者生活介護】新潟県阿賀野市南安野町８番２０号", "url2": "https://www.kaigokensaku.mhlw.go.jp/15/index.php?action_kouhyou_detail_004_kani=true&JigyosyoCd=1592100083-00&ServiceCd=540&Type=search" }, "geometry": { "type": "Point", "coordinates": [ 139.213048744319167, 37.836498015738918 ] } },
{ "type": "Feature", "properties": { "内容": "地域密着型特別養護老人ホーム　コスモスの里【地域密着型介護老人福祉施設入所者生活介護】新潟県阿賀野市飯森杉437-2特別養護老人ホーム　コスモスの里", "url2": "https://www.kaigokensaku.mhlw.go.jp/15/index.php?action_kouhyou_detail_004_kani=true&JigyosyoCd=1592100109-00&ServiceCd=540&Type=search" }, "geometry": { "type": "Point", "coordinates": [ 139.187676300000021, 37.8379079 ] } },
{ "type": "Feature", "properties": { "内容": "特別養護老人ホームはもちの里トキめき館【地域密着型介護老人福祉施設入所者生活介護】新潟県佐渡市羽茂本郷25番地特別養護老人ホームはもちの里", "url2": "https://www.kaigokensaku.mhlw.go.jp/15/index.php?action_kouhyou_detail_004_kani=true&JigyosyoCd=1592200131-00&ServiceCd=540&Type=search" }, "geometry": { "type": "Point", "coordinates": [ 138.311263522059562, 37.843209129620234 ] } },
{ "type": "Feature", "properties": { "内容": "特別養護老人ホーム真野の里二号館【地域密着型介護老人福祉施設入所者生活介護】新潟県佐渡市八幡1881番地1", "url2": "https://www.kaigokensaku.mhlw.go.jp/15/index.php?action_kouhyou_detail_004_kani=true&JigyosyoCd=1592200081-00&ServiceCd=540&Type=search" }, "geometry": { "type": "Point", "coordinates": [ 138.3425469, 37.9858973 ] } },
{ "type": "Feature", "properties": { "内容": "ユニット型地域密着型特別養護老人ホーム金泉ふれあいの杜【地域密着型介護老人福祉施設入所者生活介護】新潟県佐渡市北狄１５００番地２", "url2": "https://www.kaigokensaku.mhlw.go.jp/15/index.php?action_kouhyou_detail_004_kani=true&JigyosyoCd=1592200107-00&ServiceCd=540&Type=search" }, "geometry": { "type": "Point", "coordinates": [ 138.252257831385805, 38.092415569117648 ] } },
{ "type": "Feature", "properties": { "内容": "特別養護老人ホーム大浦の里二号館【地域密着型介護老人福祉施設入所者生活介護】新潟県佐渡市相川大浦1285番地3", "url2": "https://www.kaigokensaku.mhlw.go.jp/15/index.php?action_kouhyou_detail_004_kani=true&JigyosyoCd=1592200123-00&ServiceCd=540&Type=search" }, "geometry": { "type": "Point", "coordinates": [ 138.226666206249632, 38.015837152461437 ] } },
{ "type": "Feature", "properties": { "内容": "特別養護老人ホーム新穂愛宕の園弐号館【地域密着型介護老人福祉施設入所者生活介護】佐渡市新穂瓜生屋513番地1", "url2": "https://www.kaigokensaku.mhlw.go.jp/15/index.php?action_kouhyou_detail_004_kani=true&JigyosyoCd=1592200073-00&ServiceCd=540&Type=search" }, "geometry": { "type": "Point", "coordinates": [ 138.427625357672099, 38.017170136781182 ] } },
{ "type": "Feature", "properties": { "内容": "ミニ特養うしろやま【地域密着型介護老人福祉施設入所者生活介護】新潟県佐渡市宮川１０６２番地ケアセンターうしろやま", "url2": "https://www.kaigokensaku.mhlw.go.jp/15/index.php?action_kouhyou_detail_004_kani=true&JigyosyoCd=1592200149-00&ServiceCd=540&Type=search" }, "geometry": { "type": "Point", "coordinates": [ 138.379893128836073, 37.982219410696601 ] } },
{ "type": "Feature", "properties": { "内容": "地域密着型特別養護老人ホーム　ふれあいの郷ひめさゆり【地域密着型介護老人福祉施設入所者生活介護】新潟県魚沼市穴沢25番地", "url2": "https://www.kaigokensaku.mhlw.go.jp/15/index.php?action_kouhyou_detail_004_kani=true&JigyosyoCd=1592300212-00&ServiceCd=540&Type=search" }, "geometry": { "type": "Point", "coordinates": [ 139.066184635057056, 37.362658173942705 ] } },
{ "type": "Feature", "properties": { "内容": "魚沼市特別養護老人ホーム鮎の里【地域密着型介護老人福祉施設入所者生活介護】新潟県魚沼市堀之内４３２７番地１", "url2": "https://www.kaigokensaku.mhlw.go.jp/15/index.php?action_kouhyou_detail_004_kani=true&JigyosyoCd=1592300261-00&ServiceCd=540&Type=search" }, "geometry": { "type": "Point", "coordinates": [ 138.925878871163974, 37.245471673799798 ] } },
{ "type": "Feature", "properties": { "内容": "魚沼市特別養護老人ホーム鮎の里【地域密着型介護老人福祉施設入所者生活介護】新潟県魚沼市堀之内４３２７番地１", "url2": "https://www.kaigokensaku.mhlw.go.jp/15/index.php?action_kouhyou_detail_004_kani=true&JigyosyoCd=1592300279-00&ServiceCd=540&Type=search" }, "geometry": { "type": "Point", "coordinates": [ 138.9258896, 37.2454247 ] } },
{ "type": "Feature", "properties": { "内容": "特別養護老人ホーム百花園【地域密着型介護老人福祉施設入所者生活介護】新潟県南魚沼市関８５２番地", "url2": "https://www.kaigokensaku.mhlw.go.jp/15/index.php?action_kouhyou_detail_004_kani=true&JigyosyoCd=1592400194-00&ServiceCd=540&Type=search" }, "geometry": { "type": "Point", "coordinates": [ 138.811218936484494, 36.991622330956019 ] } },
{ "type": "Feature", "properties": { "内容": "健康倶楽部つどい【地域密着型介護老人福祉施設入所者生活介護】新潟県南魚沼市六日町１１４１番地１", "url2": "https://www.kaigokensaku.mhlw.go.jp/15/index.php?action_kouhyou_detail_004_kani=true&JigyosyoCd=1592400137-00&ServiceCd=540&Type=search" }, "geometry": { "type": "Point", "coordinates": [ 138.876337400000011, 37.0572283 ] } },
{ "type": "Feature", "properties": { "内容": "特別養護老人ホーム百花園【地域密着型介護老人福祉施設入所者生活介護】新潟県南魚沼市関852番地", "url2": "https://www.kaigokensaku.mhlw.go.jp/15/index.php?action_kouhyou_detail_004_kani=true&JigyosyoCd=1592400194-00&ServiceCd=540&Type=search" }, "geometry": { "type": "Point", "coordinates": [ 138.811066899999986, 36.9915468 ] } },
{ "type": "Feature", "properties": { "内容": "特別養護老人ホーム胎内まごころの里きのと【地域密着型介護老人福祉施設入所者生活介護】新潟県胎内市大出730番地1", "url2": "https://www.kaigokensaku.mhlw.go.jp/15/index.php?action_kouhyou_detail_004_kani=true&JigyosyoCd=1592500100-00&ServiceCd=540&Type=search" }, "geometry": { "type": "Point", "coordinates": [ 139.390774219960008, 38.103059953479722 ] } },
{ "type": "Feature", "properties": { "内容": "地域密着型特別養護老人ホーム　りんどう【地域密着型介護老人福祉施設入所者生活介護】新潟県胎内市1523番地", "url2": "https://www.kaigokensaku.mhlw.go.jp/15/index.php?action_kouhyou_detail_004_kani=true&JigyosyoCd=1592500092-00&ServiceCd=540&Type=search" }, "geometry": { "type": "Point", "coordinates": [ 139.446131532676645, 38.082400233647533 ] } },
{ "type": "Feature", "properties": { "内容": "特別養護老人ホーム　胎内まごころの里【地域密着型介護老人福祉施設入所者生活介護】新潟県胎内市築地3715番地3", "url2": "https://www.kaigokensaku.mhlw.go.jp/15/index.php?action_kouhyou_detail_004_kani=true&JigyosyoCd=1592500084-00&ServiceCd=540&Type=search" }, "geometry": { "type": "Point", "coordinates": [ 139.35865136322937, 38.063924552937159 ] } },
{ "type": "Feature", "properties": { "内容": "特別養護老人ホーム　桜井の里・絆【地域密着型介護老人福祉施設入所者生活介護】新潟県西蒲原郡弥彦村大字麓３０３６番地", "url2": "https://www.kaigokensaku.mhlw.go.jp/15/index.php?action_kouhyou_detail_004_kani=true&JigyosyoCd=1595200021-00&ServiceCd=540&Type=search" }, "geometry": { "type": "Point", "coordinates": [ 138.826521100000036, 37.6800632 ] } },
{ "type": "Feature", "properties": { "内容": "特別養護老人ホームかりんの里【地域密着型介護老人福祉施設入所者生活介護】新潟県中魚沼郡津南町大字芦ヶ崎乙329番地1特別養護老人ホームかりんの里", "url2": "https://www.kaigokensaku.mhlw.go.jp/15/index.php?action_kouhyou_detail_004_kani=true&JigyosyoCd=1595900083-00&ServiceCd=540&Type=search" }, "geometry": { "type": "Point", "coordinates": [ 138.634253418385384, 37.004399410569405 ] } },
{ "type": "Feature", "properties": { "内容": "ケアホーム恵福園なかつ【地域密着型介護老人福祉施設入所者生活介護】新潟県中魚沼郡津南町大字中深見甲5540番地", "url2": "https://www.kaigokensaku.mhlw.go.jp/15/index.php?action_kouhyou_detail_004_kani=true&JigyosyoCd=1595900042-00&ServiceCd=540&Type=search" }, "geometry": { "type": "Point", "coordinates": [ 138.6701018, 36.9910936 ] } },
{ "type": "Feature", "properties": { "内容": "恵福園ほくぶ【地域密着型介護老人福祉施設入所者生活介護】新潟県中魚沼郡津南町大字下船渡甲8119番地", "url2": "https://www.kaigokensaku.mhlw.go.jp/15/index.php?action_kouhyou_detail_004_kani=true&JigyosyoCd=1595900067-00&ServiceCd=540&Type=search" }, "geometry": { "type": "Point", "coordinates": [ 138.670489138067637, 37.03037619443181 ] } }
]
}
