{
"type": "FeatureCollection",
"name": "geo_15_各種学校",
"crs": { "type": "name", "properties": { "name": "urn:ogc:def:crs:EPSG::6668" } },
"features": [
{ "type": "Feature", "properties": { "P29_001": "15102", "P29_002": "H215310000016", "P29_003": "16015", "P29_004": "新潟朝鮮初中級学校", "P29_005": "新潟県新潟市東区空港西2-14-1", "P29_006": "4", "P29_007": "0", "P29_008": "00", "P29_009": null }, "geometry": { "type": "Point", "coordinates": [ 139.097923999809439, 37.948950738455871 ] } },
{ "type": "Feature", "properties": { "P29_001": "15103", "P29_002": "H215310000025", "P29_003": "16015", "P29_004": "新潟国際藝術学院", "P29_005": "新潟県新潟市中央区白山浦1-332-18", "P29_006": "4", "P29_007": "0", "P29_008": "00", "P29_009": null }, "geometry": { "type": "Point", "coordinates": [ 139.033325543446836, 37.916466538741631 ] } },
{ "type": "Feature", "properties": { "P29_001": "15202", "P29_002": "H215320200013", "P29_003": "16015", "P29_004": "エイシン長岡日本語学校", "P29_005": "新潟県長岡市今朝白1-10-5", "P29_006": "4", "P29_007": "0", "P29_008": "00", "P29_009": null }, "geometry": { "type": "Point", "coordinates": [ 138.857004558726544, 37.446108454125856 ] } },
{ "type": "Feature", "properties": { "P29_001": "15205", "P29_002": "H215320500010", "P29_003": "16015", "P29_004": "新潟聖書学院", "P29_005": "新潟県柏崎市鯨波乙568", "P29_006": "4", "P29_007": "0", "P29_008": "00", "P29_009": null }, "geometry": { "type": "Point", "coordinates": [ 138.50983822975823, 37.350721592415866 ] } },
{ "type": "Feature", "properties": { "P29_001": "15224", "P29_002": "H215322400017", "P29_003": "16015", "P29_004": "佐渡国際教育学院", "P29_005": "新潟県佐渡市吾潟1839-1", "P29_006": "4", "P29_007": "0", "P29_008": "00", "P29_009": null }, "geometry": { "type": "Point", "coordinates": [ 138.444166509644248, 38.04557244457088 ] } }
]
}
