{
"type": "FeatureCollection",
"name": "geo_15_地域密着型通所介護",
"crs": { "type": "name", "properties": { "name": "urn:ogc:def:crs:OGC:1.3:CRS84" } },
"features": [
{ "type": "Feature", "properties": { "内容": "まごころデイサービス松浜【地域密着型通所介護】新潟県新潟市北区神谷内５４番地２", "url": "https://www.kaigokensaku.mhlw.go.jp/15/index.php?action_kouhyou_detail_004_kani=true&JigyosyoCd=1570107811-00&ServiceCd=780&Type=search", "url2": null }, "geometry": { "type": "Point", "coordinates": [ 139.157862, 37.951878 ] } },
{ "type": "Feature", "properties": { "内容": "デイサービスあやめ【地域密着型通所介護】新潟県新潟市北区松浜７丁目３６４２番地３５", "url": "https://www.kaigokensaku.mhlw.go.jp/15/index.php?action_kouhyou_detail_004_kani=true&JigyosyoCd=1570110674-00&ServiceCd=780&Type=search", "url2": "http://dsayame.ko-me.com/" }, "geometry": { "type": "Point", "coordinates": [ 139.13854030007613, 37.9532024302734 ] } },
{ "type": "Feature", "properties": { "内容": "デイサービス桜の郷【地域密着型通所介護】新潟県新潟市北区松浜東町2-1-43", "url": "https://www.kaigokensaku.mhlw.go.jp/15/index.php?action_kouhyou_detail_004_kani=true&JigyosyoCd=1590101570-00&ServiceCd=780&Type=search", "url2": "http://sakurano-sato.com" }, "geometry": { "type": "Point", "coordinates": [ 139.155270500000029, 37.9525557 ] } },
{ "type": "Feature", "properties": { "内容": "リハデイなかじょう豊栄【地域密着型通所介護】新潟県新潟市北区石動１丁目１５番地６", "url": "https://www.kaigokensaku.mhlw.go.jp/15/index.php?action_kouhyou_detail_004_kani=true&JigyosyoCd=1570111821-00&ServiceCd=780&Type=search", "url2": "http://www.kaigo-nakajou.com/" }, "geometry": { "type": "Point", "coordinates": [ 139.213930299999987, 37.9211872 ] } },
{ "type": "Feature", "properties": { "内容": "アースサポート新潟北【地域密着型通所介護】新潟県新潟市北区東栄町2丁目1-39", "url": "https://www.kaigokensaku.mhlw.go.jp/15/index.php?action_kouhyou_detail_004_kani=true&JigyosyoCd=1590101646-00&ServiceCd=780&Type=search", "url2": "http://www.earthsupport.co.jp" }, "geometry": { "type": "Point", "coordinates": [ 139.223032399999965, 37.9147269 ] } },
{ "type": "Feature", "properties": { "内容": "デイサービス　もみじの家　松浜【地域密着型通所介護】新潟県新潟市北区松浜2丁目10番1", "url": "https://www.kaigokensaku.mhlw.go.jp/15/index.php?action_kouhyou_detail_004_kani=true&JigyosyoCd=1570112258-00&ServiceCd=780&Type=search", "url2": "http://momijino-ie.jimdofree.com/" }, "geometry": { "type": "Point", "coordinates": [ 139.141938900000014, 37.951665400000017 ] } },
{ "type": "Feature", "properties": { "内容": "デイサービスなかのやま百笑生【地域密着型通所介護】新潟県新潟市中野山５丁目１５番４１号", "url": "https://www.kaigokensaku.mhlw.go.jp/15/index.php?action_kouhyou_detail_004_kani=true&JigyosyoCd=1570107340-00&ServiceCd=780&Type=search", "url2": "http://care-create.com" }, "geometry": { "type": "Point", "coordinates": [ 139.104716459401374, 37.901294545368039 ] } },
{ "type": "Feature", "properties": { "内容": "まごころデイサービス木戸【地域密着型通所介護】新潟県新潟市東区上木戸４丁目７番１１号", "url": "https://www.kaigokensaku.mhlw.go.jp/15/index.php?action_kouhyou_detail_004_kani=true&JigyosyoCd=1570110476-00&ServiceCd=780&Type=search", "url2": null }, "geometry": { "type": "Point", "coordinates": [ 139.101613, 37.9185943 ] } },
{ "type": "Feature", "properties": { "内容": "デイサービスセンター　カナン寺山【地域密着型通所介護】新潟県新潟市東区寺山３丁目６番１１号", "url": "https://www.kaigokensaku.mhlw.go.jp/15/index.php?action_kouhyou_detail_004_kani=true&JigyosyoCd=1570110146-00&ServiceCd=780&Type=search", "url2": "http://canaan-nii.com/" }, "geometry": { "type": "Point", "coordinates": [ 139.1126451, 37.9228943 ] } },
{ "type": "Feature", "properties": { "内容": "リハプライド　きゃすと新潟東【地域密着型通所介護】新潟県新潟市東区有楽２丁目３番地２", "url": "https://www.kaigokensaku.mhlw.go.jp/15/index.php?action_kouhyou_detail_004_kani=true&JigyosyoCd=1570110021-00&ServiceCd=780&Type=search", "url2": "https://www.rehapride.co.jp/cast-niigatahigashi/" }, "geometry": { "type": "Point", "coordinates": [ 139.108086400000047, 37.9385983 ] } },
{ "type": "Feature", "properties": { "内容": "愛幸堂たかリハステーション　物見山店【地域密着型通所介護】新潟県新潟市東区物見山3丁目2番8号", "url": "https://www.kaigokensaku.mhlw.go.jp/15/index.php?action_kouhyou_detail_004_kani=true&JigyosyoCd=1570110781-00&ServiceCd=780&Type=search", "url2": "http://aikoudou-taka.com/" }, "geometry": { "type": "Point", "coordinates": [ -92.472691599999962, 33.5307514 ] } },
{ "type": "Feature", "properties": { "内容": "アースサポート新潟東【地域密着型通所介護】新潟県新潟市東区石山1丁目3番21号", "url": "https://www.kaigokensaku.mhlw.go.jp/15/index.php?action_kouhyou_detail_004_kani=true&JigyosyoCd=1590101505-00&ServiceCd=780&Type=search", "url2": "http://www.earthsupport.co.jp" }, "geometry": { "type": "Point", "coordinates": [ 139.091868200000022, 37.8970543 ] } },
{ "type": "Feature", "properties": { "内容": "赤道ケアセンターそよ風【地域密着型通所介護】新潟県新潟市東区牡丹山2-15-10", "url": "https://www.kaigokensaku.mhlw.go.jp/15/index.php?action_kouhyou_detail_004_kani=true&JigyosyoCd=1570106441-00&ServiceCd=780&Type=search", "url2": "https://www.sykz.co.jp" }, "geometry": { "type": "Point", "coordinates": [ 139.0920113, 37.9233957 ] } },
{ "type": "Feature", "properties": { "内容": "新潟リハビリテーション病院　アクティブデイなかやま【地域密着型通所介護】新潟県新潟市東区中山8丁目4番1号", "url": "https://www.kaigokensaku.mhlw.go.jp/15/index.php?action_kouhyou_detail_004_kani=true&JigyosyoCd=1570113058-00&ServiceCd=780&Type=search", "url2": "http://www.niigata-reha.jp/" }, "geometry": { "type": "Point", "coordinates": [ 139.087728700000071, 37.9131805 ] } },
{ "type": "Feature", "properties": { "内容": "デイサービスセンターほーるはーと【地域密着型通所介護】新潟県新潟市東区北葉町14番2号", "url": "https://www.kaigokensaku.mhlw.go.jp/15/index.php?action_kouhyou_detail_004_kani=true&JigyosyoCd=1570112662-00&ServiceCd=780&Type=search", "url2": null }, "geometry": { "type": "Point", "coordinates": [ 139.074311, 37.9389191 ] } },
{ "type": "Feature", "properties": { "内容": "ほーるはーと江南【地域密着型通所介護】新潟県新潟市東区江南1丁目1413番地11", "url": "https://www.kaigokensaku.mhlw.go.jp/15/index.php?action_kouhyou_detail_004_kani=true&JigyosyoCd=1590101661-00&ServiceCd=780&Type=search", "url2": null }, "geometry": { "type": "Point", "coordinates": [ 139.07851821045071, 37.902774028185597 ] } },
{ "type": "Feature", "properties": { "内容": "新潟リハビリテーション病院　アクティブデイぼたんやま【地域密着型通所介護】新潟県新潟市東区牡丹山４丁目８番５号", "url": "https://www.kaigokensaku.mhlw.go.jp/15/index.php?action_kouhyou_detail_004_kani=true&JigyosyoCd=1570111433-00&ServiceCd=780&Type=search", "url2": "http://www.niigata-reha.jp/" }, "geometry": { "type": "Point", "coordinates": [ 139.094271295106495, 37.921908577990195 ] } },
{ "type": "Feature", "properties": { "内容": "GENKINEXT新潟東【地域密着型通所介護】新潟県新潟市東区河渡１丁目1-35", "url": "https://www.kaigokensaku.mhlw.go.jp/15/index.php?action_kouhyou_detail_004_kani=true&JigyosyoCd=1570110799-00&ServiceCd=780&Type=search", "url2": "http://www.genki-next.com/" }, "geometry": { "type": "Point", "coordinates": [ 139.094709599999987, 37.93550650000001 ] } },
{ "type": "Feature", "properties": { "内容": "デイサービスつなぐ【地域密着型通所介護】新潟県新潟市東区中野山5-5-7", "url": "https://www.kaigokensaku.mhlw.go.jp/15/index.php?action_kouhyou_detail_004_kani=true&JigyosyoCd=1570113454-00&ServiceCd=780&Type=search", "url2": null }, "geometry": { "type": "Point", "coordinates": [ 139.103641700000054, 37.9015987 ] } },
{ "type": "Feature", "properties": { "内容": "デイサービスセンター章医館【地域密着型通所介護】新潟県新潟市東区中野山4丁目9番20号サービス付き高齢者向け住宅章医館", "url": "https://www.kaigokensaku.mhlw.go.jp/15/index.php?action_kouhyou_detail_004_kani=true&JigyosyoCd=1590102552-00&ServiceCd=780&Type=search", "url2": "https://shoikan.co.jp" }, "geometry": { "type": "Point", "coordinates": [ 139.1023925, 37.9027238 ] } },
{ "type": "Feature", "properties": { "内容": "イオンスマイル新潟東店【地域密着型通所介護】新潟県新潟市東区大形本町3-1-2イオン新潟東店　2階", "url": "https://www.kaigokensaku.mhlw.go.jp/15/index.php?action_kouhyou_detail_004_kani=true&JigyosyoCd=1590102560-00&ServiceCd=780&Type=search", "url2": "https://www.aeonretail.jp/aeonsmile/store/niigatahigasi/index.html" }, "geometry": { "type": "Point", "coordinates": [ 139.1146464, 37.9247756 ] } },
{ "type": "Feature", "properties": { "内容": "デイサービスセンター守庵良寛上木戸【地域密着型通所介護】新潟県新潟市東区上木戸３丁目３番２４号", "url": "https://www.kaigokensaku.mhlw.go.jp/15/index.php?action_kouhyou_detail_004_kani=true&JigyosyoCd=1590101596-00&ServiceCd=780&Type=search", "url2": "http://niigata-fukushi.com/" }, "geometry": { "type": "Point", "coordinates": [ 139.102393200000051, 37.9233356 ] } },
{ "type": "Feature", "properties": { "内容": "地域密着型通所介護デイサービスあおぞら【地域密着型通所介護】新潟県新潟市中央区堀之内南1丁目３２番４号", "url": "https://www.kaigokensaku.mhlw.go.jp/15/index.php?action_kouhyou_detail_004_kani=true&JigyosyoCd=1570111540-00&ServiceCd=780&Type=search", "url2": "http://www.d-aozora.jp" }, "geometry": { "type": "Point", "coordinates": [ 139.049676299999987, 37.9037163 ] } },
{ "type": "Feature", "properties": { "内容": "デイサービスセンター赤とんぼ【地域密着型通所介護】新潟県新潟市中央区堀之内２番地", "url": "https://www.kaigokensaku.mhlw.go.jp/15/index.php?action_kouhyou_detail_004_kani=true&JigyosyoCd=1570102499-00&ServiceCd=780&Type=search", "url2": "http://tonbo-club.com" }, "geometry": { "type": "Point", "coordinates": [ 139.045882, 37.904282800000026 ] } },
{ "type": "Feature", "properties": { "内容": "文京町デイサービスセンター【地域密着型通所介護】新潟県新潟市中央区文京町27番30号", "url": "https://www.kaigokensaku.mhlw.go.jp/15/index.php?action_kouhyou_detail_004_kani=true&JigyosyoCd=1570109510-00&ServiceCd=780&Type=search", "url2": "http://n-nhn.com/" }, "geometry": { "type": "Point", "coordinates": [ 139.008475, 37.9089339 ] } },
{ "type": "Feature", "properties": { "内容": "デイサービスセンターひなたや【地域密着型通所介護】新潟県新潟市中央区上大川前通11番町1877番2", "url": "https://www.kaigokensaku.mhlw.go.jp/15/index.php?action_kouhyou_detail_004_kani=true&JigyosyoCd=1570112217-00&ServiceCd=780&Type=search", "url2": "http://www.maj.co.jp/" }, "geometry": { "type": "Point", "coordinates": [ 139.048694500000011, 37.9274608 ] } },
{ "type": "Feature", "properties": { "内容": "デイサービスセンターつばさフィット【地域密着型通所介護】新潟県新潟市中央区関屋田町1-6-2ＭＤビル２階", "url": "https://www.kaigokensaku.mhlw.go.jp/15/index.php?action_kouhyou_detail_004_kani=true&JigyosyoCd=1570113561-00&ServiceCd=780&Type=search", "url2": "http://www.maj.co.jp/" }, "geometry": { "type": "Point", "coordinates": [ 139.025874499999986, 37.9151145 ] } },
{ "type": "Feature", "properties": { "内容": "ウイングみなとデイサービスセンター【地域密着型通所介護】新潟県新潟市中央区湊町通4ノ町3369番地2", "url": "https://www.kaigokensaku.mhlw.go.jp/15/index.php?action_kouhyou_detail_004_kani=true&JigyosyoCd=1590101554-00&ServiceCd=780&Type=search", "url2": "http://www.maj.co.jp" }, "geometry": { "type": "Point", "coordinates": [ 139.055724300000094, 37.9293995 ] } },
{ "type": "Feature", "properties": { "内容": "ウイング姥ヶ山デイサービスセンター【地域密着型通所介護】新潟県新潟市中央区姥ヶ山１丁目３－６", "url": "https://www.kaigokensaku.mhlw.go.jp/15/index.php?action_kouhyou_detail_004_kani=true&JigyosyoCd=1590101562-00&ServiceCd=780&Type=search", "url2": "http://www.maj.co.jp" }, "geometry": { "type": "Point", "coordinates": [ 139.072558699999973, 37.8881158 ] } },
{ "type": "Feature", "properties": { "内容": "ＧＥＮＫＩ　ＮＥＸＴ　新潟堀之内【地域密着型通所介護】新潟県新潟市中央区堀之内南1丁目20番11号", "url": "https://www.kaigokensaku.mhlw.go.jp/15/index.php?action_kouhyou_detail_004_kani=true&JigyosyoCd=1570111672-00&ServiceCd=780&Type=search", "url2": "http://www.genki-next.com/" }, "geometry": { "type": "Point", "coordinates": [ 139.051806700000043, 37.9026859 ] } },
{ "type": "Feature", "properties": { "内容": "ＧＥＮＫＩ　ＮＥＸＴ新潟信濃町【地域密着型通所介護】新潟県新潟市中央区信濃町７番25号", "url": "https://www.kaigokensaku.mhlw.go.jp/15/index.php?action_kouhyou_detail_004_kani=true&JigyosyoCd=1570112746-00&ServiceCd=780&Type=search", "url2": null }, "geometry": { "type": "Point", "coordinates": [ 139.01250349999998, 37.9074252 ] } },
{ "type": "Feature", "properties": { "内容": "リハデイ　いやしライフ【地域密着型通所介護】新潟県新潟市中央区鐙西1丁目15番9号", "url": "https://www.kaigokensaku.mhlw.go.jp/15/index.php?action_kouhyou_detail_004_kani=true&JigyosyoCd=1570113165-00&ServiceCd=780&Type=search", "url2": "http://www.iyashilife.com/" }, "geometry": { "type": "Point", "coordinates": [ 139.062786499999987, 37.904586 ] } },
{ "type": "Feature", "properties": { "内容": "勇樹会日の出デイサービス【地域密着型通所介護】新潟県新潟市中央区日の出1丁目14番８号", "url": "https://www.kaigokensaku.mhlw.go.jp/15/index.php?action_kouhyou_detail_004_kani=true&JigyosyoCd=1570108967-00&ServiceCd=780&Type=search", "url2": "http://yuukikai.com/" }, "geometry": { "type": "Point", "coordinates": [ 139.072220900000019, 37.9193181 ] } },
{ "type": "Feature", "properties": { "内容": "ALPHAS脳活カレッジ【地域密着型通所介護】新潟県新潟市中央区小張木3丁目9番79号", "url": "https://www.kaigokensaku.mhlw.go.jp/15/index.php?action_kouhyou_detail_004_kani=true&JigyosyoCd=1570110906-00&ServiceCd=780&Type=search", "url2": "http://www.nmi-net.com/creamedicaux/" }, "geometry": { "type": "Point", "coordinates": [ 139.042879896958993, 37.885574570459113 ] } },
{ "type": "Feature", "properties": { "内容": "さわやかみなと館デイサービスセンター【地域密着型通所介護】新潟県新潟市中央区古町通十三番町５１５５番地３", "url": "https://www.kaigokensaku.mhlw.go.jp/15/index.php?action_kouhyou_detail_004_kani=true&JigyosyoCd=1570111292-00&ServiceCd=780&Type=search", "url2": "http://www.sawayakaclub.jp/" }, "geometry": { "type": "Point", "coordinates": [ 139.044083600000022, 37.9308576 ] } },
{ "type": "Feature", "properties": { "内容": "機能訓練型デイサービス　STEP019【地域密着型通所介護】新潟県新潟市中央区寄居町704-3", "url": "https://www.kaigokensaku.mhlw.go.jp/15/index.php?action_kouhyou_detail_004_kani=true&JigyosyoCd=1590102545-00&ServiceCd=780&Type=search", "url2": "https://nishiniigata-watto.wixsite.com/step019" }, "geometry": { "type": "Point", "coordinates": [ 139.039727917196643, 37.922222261160805 ] } },
{ "type": "Feature", "properties": { "内容": "レコードブック新潟駅南口【地域密着型通所介護】新潟県新潟市中央区笹口１番１０号北都ビル１０１号室", "url": "https://www.kaigokensaku.mhlw.go.jp/15/index.php?action_kouhyou_detail_004_kani=true&JigyosyoCd=1590101810-00&ServiceCd=780&Type=search", "url2": "http://www.recordbook.jp/" }, "geometry": { "type": "Point", "coordinates": [ 139.068754035514303, 37.910630658542964 ] } },
{ "type": "Feature", "properties": { "内容": "樹楽団らんの家関屋【地域密着型通所介護】新潟県新潟市中央区関屋大川前1-10-8", "url": "https://www.kaigokensaku.mhlw.go.jp/15/index.php?action_kouhyou_detail_004_kani=true&JigyosyoCd=1590102149-00&ServiceCd=780&Type=search", "url2": null }, "geometry": { "type": "Point", "coordinates": [ 139.0147835, 37.9023542 ] } },
{ "type": "Feature", "properties": { "内容": "なかじょうデイサービスセンター西山【地域密着型通所介護】新潟県新潟市江南区西山５７８番地1", "url": "https://www.kaigokensaku.mhlw.go.jp/15/index.php?action_kouhyou_detail_004_kani=true&JigyosyoCd=1570102416-00&ServiceCd=780&Type=search", "url2": "http://www.kaigo-nakajou.com/" }, "geometry": { "type": "Point", "coordinates": [ 139.136378716567606, 37.885514636674998 ] } },
{ "type": "Feature", "properties": { "内容": "デイホームひまわり【地域密着型通所介護】新潟県新潟市江南区城山４丁目２番３４号", "url": "https://www.kaigokensaku.mhlw.go.jp/15/index.php?action_kouhyou_detail_004_kani=true&JigyosyoCd=1570103844-00&ServiceCd=780&Type=search", "url2": "https://himawari.homes/" }, "geometry": { "type": "Point", "coordinates": [ 139.113548, 37.8611065 ] } },
{ "type": "Feature", "properties": { "内容": "デイサービスセンター　リーベ　天野【地域密着型通所介護】新潟県新潟市江南区天野２丁目１２番２２号", "url": "https://www.kaigokensaku.mhlw.go.jp/15/index.php?action_kouhyou_detail_004_kani=true&JigyosyoCd=1570109411-00&ServiceCd=780&Type=search", "url2": "https://www.care-umbrella.com" }, "geometry": { "type": "Point", "coordinates": [ 139.033382399999937, 37.855194200000014 ] } },
{ "type": "Feature", "properties": { "内容": "やすらぎの家つくし【地域密着型通所介護】新潟県新潟市江南区北山１４８５番地１", "url": "https://www.kaigokensaku.mhlw.go.jp/15/index.php?action_kouhyou_detail_004_kani=true&JigyosyoCd=1570113272-00&ServiceCd=780&Type=search", "url2": "https://www.instagram.com/sangurie294" }, "geometry": { "type": "Point", "coordinates": [ 139.117078906607048, 37.875967908465945 ] } },
{ "type": "Feature", "properties": { "内容": "リハステーションてんじん【地域密着型通所介護】新潟県新潟市秋葉区古田1丁目6番41号", "url": "https://www.kaigokensaku.mhlw.go.jp/15/index.php?action_kouhyou_detail_004_kani=true&JigyosyoCd=1570111623-00&ServiceCd=780&Type=search", "url2": null }, "geometry": { "type": "Point", "coordinates": [ 139.1112898, 37.7946275 ] } },
{ "type": "Feature", "properties": { "内容": "デイサービスセンターすずらん【地域密着型通所介護】新潟県新潟市秋葉区中野５丁目２番２７号", "url": "https://www.kaigokensaku.mhlw.go.jp/15/index.php?action_kouhyou_detail_004_kani=true&JigyosyoCd=1570109072-00&ServiceCd=780&Type=search", "url2": "http://www.s-suzuran.com" }, "geometry": { "type": "Point", "coordinates": [ 139.10573009999996, 37.8328597 ] } },
{ "type": "Feature", "properties": { "内容": "デイサービスひょうたん島【地域密着型通所介護】新潟県新潟市秋葉区柄目木352番地", "url": "https://www.kaigokensaku.mhlw.go.jp/15/index.php?action_kouhyou_detail_004_kani=true&JigyosyoCd=1570110690-00&ServiceCd=780&Type=search", "url2": "http://www.yu-seikai.net/index.php" }, "geometry": { "type": "Point", "coordinates": [ 139.145902484655693, 37.790385557507122 ] } },
{ "type": "Feature", "properties": { "内容": "デイサービスセンターすずらん車場【地域密着型通所介護】新潟県新潟市秋葉区車場1丁目7番14号", "url": "https://www.kaigokensaku.mhlw.go.jp/15/index.php?action_kouhyou_detail_004_kani=true&JigyosyoCd=1570112266-00&ServiceCd=780&Type=search", "url2": null }, "geometry": { "type": "Point", "coordinates": [ 139.111246100000017, 37.8389509 ] } },
{ "type": "Feature", "properties": { "内容": "デイサービスセンターすずらん川口弐号館【地域密着型通所介護】新潟県新潟市秋葉区川口143番地10", "url": "https://www.kaigokensaku.mhlw.go.jp/15/index.php?action_kouhyou_detail_004_kani=true&JigyosyoCd=1590102065-00&ServiceCd=780&Type=search", "url2": "https://s-suzuran.com/" }, "geometry": { "type": "Point", "coordinates": [ 139.117345303565969, 37.817674657645526 ] } },
{ "type": "Feature", "properties": { "内容": "ディサービスセンターすずらん川口【地域密着型通所介護】新潟県新潟市秋葉区川口１６９番地１", "url": "https://www.kaigokensaku.mhlw.go.jp/15/index.php?action_kouhyou_detail_004_kani=true&JigyosyoCd=1570110450-00&ServiceCd=780&Type=search", "url2": null }, "geometry": { "type": "Point", "coordinates": [ 139.1176077, 37.8176531 ] } },
{ "type": "Feature", "properties": { "内容": "機能訓練デイサービス希望の丘【地域密着型通所介護】新潟県新潟市秋葉区小須戸19番地５", "url": "https://www.kaigokensaku.mhlw.go.jp/15/index.php?action_kouhyou_detail_004_kani=true&JigyosyoCd=1570109577-00&ServiceCd=780&Type=search", "url2": "http://hn-gr.jp" }, "geometry": { "type": "Point", "coordinates": [ 139.068803699999989, 37.7543076 ] } },
{ "type": "Feature", "properties": { "内容": "ウェルケア新津デイサービスセンター下興野【地域密着型通所介護】新潟県新潟市秋葉区下興野町3番1号", "url": "https://www.kaigokensaku.mhlw.go.jp/15/index.php?action_kouhyou_detail_004_kani=true&JigyosyoCd=1570107357-00&ServiceCd=780&Type=search", "url2": "http://www.wellcare.jp/" }, "geometry": { "type": "Point", "coordinates": [ 139.1249339, 37.805605900000025 ] } },
{ "type": "Feature", "properties": { "内容": "デイサービス希望の陽　秋葉【地域密着型通所介護】新潟県新潟市秋葉区新津本町４丁目６－２４", "url": "https://www.kaigokensaku.mhlw.go.jp/15/index.php?action_kouhyou_detail_004_kani=true&JigyosyoCd=1590102354-00&ServiceCd=780&Type=search", "url2": null }, "geometry": { "type": "Point", "coordinates": [ 139.12569346375426, 37.795107687987603 ] } },
{ "type": "Feature", "properties": { "内容": "健幸デイなろて場【地域密着型通所介護】新潟県新潟市秋葉区美幸町3丁目18番26号", "url": "https://www.kaigokensaku.mhlw.go.jp/15/index.php?action_kouhyou_detail_004_kani=true&JigyosyoCd=1570112944-00&ServiceCd=780&Type=search", "url2": "https://www.syoukou.me" }, "geometry": { "type": "Point", "coordinates": [ 139.113091532016057, 37.803850070065664 ] } },
{ "type": "Feature", "properties": { "内容": "ウェルケア新津デイサービスセンター美幸町【地域密着型通所介護】新潟県新潟市秋葉区美幸町1丁目3番2号", "url": "https://www.kaigokensaku.mhlw.go.jp/15/index.php?action_kouhyou_detail_004_kani=true&JigyosyoCd=1570109098-00&ServiceCd=780&Type=search", "url2": "http:www.wellcare.jp" }, "geometry": { "type": "Point", "coordinates": [ 139.1178011, 37.7997512 ] } },
{ "type": "Feature", "properties": { "内容": "デイサービスてまり歌【地域密着型通所介護】新潟県新潟市秋葉区滝谷町４番２６号", "url": "https://www.kaigokensaku.mhlw.go.jp/15/index.php?action_kouhyou_detail_004_kani=true&JigyosyoCd=1590102339-00&ServiceCd=780&Type=search", "url2": null }, "geometry": { "type": "Point", "coordinates": [ 139.143939, 37.788130699999982 ] } },
{ "type": "Feature", "properties": { "内容": "アレック北栄東金沢【地域密着型通所介護】新潟県新潟市秋葉区東金沢1690番地1", "url": "https://www.kaigokensaku.mhlw.go.jp/15/index.php?action_kouhyou_detail_004_kani=true&JigyosyoCd=1590101653-00&ServiceCd=780&Type=search", "url2": "http://www.alec-hokuei.co.jp" }, "geometry": { "type": "Point", "coordinates": [ 139.143739699999969, 37.8023969 ] } },
{ "type": "Feature", "properties": { "内容": "Re:Step小須戸【地域密着型通所介護】新潟県新潟市秋葉区横川浜546-5", "url": "https://www.kaigokensaku.mhlw.go.jp/15/index.php?action_kouhyou_detail_004_kani=true&JigyosyoCd=1590102230-00&ServiceCd=780&Type=search", "url2": "https://nextcareservice.com/restep/" }, "geometry": { "type": "Point", "coordinates": [ 139.0734118, 37.7519808 ] } },
{ "type": "Feature", "properties": { "内容": "デイサービスセンター十季のあかり白根【地域密着型通所介護】新潟県新潟市南区下塩俵855番地1", "url": "https://www.kaigokensaku.mhlw.go.jp/15/index.php?action_kouhyou_detail_004_kani=true&JigyosyoCd=1570111656-00&ServiceCd=780&Type=search", "url2": "http://careswitch.jp" }, "geometry": { "type": "Point", "coordinates": [ 139.017733270530698, 37.840296323167074 ] } },
{ "type": "Feature", "properties": { "内容": "デイサービスセンターてくてく白根【地域密着型通所介護】新潟県新潟市南区白根1219番地2", "url": "https://www.kaigokensaku.mhlw.go.jp/15/index.php?action_kouhyou_detail_004_kani=true&JigyosyoCd=1590101893-00&ServiceCd=780&Type=search", "url2": null }, "geometry": { "type": "Point", "coordinates": [ 139.018664199999989, 37.7645152 ] } },
{ "type": "Feature", "properties": { "内容": "茶話本舗デイサービス青山百笑生【地域密着型通所介護】新潟県新潟市西区青山5丁目10番43号", "url": "https://www.kaigokensaku.mhlw.go.jp/15/index.php?action_kouhyou_detail_004_kani=true&JigyosyoCd=1570108355-00&ServiceCd=780&Type=search", "url2": "http://care-create.com" }, "geometry": { "type": "Point", "coordinates": [ 138.997386, 37.8987876 ] } },
{ "type": "Feature", "properties": { "内容": "茶話本舗デイサービス大学前百笑生【地域密着型通所介護】新潟県新潟市西区大学南2丁目11番11号", "url": "https://www.kaigokensaku.mhlw.go.jp/15/index.php?action_kouhyou_detail_004_kani=true&JigyosyoCd=1570112282-00&ServiceCd=780&Type=search", "url2": "http://care-create.com" }, "geometry": { "type": "Point", "coordinates": [ 138.9436885, 37.8636756 ] } },
{ "type": "Feature", "properties": { "内容": "青山デイサービスセンター【地域密着型通所介護】新潟県新潟市西区青山1-7-27ナーシングホーム新潟青山館", "url": "https://www.kaigokensaku.mhlw.go.jp/15/index.php?action_kouhyou_detail_004_kani=true&JigyosyoCd=1590101695-00&ServiceCd=780&Type=search", "url2": "http://n-nhn.com/" }, "geometry": { "type": "Point", "coordinates": [ 139.000271699999985, 37.8938234 ] } },
{ "type": "Feature", "properties": { "内容": "デイサービスセンター春日和四ツ郷屋【地域密着型通所介護】新潟県新潟市西区四ツ郷屋1538番地13", "url": "https://www.kaigokensaku.mhlw.go.jp/15/index.php?action_kouhyou_detail_004_kani=true&JigyosyoCd=1570110484-00&ServiceCd=780&Type=search", "url2": "http://www.worldstay.jp/" }, "geometry": { "type": "Point", "coordinates": [ -8.24389, 53.41291 ] } },
{ "type": "Feature", "properties": { "内容": "フィットネスデイaigo新潟青山店【地域密着型通所介護】新潟県新潟市西区青山8丁目2番32号", "url": "https://www.kaigokensaku.mhlw.go.jp/15/index.php?action_kouhyou_detail_004_kani=true&JigyosyoCd=1570108686-00&ServiceCd=780&Type=search", "url2": "http://aigo-care.com" }, "geometry": { "type": "Point", "coordinates": [ 138.995227900000032, 37.8984959 ] } },
{ "type": "Feature", "properties": { "内容": "リハデイaigo黒埼【地域密着型通所介護】新潟県新潟市西区大野町2864番地1", "url": "https://www.kaigokensaku.mhlw.go.jp/15/index.php?action_kouhyou_detail_004_kani=true&JigyosyoCd=1570109486-00&ServiceCd=780&Type=search", "url2": "http://www.aigo-care.com/" }, "geometry": { "type": "Point", "coordinates": [ 139.017280743537782, 37.847677929465291 ] } },
{ "type": "Feature", "properties": { "内容": "アースサポート新潟西【地域密着型通所介護】新潟県新潟市西区坂井831-3", "url": "https://www.kaigokensaku.mhlw.go.jp/15/index.php?action_kouhyou_detail_004_kani=true&JigyosyoCd=1570113405-00&ServiceCd=780&Type=search", "url2": "https://www.earthsupport.co.jp/" }, "geometry": { "type": "Point", "coordinates": [ 138.9567395, 37.8670778 ] } },
{ "type": "Feature", "properties": { "内容": "ホームケアセンター縁【地域密着型通所介護】新潟県新潟市西区坂井砂山２丁目１０番４号", "url": "https://www.kaigokensaku.mhlw.go.jp/15/index.php?action_kouhyou_detail_004_kani=true&JigyosyoCd=1570111714-00&ServiceCd=780&Type=search", "url2": "http://en.niigata-kaigo.jp/" }, "geometry": { "type": "Point", "coordinates": [ 138.960480500000017, 37.872525 ] } },
{ "type": "Feature", "properties": { "内容": "GENKINEXT新潟西【地域密着型通所介護】新潟県新潟市西区西小針台1丁目10番6号", "url": "https://www.kaigokensaku.mhlw.go.jp/15/index.php?action_kouhyou_detail_004_kani=true&JigyosyoCd=1570110807-00&ServiceCd=780&Type=search", "url2": null }, "geometry": { "type": "Point", "coordinates": [ 138.98097180000002, 37.8845971 ] } },
{ "type": "Feature", "properties": { "内容": "ゆったりでい　家宝【地域密着型通所介護】新潟県新潟市西区新通2192番地1", "url": "https://www.kaigokensaku.mhlw.go.jp/15/index.php?action_kouhyou_detail_004_kani=true&JigyosyoCd=1570111037-00&ServiceCd=780&Type=search", "url2": null }, "geometry": { "type": "Point", "coordinates": [ 138.957218199999943, 37.859654 ] } },
{ "type": "Feature", "properties": { "内容": "ウェルネスｄａｙ松海が丘【地域密着型通所介護】新潟県新潟市西区松海が丘2-24-25", "url": "https://www.kaigokensaku.mhlw.go.jp/15/index.php?action_kouhyou_detail_004_kani=true&JigyosyoCd=1590101620-00&ServiceCd=780&Type=search", "url2": "https://www.facebook.com/ウェルネスｄａｙ松海が丘-727517504125491/" }, "geometry": { "type": "Point", "coordinates": [ 138.973014608598305, 37.88741807125929 ] } },
{ "type": "Feature", "properties": { "内容": "リハデイサービス颯　浦山【地域密着型通所介護】新潟県新潟市西区浦山1-1-10リバーサイド青山　１F", "url": "https://www.kaigokensaku.mhlw.go.jp/15/index.php?action_kouhyou_detail_004_kani=true&JigyosyoCd=1570113173-00&ServiceCd=780&Type=search", "url2": "http://www.cdp-niigata.co.jp" }, "geometry": { "type": "Point", "coordinates": [ 139.005915126983609, 37.900574421376461 ] } },
{ "type": "Feature", "properties": { "内容": "はあとふるあたごデイサービスセンター浦山【地域密着型通所介護】新潟県新潟市西区浦山2丁目1番66号サンシャイン青山１階", "url": "https://www.kaigokensaku.mhlw.go.jp/15/index.php?action_kouhyou_detail_004_kani=true&JigyosyoCd=1590101786-00&ServiceCd=780&Type=search", "url2": "http//heartfull.jp/" }, "geometry": { "type": "Point", "coordinates": [ 139.0059393, 37.901362399999989 ] } },
{ "type": "Feature", "properties": { "内容": "えんでこ【地域密着型通所介護】新潟県新潟市西区内野上新町11810-５", "url": "https://www.kaigokensaku.mhlw.go.jp/15/index.php?action_kouhyou_detail_004_kani=true&JigyosyoCd=1590101885-00&ServiceCd=780&Type=search", "url2": "http://niigata-min.or.jp/yuubae/" }, "geometry": { "type": "Point", "coordinates": [ 138.913154, 37.849652 ] } },
{ "type": "Feature", "properties": { "内容": "デイサービスつむぎ【地域密着型通所介護】新潟県新潟市西区五十嵐一の町6861番地23", "url": "https://www.kaigokensaku.mhlw.go.jp/15/index.php?action_kouhyou_detail_004_kani=true&JigyosyoCd=1590102362-00&ServiceCd=780&Type=search", "url2": null }, "geometry": { "type": "Point", "coordinates": [ 138.94834560000001, 37.8703175 ] } },
{ "type": "Feature", "properties": { "内容": "イオンスマイル新潟西店【地域密着型通所介護】新潟県新潟市西区小新南2-1-10イオン新潟西店1階", "url": "https://www.kaigokensaku.mhlw.go.jp/15/index.php?action_kouhyou_detail_004_kani=true&JigyosyoCd=1590102578-00&ServiceCd=780&Type=search", "url2": "https://www.aeonretail.jp/aeonsmile/store/niigatanisi/index.html" }, "geometry": { "type": "Point", "coordinates": [ 138.994928499999986, 37.8698854 ] } },
{ "type": "Feature", "properties": { "内容": "すずらんぽかぽかはーと【地域密着型通所介護】新潟県新潟市西区平島1丁目7番地2山口ビル１階", "url": "https://www.kaigokensaku.mhlw.go.jp/15/index.php?action_kouhyou_detail_004_kani=true&JigyosyoCd=1590101513-00&ServiceCd=780&Type=search", "url2": null }, "geometry": { "type": "Point", "coordinates": [ 139.005848, 37.8921464 ] } },
{ "type": "Feature", "properties": { "内容": "デイサービス　もみじの家　西小針台【地域密着型通所介護】新潟県新潟市西区西小針台2丁目9番7号", "url": "https://www.kaigokensaku.mhlw.go.jp/15/index.php?action_kouhyou_detail_004_kani=true&JigyosyoCd=1590102321-00&ServiceCd=780&Type=search", "url2": "http://momijino-ie.jimdofree.com/" }, "geometry": { "type": "Point", "coordinates": [ 138.9797206, 37.8847549 ] } },
{ "type": "Feature", "properties": { "内容": "デイサービス　内野リハ道場【地域密着型通所介護】新潟県新潟市西区五十嵐中島5丁目16番8号", "url": "https://www.kaigokensaku.mhlw.go.jp/15/index.php?action_kouhyou_detail_004_kani=true&JigyosyoCd=1570111706-00&ServiceCd=780&Type=search", "url2": "http://www.rihadoujou.net/" }, "geometry": { "type": "Point", "coordinates": [ 138.913606800000025, 37.8491298 ] } },
{ "type": "Feature", "properties": { "内容": "デイサービス　わのう庭【地域密着型通所介護】新潟県新潟市西蒲区和納1－3－13", "url": "https://www.kaigokensaku.mhlw.go.jp/15/index.php?action_kouhyou_detail_004_kani=true&JigyosyoCd=1590101901-00&ServiceCd=780&Type=search", "url2": null }, "geometry": { "type": "Point", "coordinates": [ 138.87714410000001, 37.7230752 ] } },
{ "type": "Feature", "properties": { "内容": "デイサービスセンター巻愛宕の園【地域密着型通所介護】新潟県新潟市西蒲区巻甲2678番地1", "url": "https://www.kaigokensaku.mhlw.go.jp/15/index.php?action_kouhyou_detail_004_kani=true&JigyosyoCd=1570110328-00&ServiceCd=780&Type=search", "url2": "http://www.atago.or.jp" }, "geometry": { "type": "Point", "coordinates": [ 138.889254640252659, 37.759946236237433 ] } },
{ "type": "Feature", "properties": { "内容": "デイサービスセンターさくらんぼ【地域密着型通所介護】新潟県新潟市西蒲区油島285番地", "url": "https://www.kaigokensaku.mhlw.go.jp/15/index.php?action_kouhyou_detail_004_kani=true&JigyosyoCd=1570110203-00&ServiceCd=780&Type=search", "url2": "http://sakuranbonokaze.com/" }, "geometry": { "type": "Point", "coordinates": [ 138.863573200000019, 37.7441096 ] } },
{ "type": "Feature", "properties": { "内容": "デイサービスセンター優友【地域密着型通所介護】新潟県新潟市西蒲区熊谷１０５３番地１", "url": "https://www.kaigokensaku.mhlw.go.jp/15/index.php?action_kouhyou_detail_004_kani=true&JigyosyoCd=1570106672-00&ServiceCd=780&Type=search", "url2": "http://www.care-yuyu.or.jp" }, "geometry": { "type": "Point", "coordinates": [ 138.971993800000092, 37.769495700000014 ] } },
{ "type": "Feature", "properties": { "内容": "リハ・ホームこもれび【地域密着型通所介護】新潟県新潟市西蒲区升潟773番地1", "url": "https://www.kaigokensaku.mhlw.go.jp/15/index.php?action_kouhyou_detail_004_kani=true&JigyosyoCd=1570112696-00&ServiceCd=780&Type=search", "url2": null }, "geometry": { "type": "Point", "coordinates": [ 138.936921, 37.8098071 ] } },
{ "type": "Feature", "properties": { "内容": "り・ぷらすDay【地域密着型通所介護】新潟県新潟市西蒲区越前浜5151番地", "url": "https://www.kaigokensaku.mhlw.go.jp/15/index.php?action_kouhyou_detail_004_kani=true&JigyosyoCd=1570113025-00&ServiceCd=780&Type=search", "url2": "http://ho-juen.co.jp" }, "geometry": { "type": "Point", "coordinates": [ 138.848581435859643, 37.804980516917041 ] } },
{ "type": "Feature", "properties": { "内容": "デイサービス　おもしろ荘【地域密着型通所介護】長岡市北荷頃34番地2", "url": "https://www.kaigokensaku.mhlw.go.jp/15/index.php?action_kouhyou_detail_004_kani=true&JigyosyoCd=1570203149-00&ServiceCd=780&Type=search", "url2": "http://www.okuetsu-buhin.co.jp/care/" }, "geometry": { "type": "Point", "coordinates": [ 138.984398899999974, 37.4605044 ] } },
{ "type": "Feature", "properties": { "内容": "老人デイサービスセンターこしじ【地域密着型通所介護】新潟県長岡市浦３０６０番地", "url": "https://www.kaigokensaku.mhlw.go.jp/15/index.php?action_kouhyou_detail_004_kani=true&JigyosyoCd=1570201531-00&ServiceCd=780&Type=search", "url2": "https://warabien.jp" }, "geometry": { "type": "Point", "coordinates": [ 138.804131899999987, 37.3886346 ] } },
{ "type": "Feature", "properties": { "内容": "老人デイサービスセンターらいこうじ【地域密着型通所介護】新潟県長岡市来迎寺甲２６０７－２", "url": "https://www.kaigokensaku.mhlw.go.jp/15/index.php?action_kouhyou_detail_004_kani=true&JigyosyoCd=1570201523-00&ServiceCd=780&Type=search", "url2": "https://warabien.jp" }, "geometry": { "type": "Point", "coordinates": [ 138.781872900000053, 37.395375 ] } },
{ "type": "Feature", "properties": { "内容": "デイサービスセンターみのり【地域密着型通所介護】長岡市飯塚2836", "url": "https://www.kaigokensaku.mhlw.go.jp/15/index.php?action_kouhyou_detail_004_kani=true&JigyosyoCd=1570203214-00&ServiceCd=780&Type=search", "url2": "https://info03920.wixsite.com/koshiji" }, "geometry": { "type": "Point", "coordinates": [ 138.749213586685983, 37.384848088315074 ] } },
{ "type": "Feature", "properties": { "内容": "長岡市デイサービスセンターなごみ苑【地域密着型通所介護】長岡市山古志虫亀２１９番地２長岡市デイサービスセンターなごみ苑", "url": "https://www.kaigokensaku.mhlw.go.jp/15/index.php?action_kouhyou_detail_004_kani=true&JigyosyoCd=1570202471-00&ServiceCd=780&Type=search", "url2": "http://www.nagaoka-shakyo.or.jp/" }, "geometry": { "type": "Point", "coordinates": [ 138.892057300000033, 37.3359731 ] } },
{ "type": "Feature", "properties": { "内容": "桃李園デイハウス与板【地域密着型通所介護】長岡市与板町与板甲34番地", "url": "https://www.kaigokensaku.mhlw.go.jp/15/index.php?action_kouhyou_detail_004_kani=true&JigyosyoCd=1570202638-00&ServiceCd=780&Type=search", "url2": "http://www.tourien.jp/" }, "geometry": { "type": "Point", "coordinates": [ 138.810027399999967, 37.5398778 ] } },
{ "type": "Feature", "properties": { "内容": "デイサービスセンター川崎東【地域密着型通所介護】長岡市川崎町563番地1", "url": "https://www.kaigokensaku.mhlw.go.jp/15/index.php?action_kouhyou_detail_004_kani=true&JigyosyoCd=1570203198-00&ServiceCd=780&Type=search", "url2": "http://nagaokasanko.com" }, "geometry": { "type": "Point", "coordinates": [ 138.866913899999986, 37.4586916 ] } },
{ "type": "Feature", "properties": { "内容": "デイサービスセンター幸町【地域密着型通所介護】新潟県長岡市幸町1丁目13番15号", "url": "https://www.kaigokensaku.mhlw.go.jp/15/index.php?action_kouhyou_detail_004_kani=true&JigyosyoCd=1570202570-00&ServiceCd=780&Type=search", "url2": "http://www.nagaokasanko.com" }, "geometry": { "type": "Point", "coordinates": [ 138.841264700000011, 37.4395546 ] } },
{ "type": "Feature", "properties": { "内容": "デイサービスセンターゆｌａｘ【地域密着型通所介護】新潟県長岡市曙2丁目3番地１５", "url": "https://www.kaigokensaku.mhlw.go.jp/15/index.php?action_kouhyou_detail_004_kani=true&JigyosyoCd=1570203396-00&ServiceCd=780&Type=search", "url2": null }, "geometry": { "type": "Point", "coordinates": [ 138.849851279762305, 37.427508120057318 ] } },
{ "type": "Feature", "properties": { "内容": "愛幸堂たかリハステーション三条店【地域密着型通所介護】新潟県三条市興野1丁目3番1号", "url": "https://www.kaigokensaku.mhlw.go.jp/15/index.php?action_kouhyou_detail_004_kani=true&JigyosyoCd=1570401651-00&ServiceCd=780&Type=search", "url2": "http://aikoudou-taka.com/" }, "geometry": { "type": "Point", "coordinates": [ 138.969046899999967, 37.631741 ] } },
{ "type": "Feature", "properties": { "内容": "デイサービス条南【地域密着型通所介護】新潟県三条市条南町10-28", "url": "https://www.kaigokensaku.mhlw.go.jp/15/index.php?action_kouhyou_detail_004_kani=true&JigyosyoCd=1570401370-00&ServiceCd=780&Type=search", "url2": null }, "geometry": { "type": "Point", "coordinates": [ 138.944557900000063, 37.6245383 ] } },
{ "type": "Feature", "properties": { "内容": "GENKINEXT新潟三条【地域密着型通所介護】新潟県三条市東裏館2-21-36佐藤産業ビル１F", "url": "https://www.kaigokensaku.mhlw.go.jp/15/index.php?action_kouhyou_detail_004_kani=true&JigyosyoCd=1570401685-00&ServiceCd=780&Type=search", "url2": null }, "geometry": { "type": "Point", "coordinates": [ 138.961143799999974, 37.637169399999962 ] } },
{ "type": "Feature", "properties": { "内容": "デイサービスセンター第二さかえの里【地域密着型通所介護】新潟県三条市福島新田丙480番地", "url": "https://www.kaigokensaku.mhlw.go.jp/15/index.php?action_kouhyou_detail_004_kani=true&JigyosyoCd=1570401438-00&ServiceCd=780&Type=search", "url2": "https://www.sakaewelfare.jp" }, "geometry": { "type": "Point", "coordinates": [ 138.9051048, 37.6103833 ] } },
{ "type": "Feature", "properties": { "内容": "宏友会リハビリデイサービス雪んこ【地域密着型通所介護】新潟県三条市三竹2-10-18", "url": "https://www.kaigokensaku.mhlw.go.jp/15/index.php?action_kouhyou_detail_004_kani=true&JigyosyoCd=1590400170-00&ServiceCd=780&Type=search", "url2": null }, "geometry": { "type": "Point", "coordinates": [ 138.983491816007984, 37.626417067989046 ] } },
{ "type": "Feature", "properties": { "内容": "けんこうクラブ三条【地域密着型通所介護】新潟県三条市旭町1丁目15－10二州楼ビル１階", "url": "https://www.kaigokensaku.mhlw.go.jp/15/index.php?action_kouhyou_detail_004_kani=true&JigyosyoCd=1590400212-00&ServiceCd=780&Type=search", "url2": null }, "geometry": { "type": "Point", "coordinates": [ 138.9608653, 37.6328193 ] } },
{ "type": "Feature", "properties": { "内容": "三条市西四日町デイサービスセンター【地域密着型通所介護】新潟県三条市西四日町3‐15‐22", "url": "https://www.kaigokensaku.mhlw.go.jp/15/index.php?action_kouhyou_detail_004_kani=true&JigyosyoCd=1570400810-00&ServiceCd=780&Type=search", "url2": "http://www.tyouwaen.com" }, "geometry": { "type": "Point", "coordinates": [ 138.950479399999949, 37.6243468 ] } },
{ "type": "Feature", "properties": { "内容": "リハビリスタジオ　animo　三条【地域密着型通所介護】新潟県三条市東三条1-9-20", "url": "https://www.kaigokensaku.mhlw.go.jp/15/index.php?action_kouhyou_detail_004_kani=true&JigyosyoCd=1570401552-00&ServiceCd=780&Type=search", "url2": "http://asahicommons.co.jp/" }, "geometry": { "type": "Point", "coordinates": [ 138.972663300000022, 37.6292165 ] } },
{ "type": "Feature", "properties": { "内容": "地域密着通所介護事業所　かじまちの家【地域密着型通所介護】三条市本町6丁目3番76号", "url": "https://www.kaigokensaku.mhlw.go.jp/15/index.php?action_kouhyou_detail_004_kani=true&JigyosyoCd=1570400760-00&ServiceCd=780&Type=search", "url2": "http://www.tasukeai-network.com" }, "geometry": { "type": "Point", "coordinates": [ 138.950548700000013, 37.6318682 ] } },
{ "type": "Feature", "properties": { "内容": "さかえの里デイサービスセンター【地域密着型通所介護】新潟県三条市福島新田丁1015番地1", "url": "https://www.kaigokensaku.mhlw.go.jp/15/index.php?action_kouhyou_detail_004_kani=true&JigyosyoCd=1570401420-00&ServiceCd=780&Type=search", "url2": "https://www.sakaewelfare.jp" }, "geometry": { "type": "Point", "coordinates": [ 138.919744900000069, 37.5874476 ] } },
{ "type": "Feature", "properties": { "内容": "だんらんの家桜木町【地域密着型通所介護】新潟県三条市桜木町5番28号", "url": "https://www.kaigokensaku.mhlw.go.jp/15/index.php?action_kouhyou_detail_004_kani=true&JigyosyoCd=1570401610-00&ServiceCd=780&Type=search", "url2": null }, "geometry": { "type": "Point", "coordinates": [ 138.948785300000054, 37.6205278 ] } },
{ "type": "Feature", "properties": { "内容": "笑いの花【地域密着型通所介護】新潟県柏崎市田中８番６号", "url": "https://www.kaigokensaku.mhlw.go.jp/15/index.php?action_kouhyou_detail_004_kani=true&JigyosyoCd=1570501112-00&ServiceCd=780&Type=search", "url2": null }, "geometry": { "type": "Point", "coordinates": [ 138.56404396256562, 37.358835752622731 ] } },
{ "type": "Feature", "properties": { "内容": "アースサポート柏崎【地域密着型通所介護】新潟県柏崎市大字横山1959－1", "url": "https://www.kaigokensaku.mhlw.go.jp/15/index.php?action_kouhyou_detail_004_kani=true&JigyosyoCd=1590500268-00&ServiceCd=780&Type=search", "url2": "http://www.earthsupport.co.jp/" }, "geometry": { "type": "Point", "coordinates": [ 138.56808030000002, 37.3454839 ] } },
{ "type": "Feature", "properties": { "内容": "アイ・ケアーズ　アイ・ホームたつか【地域密着型通所介護】新潟県柏崎市田塚3丁目5-32", "url": "https://www.kaigokensaku.mhlw.go.jp/15/index.php?action_kouhyou_detail_004_kani=true&JigyosyoCd=1590500318-00&ServiceCd=780&Type=search", "url2": "https://www.i-cares.jp" }, "geometry": { "type": "Point", "coordinates": [ 138.5871953, 37.3698199 ] } },
{ "type": "Feature", "properties": { "内容": "寄り合い処　ふらっと柏崎【地域密着型通所介護】新潟県柏崎市北半田２丁目２番地２７号", "url": "https://www.kaigokensaku.mhlw.go.jp/15/index.php?action_kouhyou_detail_004_kani=true&JigyosyoCd=1570501245-00&ServiceCd=780&Type=search", "url2": "http://www.fb-kaigo.co.jp/" }, "geometry": { "type": "Point", "coordinates": [ 138.576670599999943, 37.3649846 ] } },
{ "type": "Feature", "properties": { "内容": "デイサービスセンター駅前桜寿【地域密着型通所介護】新潟県柏崎市日石町1-12サンテ駅前桜寿", "url": "https://www.kaigokensaku.mhlw.go.jp/15/index.php?action_kouhyou_detail_004_kani=true&JigyosyoCd=1570500833-00&ServiceCd=780&Type=search", "url2": "http://www.oujyu.jp/" }, "geometry": { "type": "Point", "coordinates": [ 138.5575969, 37.364294699999981 ] } },
{ "type": "Feature", "properties": { "内容": "ｱｲ･ｹｱｰｽﾞｼﾆｱﾌｨｯﾄﾈｽひよし【地域密着型通所介護】新潟県柏崎市日吉町4番8号", "url": "https://www.kaigokensaku.mhlw.go.jp/15/index.php?action_kouhyou_detail_004_kani=true&JigyosyoCd=1570501328-00&ServiceCd=780&Type=search", "url2": "http://www.i-cares.jp" }, "geometry": { "type": "Point", "coordinates": [ 138.572698700000046, 37.3694145 ] } },
{ "type": "Feature", "properties": { "内容": "デイサービスセンターえみふる【地域密着型通所介護】新潟県　柏崎市　東本町　2丁目5番16号", "url": "https://www.kaigokensaku.mhlw.go.jp/15/index.php?action_kouhyou_detail_004_kani=true&JigyosyoCd=1590500367-00&ServiceCd=780&Type=search", "url2": "http://www.ken-bridge.com" }, "geometry": { "type": "Point", "coordinates": [ 138.558209643108313, 37.369662347934593 ] } },
{ "type": "Feature", "properties": { "内容": "リハプライド新潟柏崎【地域密着型通所介護】新潟県柏崎市東長浜町7-10ウエルメイド柏崎101", "url": "https://www.kaigokensaku.mhlw.go.jp/15/index.php?action_kouhyou_detail_004_kani=true&JigyosyoCd=1590500235-00&ServiceCd=780&Type=search", "url2": "https://www.rehapride.co.jp/niigatakashiwazaki/" }, "geometry": { "type": "Point", "coordinates": [ 138.578111, 37.3699 ] } },
{ "type": "Feature", "properties": { "内容": "ベルセゾン新発田デイサービスセンター【地域密着型通所介護】新発田市下石川７１３ベルセゾン新発田", "url": "https://www.kaigokensaku.mhlw.go.jp/15/index.php?action_kouhyou_detail_004_kani=true&JigyosyoCd=1570600237-00&ServiceCd=780&Type=search", "url2": "http://miyukikai.net/" }, "geometry": { "type": "Point", "coordinates": [ 139.410414100000025, 37.966101 ] } },
{ "type": "Feature", "properties": { "内容": "アクティブデイしばた緑町【地域密着型通所介護】新潟県新発田市緑町1丁目13番10号", "url": "https://www.kaigokensaku.mhlw.go.jp/15/index.php?action_kouhyou_detail_004_kani=true&JigyosyoCd=1570601540-00&ServiceCd=780&Type=search", "url2": "http://www.aiko.or.jp/" }, "geometry": { "type": "Point", "coordinates": [ 139.329903775393632, 37.961680923711235 ] } },
{ "type": "Feature", "properties": { "内容": "特定非営利活動法人きらきら家族デイサービスセンターきらきら【地域密着型通所介護】新発田市城北町１－１－１２", "url": "https://www.kaigokensaku.mhlw.go.jp/15/index.php?action_kouhyou_detail_004_kani=true&JigyosyoCd=1570600716-00&ServiceCd=780&Type=search", "url2": null }, "geometry": { "type": "Point", "coordinates": [ 139.326959547363202, 37.957649928033675 ] } },
{ "type": "Feature", "properties": { "内容": "デイサービスセンターつつじガーデン小千谷【地域密着型通所介護】新潟県小千谷市四ツ子509-1", "url": "https://www.kaigokensaku.mhlw.go.jp/15/index.php?action_kouhyou_detail_004_kani=true&JigyosyoCd=1570800480-00&ServiceCd=780&Type=search", "url2": "http://www.add-vantage.jp/" }, "geometry": { "type": "Point", "coordinates": [ 138.785709851312305, 37.283077699087286 ] } },
{ "type": "Feature", "properties": { "内容": "ほっとデイ夢咲桜【地域密着型通所介護】小千谷市小粟田９４２番地", "url": "https://www.kaigokensaku.mhlw.go.jp/15/index.php?action_kouhyou_detail_004_kani=true&JigyosyoCd=1590800122-00&ServiceCd=780&Type=search", "url2": "https://www.facebook.com/d.yumesakura" }, "geometry": { "type": "Point", "coordinates": [ 138.792094371881205, 37.331387008872838 ] } },
{ "type": "Feature", "properties": { "内容": "老人デイサービス事業所ときみずの家【地域密着型通所介護】新潟県小千谷市大字時水１８２番地１", "url": "https://www.kaigokensaku.mhlw.go.jp/15/index.php?action_kouhyou_detail_004_kani=true&JigyosyoCd=1570800407-00&ServiceCd=780&Type=search", "url2": "http://www.ojiyafukushi.com/" }, "geometry": { "type": "Point", "coordinates": [ 138.773233141416995, 37.301806546633962 ] } },
{ "type": "Feature", "properties": { "内容": "老人デイサービス事業所千谷島の家【地域密着型通所介護】新潟県小千谷市千谷川３０２", "url": "https://www.kaigokensaku.mhlw.go.jp/15/index.php?action_kouhyou_detail_004_kani=true&JigyosyoCd=1570800464-00&ServiceCd=780&Type=search", "url2": "http://www.ojiyafukushi.com/" }, "geometry": { "type": "Point", "coordinates": [ 138.802171135353291, 37.320558147840565 ] } },
{ "type": "Feature", "properties": { "内容": "デイサービスセンター　ほのぼの【地域密着型通所介護】新潟県小千谷市大字川井１６９０番地", "url": "https://www.kaigokensaku.mhlw.go.jp/15/index.php?action_kouhyou_detail_004_kani=true&JigyosyoCd=1570800324-00&ServiceCd=780&Type=search", "url2": "http://honobono.namaste.jp/" }, "geometry": { "type": "Point", "coordinates": [ 138.828651199999968, 37.255504 ] } },
{ "type": "Feature", "properties": { "内容": "あいあいデイサービス【地域密着型通所介護】新潟県小千谷市上ノ山３丁目４－１４", "url": "https://www.kaigokensaku.mhlw.go.jp/15/index.php?action_kouhyou_detail_004_kani=true&JigyosyoCd=1570800423-00&ServiceCd=780&Type=search", "url2": null }, "geometry": { "type": "Point", "coordinates": [ 138.789586086508166, 37.30136083282504 ] } },
{ "type": "Feature", "properties": { "内容": "HALUリハビリデイ加茂【地域密着型通所介護】新潟県加茂市新町2丁目4-3", "url": "https://www.kaigokensaku.mhlw.go.jp/15/index.php?action_kouhyou_detail_004_kani=true&JigyosyoCd=1590900013-00&ServiceCd=780&Type=search", "url2": "http://granshare.com/" }, "geometry": { "type": "Point", "coordinates": [ 139.063558300000011, 37.6558908 ] } },
{ "type": "Feature", "properties": { "内容": "宮の森デイサービスセンター加茂【地域密着型通所介護】新潟県加茂市大郷町1-8-25", "url": "https://www.kaigokensaku.mhlw.go.jp/15/index.php?action_kouhyou_detail_004_kani=true&JigyosyoCd=1591700214-00&ServiceCd=780&Type=search", "url2": "http://granshare.com/" }, "geometry": { "type": "Point", "coordinates": [ 139.0427463, 37.6574888 ] } },
{ "type": "Feature", "properties": { "内容": "デイサービスセンターつるかめ園【地域密着型通所介護】十日町市蒲生1973", "url": "https://www.kaigokensaku.mhlw.go.jp/15/index.php?action_kouhyou_detail_004_kani=true&JigyosyoCd=1571000627-00&ServiceCd=780&Type=search", "url2": "http://matsudaifukushikai.webes.jp/" }, "geometry": { "type": "Point", "coordinates": [ 138.574434900000028, 37.1344773 ] } },
{ "type": "Feature", "properties": { "内容": "けんこうクラブ【地域密着型通所介護】新潟県見附市新町1丁目17番25号", "url": "https://www.kaigokensaku.mhlw.go.jp/15/index.php?action_kouhyou_detail_004_kani=true&JigyosyoCd=1571100567-00&ServiceCd=780&Type=search", "url2": "http://www.hurumai.com" }, "geometry": { "type": "Point", "coordinates": [ 138.922307300000057, 37.5268438 ] } },
{ "type": "Feature", "properties": { "内容": "そいがぁ亭【地域密着型通所介護】新潟県見附市南本町3丁目5番22号", "url": "https://www.kaigokensaku.mhlw.go.jp/15/index.php?action_kouhyou_detail_004_kani=true&JigyosyoCd=1591100100-00&ServiceCd=780&Type=search", "url2": "http://www.kaigo－wellness.com/" }, "geometry": { "type": "Point", "coordinates": [ 138.917530299999953, 37.5218359 ] } },
{ "type": "Feature", "properties": { "内容": "デイサービスふるまい村【地域密着型通所介護】見附市新幸町7-11高齢者複合施設ふるまい村", "url": "https://www.kaigokensaku.mhlw.go.jp/15/index.php?action_kouhyou_detail_004_kani=true&JigyosyoCd=1591100142-00&ServiceCd=780&Type=search", "url2": "http://www.hurumai.com/" }, "geometry": { "type": "Point", "coordinates": [ 138.893267703704794, 37.53979964600709 ] } },
{ "type": "Feature", "properties": { "内容": "かんきち堂デイサービスセンター【地域密着型通所介護】新潟県村上市泉町9番25号", "url": "https://www.kaigokensaku.mhlw.go.jp/15/index.php?action_kouhyou_detail_004_kani=true&JigyosyoCd=1571200383-00&ServiceCd=780&Type=search", "url2": "http://www.kankichido.com/" }, "geometry": { "type": "Point", "coordinates": [ 139.475534899999957, 38.2281588 ] } },
{ "type": "Feature", "properties": { "内容": "上海府デイサービスセンター　ゆきわり荘【地域密着型通所介護】新潟県村上市野潟2662番地１", "url": "https://www.kaigokensaku.mhlw.go.jp/15/index.php?action_kouhyou_detail_004_kani=true&JigyosyoCd=1571201043-00&ServiceCd=780&Type=search", "url2": "http://www.sasaeai-coop.com" }, "geometry": { "type": "Point", "coordinates": [ 139.446908272491441, 38.264128143527572 ] } },
{ "type": "Feature", "properties": { "内容": "かごやまの里デイサービスセンター【地域密着型通所介護】新潟県村上市北新保５７１番地１０", "url": "https://www.kaigokensaku.mhlw.go.jp/15/index.php?action_kouhyou_detail_004_kani=true&JigyosyoCd=1571200946-00&ServiceCd=780&Type=search", "url2": null }, "geometry": { "type": "Point", "coordinates": [ 139.429962, 38.158294 ] } },
{ "type": "Feature", "properties": { "内容": "リハビリ・ホームひなたぼっこ【地域密着型通所介護】新潟県燕市杉名68番地1", "url": "https://www.kaigokensaku.mhlw.go.jp/15/index.php?action_kouhyou_detail_004_kani=true&JigyosyoCd=1571300910-00&ServiceCd=780&Type=search", "url2": null }, "geometry": { "type": "Point", "coordinates": [ 138.908695242991627, 37.63850180343033 ] } },
{ "type": "Feature", "properties": { "内容": "リハビリ・ホーム　ひだまり【地域密着型通所介護】新潟県燕市杣木字居掛478番地", "url": "https://www.kaigokensaku.mhlw.go.jp/15/index.php?action_kouhyou_detail_004_kani=true&JigyosyoCd=1571300969-00&ServiceCd=780&Type=search", "url2": null }, "geometry": { "type": "Point", "coordinates": [ 138.933503137202962, 37.673744072344562 ] } },
{ "type": "Feature", "properties": { "内容": "デイサービスセンターときわ燕【地域密着型通所介護】新潟県燕市上児木３９０番地", "url": "https://www.kaigokensaku.mhlw.go.jp/15/index.php?action_kouhyou_detail_004_kani=true&JigyosyoCd=1591300221-00&ServiceCd=780&Type=search", "url2": "http://www.kouun-tokiwaen.jp/" }, "geometry": { "type": "Point", "coordinates": [ 138.964458599999944, 37.685760899999984 ] } },
{ "type": "Feature", "properties": { "内容": "デイサービス沢庵【地域密着型通所介護】新潟県燕市分水大武1-3-16", "url": "https://www.kaigokensaku.mhlw.go.jp/15/index.php?action_kouhyou_detail_004_kani=true&JigyosyoCd=1591300288-00&ServiceCd=780&Type=search", "url2": null }, "geometry": { "type": "Point", "coordinates": [ 138.8435562, 37.6256931 ] } },
{ "type": "Feature", "properties": { "内容": "デイサービスセンターえがお【地域密着型通所介護】新潟県糸魚川市寺島３－２－４０ヴィラオレッタ糸魚川２F", "url": "https://www.kaigokensaku.mhlw.go.jp/15/index.php?action_kouhyou_detail_004_kani=true&JigyosyoCd=1571500659-00&ServiceCd=780&Type=search", "url2": "http://www.mid-japan.co.jp/business/egao.html" }, "geometry": { "type": "Point", "coordinates": [ 137.8436763, 37.0349675 ] } },
{ "type": "Feature", "properties": { "内容": "デイサービスひのき【地域密着型通所介護】新潟県糸魚川市押上2-4-25", "url": "https://www.kaigokensaku.mhlw.go.jp/15/index.php?action_kouhyou_detail_004_kani=true&JigyosyoCd=1571500790-00&ServiceCd=780&Type=search", "url2": null }, "geometry": { "type": "Point", "coordinates": [ 137.879796343670279, 37.050332872993685 ] } },
{ "type": "Feature", "properties": { "内容": "らっくねす【地域密着型通所介護】新潟県糸魚川市中央2-3-35", "url": "https://www.kaigokensaku.mhlw.go.jp/15/index.php?action_kouhyou_detail_004_kani=true&JigyosyoCd=1571500808-00&ServiceCd=780&Type=search", "url2": "http://www.lifecare-orange.com/rakkunesu3" }, "geometry": { "type": "Point", "coordinates": [ 137.861214005712355, 37.040120712082 ] } },
{ "type": "Feature", "properties": { "内容": "デイサービスセンターくりはら【地域密着型通所介護】新潟県妙高市栗原2丁目8番21号", "url": "https://www.kaigokensaku.mhlw.go.jp/15/index.php?action_kouhyou_detail_004_kani=true&JigyosyoCd=1591600182-00&ServiceCd=780&Type=search", "url2": "http://riborn.co.jp" }, "geometry": { "type": "Point", "coordinates": [ 138.2603843, 37.045378 ] } },
{ "type": "Feature", "properties": { "内容": "デイサービスサンクスたんぽぽ【地域密着型通所介護】新潟県妙高市白山町4丁目6番7号", "url": "https://www.kaigokensaku.mhlw.go.jp/15/index.php?action_kouhyou_detail_004_kani=true&JigyosyoCd=1591600190-00&ServiceCd=780&Type=search", "url2": null }, "geometry": { "type": "Point", "coordinates": [ 138.2460298, 37.0216526 ] } },
{ "type": "Feature", "properties": { "内容": "宮の森デイサービスセンター【地域密着型通所介護】新潟県五泉市本町4丁目3番12号宮の森デイサービスセンター", "url": "https://www.kaigokensaku.mhlw.go.jp/15/index.php?action_kouhyou_detail_004_kani=true&JigyosyoCd=1571700762-00&ServiceCd=780&Type=search", "url2": "http://granshare.com/" }, "geometry": { "type": "Point", "coordinates": [ 139.175715399999945, 37.7431775 ] } },
{ "type": "Feature", "properties": { "内容": "ＨＡＬＵリハビリデイ【地域密着型通所介護】新潟県五泉市五十嵐新田846－1", "url": "https://www.kaigokensaku.mhlw.go.jp/15/index.php?action_kouhyou_detail_004_kani=true&JigyosyoCd=1591700206-00&ServiceCd=780&Type=search", "url2": "http://granshare.com/" }, "geometry": { "type": "Point", "coordinates": [ 139.195656, 37.7346111 ] } },
{ "type": "Feature", "properties": { "内容": "デイサービスセンター結の里【地域密着型通所介護】新潟県五泉市五十嵐新田855-1", "url": "https://www.kaigokensaku.mhlw.go.jp/15/index.php?action_kouhyou_detail_004_kani=true&JigyosyoCd=1591700248-00&ServiceCd=780&Type=search", "url2": "http://www.yuinosato-gosen.jp" }, "geometry": { "type": "Point", "coordinates": [ 139.1965001, 37.7349817 ] } },
{ "type": "Feature", "properties": { "内容": "デイサービスセンター萬葉苑【地域密着型通所介護】新潟県五泉市村松1352番地", "url": "https://www.kaigokensaku.mhlw.go.jp/15/index.php?action_kouhyou_detail_004_kani=true&JigyosyoCd=1591700263-00&ServiceCd=780&Type=search", "url2": null }, "geometry": { "type": "Point", "coordinates": [ 139.175713300000041, 37.699291300000034 ] } },
{ "type": "Feature", "properties": { "内容": "デイサービスセンターこころつくしの家【地域密着型通所介護】新潟県五泉市村松甲5600番地1", "url": "https://www.kaigokensaku.mhlw.go.jp/15/index.php?action_kouhyou_detail_004_kani=true&JigyosyoCd=1571700770-00&ServiceCd=780&Type=search", "url2": "http://www.midori-kokoro.jp/" }, "geometry": { "type": "Point", "coordinates": [ 139.180646451589979, 37.687212723004215 ] } },
{ "type": "Feature", "properties": { "内容": "まごころデイサービスおぎそね【地域密着型通所介護】新潟県五泉市荻曽根227番地", "url": "https://www.kaigokensaku.mhlw.go.jp/15/index.php?action_kouhyou_detail_004_kani=true&JigyosyoCd=1571700697-00&ServiceCd=780&Type=search", "url2": null }, "geometry": { "type": "Point", "coordinates": [ 139.165524799999957, 37.7424165 ] } },
{ "type": "Feature", "properties": { "内容": "デイサービスセンターひだまり笑福庵【地域密着型通所介護】新潟県上越市大貫四丁目４３番１５号", "url": "https://www.kaigokensaku.mhlw.go.jp/15/index.php?action_kouhyou_detail_004_kani=true&JigyosyoCd=1570302883-00&ServiceCd=780&Type=search", "url2": "http://syouhukuan.com" }, "geometry": { "type": "Point", "coordinates": [ 138.230587864417998, 37.107873321871288 ] } },
{ "type": "Feature", "properties": { "内容": "ふれあいの杜　上越【地域密着型通所介護】新潟県上越市頸城区西福島９４５－１", "url": "https://www.kaigokensaku.mhlw.go.jp/15/index.php?action_kouhyou_detail_004_kani=true&JigyosyoCd=1570303147-00&ServiceCd=780&Type=search", "url2": "http://www.fureainomori.co.jp" }, "geometry": { "type": "Point", "coordinates": [ 138.275458599999979, 37.1817282 ] } },
{ "type": "Feature", "properties": { "内容": "デイホーム有田【地域密着型通所介護】上越市安江3丁目5番3号", "url": "https://www.kaigokensaku.mhlw.go.jp/15/index.php?action_kouhyou_detail_004_kani=true&JigyosyoCd=1570300671-00&ServiceCd=780&Type=search", "url2": "https://www.jouetushisyakyo.jp/" }, "geometry": { "type": "Point", "coordinates": [ 138.26253557116388, 37.167206046875286 ] } },
{ "type": "Feature", "properties": { "内容": "デイホームやちほ【地域密着型通所介護】上越市上荒浜14-1", "url": "https://www.kaigokensaku.mhlw.go.jp/15/index.php?action_kouhyou_detail_004_kani=true&JigyosyoCd=1570300689-00&ServiceCd=780&Type=search", "url2": "https://www.jouetushisyakyo.jp/" }, "geometry": { "type": "Point", "coordinates": [ 138.275322333065787, 37.195387600000096 ] } },
{ "type": "Feature", "properties": { "内容": "牧デイサービスセンターやまゆりの家【地域密着型通所介護】新潟県上越市牧区柳島４８７番地", "url": "https://www.kaigokensaku.mhlw.go.jp/15/index.php?action_kouhyou_detail_004_kani=true&JigyosyoCd=1570301802-00&ServiceCd=780&Type=search", "url2": "https://www.jouetushisyakyo.jp/" }, "geometry": { "type": "Point", "coordinates": [ 138.383239600000024, 37.07888 ] } },
{ "type": "Feature", "properties": { "内容": "頸城デイサービスセンターはながさの里【地域密着型通所介護】新潟県上越市頸城区花ヶ崎１１６５番地", "url": "https://www.kaigokensaku.mhlw.go.jp/15/index.php?action_kouhyou_detail_004_kani=true&JigyosyoCd=1570301828-00&ServiceCd=780&Type=search", "url2": "https://www.jouetushisyakyo.jp/" }, "geometry": { "type": "Point", "coordinates": [ 138.3575689, 37.172723 ] } },
{ "type": "Feature", "properties": { "内容": "デイサービスセンター安塚やすらぎ荘【地域密着型通所介護】新潟県上越市安塚区安塚2549－5", "url": "https://www.kaigokensaku.mhlw.go.jp/15/index.php?action_kouhyou_detail_004_kani=true&JigyosyoCd=1570301851-00&ServiceCd=780&Type=search", "url2": "https://www.jouetushisyakyo.jp/" }, "geometry": { "type": "Point", "coordinates": [ 138.4435305, 37.1282189 ] } },
{ "type": "Feature", "properties": { "内容": "デイサービス　桑の里【地域密着型通所介護】新潟県上越市大字京田134番地1", "url": "https://www.kaigokensaku.mhlw.go.jp/15/index.php?action_kouhyou_detail_004_kani=true&JigyosyoCd=1570302784-00&ServiceCd=780&Type=search", "url2": "http://www.kuwanosato.jp" }, "geometry": { "type": "Point", "coordinates": [ 138.233154799999966, 37.0974986 ] } },
{ "type": "Feature", "properties": { "内容": "寄り合い処ふらっとかすが【地域密着型通所介護】新潟県上越市木田2-16-50", "url": "https://www.kaigokensaku.mhlw.go.jp/15/index.php?action_kouhyou_detail_004_kani=true&JigyosyoCd=1570303543-00&ServiceCd=780&Type=search", "url2": "http://www.fb-kaigo.co.jp/" }, "geometry": { "type": "Point", "coordinates": [ 138.243498666934187, 37.144770170867424 ] } },
{ "type": "Feature", "properties": { "内容": "デイサービスきらめき【地域密着型通所介護】新潟県上越市下門前2267番地ロングライフきらめき", "url": "https://www.kaigokensaku.mhlw.go.jp/15/index.php?action_kouhyou_detail_004_kani=true&JigyosyoCd=1570303642-00&ServiceCd=780&Type=search", "url2": "http://www.muramatsu-fukushi.com/" }, "geometry": { "type": "Point", "coordinates": [ 138.25113305700836, 37.161852641856015 ] } },
{ "type": "Feature", "properties": { "内容": "デイサービスセンターふれあいの家【地域密着型通所介護】新潟県上越市清里区岡野町1616番地", "url": "https://www.kaigokensaku.mhlw.go.jp/15/index.php?action_kouhyou_detail_004_kani=true&JigyosyoCd=1590300586-00&ServiceCd=780&Type=search", "url2": "https://www.jouetushisyakyo.jp/" }, "geometry": { "type": "Point", "coordinates": [ 138.331568403006372, 37.078796632700005 ] } },
{ "type": "Feature", "properties": { "内容": "特定非営利活動法人　くわどり大杉の家　通所介護事業所【地域密着型通所介護】上越市三伝７１０番地", "url": "https://www.kaigokensaku.mhlw.go.jp/15/index.php?action_kouhyou_detail_004_kani=true&JigyosyoCd=1570302354-00&ServiceCd=780&Type=search", "url2": null }, "geometry": { "type": "Point", "coordinates": [ 138.152449599999954, 37.1429755 ] } },
{ "type": "Feature", "properties": { "内容": "吉川デイサービスセンターあじさいの家【地域密着型通所介護】新潟県上越市吉川区原之町1819番地1", "url": "https://www.kaigokensaku.mhlw.go.jp/15/index.php?action_kouhyou_detail_004_kani=true&JigyosyoCd=1590300560-00&ServiceCd=780&Type=search", "url2": "https://www.jouetushisyakyo.jp/" }, "geometry": { "type": "Point", "coordinates": [ 138.404643699999951, 37.2237301 ] } },
{ "type": "Feature", "properties": { "内容": "かがやきハウス【地域密着型通所介護】新潟県上越市西城町2丁目8番30", "url": "https://www.kaigokensaku.mhlw.go.jp/15/index.php?action_kouhyou_detail_004_kani=true&JigyosyoCd=1590300594-00&ServiceCd=780&Type=search", "url2": "http://www.nishishiro-hp.or.jp/care-planing-takada/" }, "geometry": { "type": "Point", "coordinates": [ 138.251822599999969, 37.1109016 ] } },
{ "type": "Feature", "properties": { "内容": "リハクラブＷＩＬＬ【地域密着型通所介護】新潟県上越市とよば107番地イル･クオーレとよば１階", "url": "https://www.kaigokensaku.mhlw.go.jp/15/index.php?action_kouhyou_detail_004_kani=true&JigyosyoCd=1570303691-00&ServiceCd=780&Type=search", "url2": "http://www.takadafukushikai.com" }, "geometry": { "type": "Point", "coordinates": [ 138.272485847746367, 37.104504911920877 ] } },
{ "type": "Feature", "properties": { "内容": "デイサービスよいさ【地域密着型通所介護】新潟県上越市頸城区花ケ崎1886", "url": "https://www.kaigokensaku.mhlw.go.jp/15/index.php?action_kouhyou_detail_004_kani=true&JigyosyoCd=1590300552-00&ServiceCd=780&Type=search", "url2": null }, "geometry": { "type": "Point", "coordinates": [ 138.360748899999976, 37.171719 ] } },
{ "type": "Feature", "properties": { "内容": "デイサービスよいさ仲町【地域密着型通所介護】新潟県上越市仲町2丁目7-8", "url": "https://www.kaigokensaku.mhlw.go.jp/15/index.php?action_kouhyou_detail_004_kani=true&JigyosyoCd=1590300636-00&ServiceCd=780&Type=search", "url2": null }, "geometry": { "type": "Point", "coordinates": [ 138.241475217790992, 37.106948619203955 ] } },
{ "type": "Feature", "properties": { "内容": "樹楽　上増田【地域密着型通所介護】新潟県上越市頸城区上増田１２２－１樹楽上増田", "url": "https://www.kaigokensaku.mhlw.go.jp/15/index.php?action_kouhyou_detail_004_kani=true&JigyosyoCd=1570303550-00&ServiceCd=780&Type=search", "url2": "http://bfkaigo.com/" }, "geometry": { "type": "Point", "coordinates": [ 138.360598, 37.1923544 ] } },
{ "type": "Feature", "properties": { "内容": "デイサービスすみのや【地域密着型通所介護】新潟県上越市上源入３７９番地1", "url": "https://www.kaigokensaku.mhlw.go.jp/15/index.php?action_kouhyou_detail_004_kani=true&JigyosyoCd=1590300693-00&ServiceCd=780&Type=search", "url2": null }, "geometry": { "type": "Point", "coordinates": [ 138.259698, 37.163384400000041 ] } },
{ "type": "Feature", "properties": { "内容": "デイサービス　こやぎの広場【地域密着型通所介護】新潟県上越市下池部1229-6デイサービス　こやぎの広場", "url": "https://www.kaigokensaku.mhlw.go.jp/15/index.php?action_kouhyou_detail_004_kani=true&JigyosyoCd=1570303741-00&ServiceCd=780&Type=search", "url2": "https://www.big-advance.site/c/131/1602" }, "geometry": { "type": "Point", "coordinates": [ 138.297280732540912, 37.116383373609935 ] } },
{ "type": "Feature", "properties": { "内容": "えびすはまデイホーム米【地域密着型通所介護】新潟県上越市夷浜119-21", "url": "https://www.kaigokensaku.mhlw.go.jp/15/index.php?action_kouhyou_detail_004_kani=true&JigyosyoCd=1590300644-00&ServiceCd=780&Type=search", "url2": null }, "geometry": { "type": "Point", "coordinates": [ 138.2894159, 37.2040389 ] } },
{ "type": "Feature", "properties": { "内容": "リハステーションみどりおか【地域密着型通所介護】新潟県阿賀野市緑岡３番地１５みどりおか接骨院内", "url": "https://www.kaigokensaku.mhlw.go.jp/15/index.php?action_kouhyou_detail_004_kani=true&JigyosyoCd=1572100848-00&ServiceCd=780&Type=search", "url2": "https://www.rihamidorioka.com/" }, "geometry": { "type": "Point", "coordinates": [ 139.188298435581942, 37.840739645147288 ] } },
{ "type": "Feature", "properties": { "内容": "デイサービスいらかの丘【地域密着型通所介護】阿賀野市福永１１６７－５", "url": "https://www.kaigokensaku.mhlw.go.jp/15/index.php?action_kouhyou_detail_004_kani=true&JigyosyoCd=1572100590-00&ServiceCd=780&Type=search", "url2": "http://jihoukai-aga.com/" }, "geometry": { "type": "Point", "coordinates": [ 139.247963199999958, 37.7804499 ] } },
{ "type": "Feature", "properties": { "内容": "だんらんの家　和らぎ事業所【地域密着型通所介護】新潟県阿賀野市北本町21番14号", "url": "https://www.kaigokensaku.mhlw.go.jp/15/index.php?action_kouhyou_detail_004_kani=true&JigyosyoCd=1572100863-00&ServiceCd=780&Type=search", "url2": null }, "geometry": { "type": "Point", "coordinates": [ 139.22859312883611, 37.844119100000015 ] } },
{ "type": "Feature", "properties": { "内容": "宮の森デイサービスセンター水原【地域密着型通所介護】新潟県阿賀野市宮下457-1宮の森デイサービスセンター水原", "url": "https://www.kaigokensaku.mhlw.go.jp/15/index.php?action_kouhyou_detail_004_kani=true&JigyosyoCd=1592100117-00&ServiceCd=780&Type=search", "url2": "http://granshare.com/" }, "geometry": { "type": "Point", "coordinates": [ 139.257915333803567, 37.821388979366013 ] } },
{ "type": "Feature", "properties": { "内容": "デイサービスＤＡＹＳ悠悠【地域密着型通所介護】新潟県阿賀野市山崎80番地", "url": "https://www.kaigokensaku.mhlw.go.jp/15/index.php?action_kouhyou_detail_004_kani=true&JigyosyoCd=1572100855-00&ServiceCd=780&Type=search", "url2": "http://seibu-life.com/day-yuyu.php" }, "geometry": { "type": "Point", "coordinates": [ 139.268723620230048, 37.837594607319446 ] } },
{ "type": "Feature", "properties": { "内容": "デイサービスセンター　あすかの郷【地域密着型通所介護】新潟県佐渡市真野新町63番地デイサービスセンターあすかの郷", "url": "https://www.kaigokensaku.mhlw.go.jp/15/index.php?action_kouhyou_detail_004_kani=true&JigyosyoCd=1572201356-00&ServiceCd=780&Type=search", "url2": null }, "geometry": { "type": "Point", "coordinates": [ 138.345395, 37.9660198 ] } },
{ "type": "Feature", "properties": { "内容": "西三川デイサービスセンター【地域密着型通所介護】新潟県佐渡市西三川1070番地1", "url": "https://www.kaigokensaku.mhlw.go.jp/15/index.php?action_kouhyou_detail_004_kani=true&JigyosyoCd=1592200255-00&ServiceCd=780&Type=search", "url2": "http://www.e-sadonet.tv/fureai99/" }, "geometry": { "type": "Point", "coordinates": [ 138.296136, 37.9099315 ] } },
{ "type": "Feature", "properties": { "内容": "リハビリ特化型デイサービスみーお【地域密着型通所介護】新潟県佐渡市千種９６７番地３", "url": "https://www.kaigokensaku.mhlw.go.jp/15/index.php?action_kouhyou_detail_004_kani=true&JigyosyoCd=1592200172-00&ServiceCd=780&Type=search", "url2": null }, "geometry": { "type": "Point", "coordinates": [ 138.362938619212741, 38.021803061346517 ] } },
{ "type": "Feature", "properties": { "内容": "両津デイサービスセンターいわゆり【地域密着型通所介護】新潟県佐渡市豊岡1672番地16", "url": "https://www.kaigokensaku.mhlw.go.jp/15/index.php?action_kouhyou_detail_004_kani=true&JigyosyoCd=1592200198-00&ServiceCd=780&Type=search", "url2": "https://care-net.biz/15/sado-shakyo/b15.php" }, "geometry": { "type": "Point", "coordinates": [ 138.5208772, 37.9756677 ] } },
{ "type": "Feature", "properties": { "内容": "両津デイサービスセンターかんぞう【地域密着型通所介護】新潟県佐渡市鷲崎１７８１番地３", "url": "https://www.kaigokensaku.mhlw.go.jp/15/index.php?action_kouhyou_detail_004_kani=true&JigyosyoCd=1572200929-00&ServiceCd=780&Type=search", "url2": "https://care-net.biz/15/sado-shakyo/" }, "geometry": { "type": "Point", "coordinates": [ 138.51425949999998, 38.3163361 ] } },
{ "type": "Feature", "properties": { "内容": "小木デイサービスセンターつくし【地域密着型通所介護】新潟県佐渡市小木町1949番地4", "url": "https://www.kaigokensaku.mhlw.go.jp/15/index.php?action_kouhyou_detail_004_kani=true&JigyosyoCd=1592200248-00&ServiceCd=780&Type=search", "url2": "https://care-net.biz/15/sado-shakyo/b15.php" }, "geometry": { "type": "Point", "coordinates": [ 138.2752621, 37.8161784 ] } },
{ "type": "Feature", "properties": { "内容": "デイサービスセンターおけさ【地域密着型通所介護】新潟県佐渡市小木町1973番地", "url": "https://www.kaigokensaku.mhlw.go.jp/15/index.php?action_kouhyou_detail_004_kani=true&JigyosyoCd=1592200263-00&ServiceCd=780&Type=search", "url2": "http://www.ceres.dti.ne.jp/~sawatahp/" }, "geometry": { "type": "Point", "coordinates": [ 138.2848936, 37.8177338 ] } },
{ "type": "Feature", "properties": { "内容": "デイサービスセンター　高千の里【地域密着型通所介護】新潟県佐渡市高千1048番地1", "url": "https://www.kaigokensaku.mhlw.go.jp/15/index.php?action_kouhyou_detail_004_kani=true&JigyosyoCd=1592200289-00&ServiceCd=780&Type=search", "url2": "http://www.e-sadonet.tv/~fureai99/" }, "geometry": { "type": "Point", "coordinates": [ 138.3330791, 38.1975948 ] } },
{ "type": "Feature", "properties": { "内容": "デイサービスなんだい【地域密着型通所介護】新潟県佐渡市畑野甲４５２－６", "url": "https://www.kaigokensaku.mhlw.go.jp/15/index.php?action_kouhyou_detail_004_kani=true&JigyosyoCd=1572201067-00&ServiceCd=780&Type=search", "url2": "http://care-net.biz/15/kuro-ba-sado/" }, "geometry": { "type": "Point", "coordinates": [ 138.39771380000002, 37.9922843 ] } },
{ "type": "Feature", "properties": { "内容": "デイサービスセンター入広瀬【地域密着型通所介護】魚沼市大栃山628番地1", "url": "https://www.kaigokensaku.mhlw.go.jp/15/index.php?action_kouhyou_detail_004_kani=true&JigyosyoCd=1572300109-00&ServiceCd=780&Type=search", "url2": "http://www.uofuku.net/suwa.html" }, "geometry": { "type": "Point", "coordinates": [ 139.0689721, 37.3561569 ] } },
{ "type": "Feature", "properties": { "内容": "デイサービスセンターすまいる【地域密着型通所介護】新潟県魚沼市中原354番地", "url": "https://www.kaigokensaku.mhlw.go.jp/15/index.php?action_kouhyou_detail_004_kani=true&JigyosyoCd=1572300067-00&ServiceCd=780&Type=search", "url2": null }, "geometry": { "type": "Point", "coordinates": [ 138.972216200000048, 37.2202768 ] } },
{ "type": "Feature", "properties": { "内容": "機能訓練特化型デイサービス　リハクラ　うららか【地域密着型通所介護】新潟県南魚沼市八幡１２３－１", "url": "https://www.kaigokensaku.mhlw.go.jp/15/index.php?action_kouhyou_detail_004_kani=true&JigyosyoCd=1572400958-00&ServiceCd=780&Type=search", "url2": "http://www.sakoujyu-uraraka.com/" }, "geometry": { "type": "Point", "coordinates": [ 138.879986300000041, 37.0693714 ] } },
{ "type": "Feature", "properties": { "内容": "まちトレ南魚沼【地域密着型通所介護】新潟県南魚沼市六日町801-9", "url": "https://www.kaigokensaku.mhlw.go.jp/15/index.php?action_kouhyou_detail_004_kani=true&JigyosyoCd=1572400974-00&ServiceCd=780&Type=search", "url2": "http://www.alpsbc.co.jp/" }, "geometry": { "type": "Point", "coordinates": [ 138.872750200000013, 37.058964800000012 ] } },
{ "type": "Feature", "properties": { "内容": "心と体の機能回復センター　　まこトレ【地域密着型通所介護】新潟県南魚沼市中793番地1", "url": "https://www.kaigokensaku.mhlw.go.jp/15/index.php?action_kouhyou_detail_004_kani=true&JigyosyoCd=1572400834-00&ServiceCd=780&Type=search", "url2": null }, "geometry": { "type": "Point", "coordinates": [ 138.85367640000004, 37.0330092 ] } },
{ "type": "Feature", "properties": { "内容": "きたえるーむ南魚沼【地域密着型通所介護】新潟県南魚沼市上原53-1きたえるーむ南魚沼", "url": "https://www.kaigokensaku.mhlw.go.jp/15/index.php?action_kouhyou_detail_004_kani=true&JigyosyoCd=1572401121-00&ServiceCd=780&Type=search", "url2": "https://kitaeroom.com/" }, "geometry": { "type": "Point", "coordinates": [ 138.933222199999989, 37.0911624 ] } },
{ "type": "Feature", "properties": { "内容": "湯沢町社会福祉協議会　湯沢町デイサービスセンター【地域密着型通所介護】新潟県南魚沼郡湯沢町大字湯沢２８７７番地１　湯沢町総合福祉センター内", "url": "https://www.kaigokensaku.mhlw.go.jp/15/index.php?action_kouhyou_detail_004_kani=true&JigyosyoCd=1595800036-00&ServiceCd=780&Type=search", "url2": "http://www.yuzawa-syakyo.jp/" }, "geometry": { "type": "Point", "coordinates": [ 138.813249, 36.938574 ] } },
{ "type": "Feature", "properties": { "内容": "粟島浦村通所介護センター【地域密着型通所介護】新潟県岩船郡粟島浦村字日ノ見山1513番地11", "url": "https://www.kaigokensaku.mhlw.go.jp/15/index.php?action_kouhyou_detail_004_kani=true&JigyosyoCd=1596400059-00&ServiceCd=780&Type=search", "url2": null }, "geometry": { "type": "Point", "coordinates": [ 139.2542855, 38.4681242 ] } }
]
}
