{
"type": "FeatureCollection",
"name": "geo_15_認知症対応型通所介護",
"crs": { "type": "name", "properties": { "name": "urn:ogc:def:crs:OGC:1.3:CRS84" } },
"features": [
{ "type": "Feature", "properties": { "内容": "はあとふるあたごグループホームゆたか【認知症対応型通所介護】新潟県新潟市東区豊2丁目7番44号はあとふるあたご福祉複合施設ゆたか", "url": "https://www.kaigokensaku.mhlw.go.jp/15/index.php?action_kouhyou_detail_004_kani=true&JigyosyoCd=1590102123-00&ServiceCd=720&Type=search", "url2": "https://heartfull.jp/" }, "geometry": { "type": "Point", "coordinates": [ 139.1136792, 37.9252145 ] } },
{ "type": "Feature", "properties": { "内容": "はあとふるあたごデイサービスセンター日和庵【認知症対応型通所介護】新潟県新潟市中央区窪田町2丁目１１１番地２", "url": "https://www.kaigokensaku.mhlw.go.jp/15/index.php?action_kouhyou_detail_004_kani=true&JigyosyoCd=1590100747-00&ServiceCd=720&Type=search", "url2": "https://heartfull.jp" }, "geometry": { "type": "Point", "coordinates": [ 139.054629400000067, 37.9396179 ] } },
{ "type": "Feature", "properties": { "内容": "デイホームひまわり【認知症対応型通所介護】新潟県新潟市江南区城山４丁目２番-３４号", "url": "https://www.kaigokensaku.mhlw.go.jp/15/index.php?action_kouhyou_detail_004_kani=true&JigyosyoCd=1570103844-00&ServiceCd=720&Type=search", "url2": "https://himawari.homes/" }, "geometry": { "type": "Point", "coordinates": [ 139.113548, 37.8611065 ] } },
{ "type": "Feature", "properties": { "内容": "老人デイサービスセンター　リバーサイド輝【認知症対応型通所介護】新潟県新潟市江南区三百地２３１２番地１", "url": "https://www.kaigokensaku.mhlw.go.jp/15/index.php?action_kouhyou_detail_004_kani=true&JigyosyoCd=1570101772-00&ServiceCd=720&Type=search", "url2": "https://www.jyouyoukai.or.jp" }, "geometry": { "type": "Point", "coordinates": [ 139.147640200000069, 37.898269900000017 ] } },
{ "type": "Feature", "properties": { "内容": "はあとふるあたごグループホーム新津【認知症対応型通所介護】新潟県新潟市秋葉区荻野町2番26号", "url": "https://www.kaigokensaku.mhlw.go.jp/15/index.php?action_kouhyou_detail_004_kani=true&JigyosyoCd=1570104032-00&ServiceCd=720&Type=search", "url2": "https://www.heartfull.jp/" }, "geometry": { "type": "Point", "coordinates": [ 139.106980199999953, 37.8294212 ] } },
{ "type": "Feature", "properties": { "内容": "グル－プホ－ム風見鶏【認知症対応型通所介護】新潟県新潟市秋葉区柄目木352番地", "url": "https://www.kaigokensaku.mhlw.go.jp/15/index.php?action_kouhyou_detail_004_kani=true&JigyosyoCd=1570104040-00&ServiceCd=720&Type=search", "url2": null }, "geometry": { "type": "Point", "coordinates": [ 139.1460064, 37.7903201 ] } },
{ "type": "Feature", "properties": { "内容": "デイサービス　しおん【認知症対応型通所介護】新潟県新潟市秋葉区七日町826番地13", "url": "https://www.kaigokensaku.mhlw.go.jp/15/index.php?action_kouhyou_detail_004_kani=true&JigyosyoCd=1590100861-00&ServiceCd=720&Type=search", "url2": "http://sh-kodemari.com/" }, "geometry": { "type": "Point", "coordinates": [ 139.144974899999966, 37.8224614 ] } },
{ "type": "Feature", "properties": { "内容": "デイサービスセンターうちの桜園【認知症対応型通所介護】新潟市西区内野潟端2090番地", "url": "https://www.kaigokensaku.mhlw.go.jp/15/index.php?action_kouhyou_detail_004_kani=true&JigyosyoCd=1570101871-00&ServiceCd=720&Type=search", "url2": "http://care-net.biz/15/kotobukikai/" }, "geometry": { "type": "Point", "coordinates": [ 138.934087699999964, 37.8512243 ] } },
{ "type": "Feature", "properties": { "内容": "デイサービスセンター黒埼【認知症対応型通所介護】新潟県新潟市西区善久５２１番地１", "url": "https://www.kaigokensaku.mhlw.go.jp/15/index.php?action_kouhyou_detail_004_kani=true&JigyosyoCd=1590100796-00&ServiceCd=720&Type=search", "url2": "https://www.jyouyoukai.or.jp/" }, "geometry": { "type": "Point", "coordinates": [ 139.014506600000033, 37.856843499999982 ] } },
{ "type": "Feature", "properties": { "内容": "はあとふるあたごグループホームてらお【認知症対応型通所介護】新潟県新潟市西区寺尾1番7号複合施設てらお２階", "url": "https://www.kaigokensaku.mhlw.go.jp/15/index.php?action_kouhyou_detail_004_kani=true&JigyosyoCd=1590102297-00&ServiceCd=720&Type=search", "url2": "https://heartfull.jp" }, "geometry": { "type": "Point", "coordinates": [ 138.9822598, 37.8830909 ] } },
{ "type": "Feature", "properties": { "内容": "デイサービスセンターみさと【認知症対応型通所介護】新潟県新潟市西蒲区旗屋731番地", "url": "https://www.kaigokensaku.mhlw.go.jp/15/index.php?action_kouhyou_detail_004_kani=true&JigyosyoCd=1590100317-00&ServiceCd=720&Type=search", "url2": "http://www.misatokai.or.jp/" }, "geometry": { "type": "Point", "coordinates": [ 138.924306200000046, 37.7910454 ] } },
{ "type": "Feature", "properties": { "内容": "グループホームなかのくち弐号館【認知症対応型通所介護】新潟県新潟市西蒲区福島312-1", "url": "https://www.kaigokensaku.mhlw.go.jp/15/index.php?action_kouhyou_detail_004_kani=true&JigyosyoCd=1590102099-00&ServiceCd=720&Type=search", "url2": "https://www.atago.or.jp" }, "geometry": { "type": "Point", "coordinates": [ 138.9606934, 37.724856 ] } },
{ "type": "Feature", "properties": { "内容": "デイサービスセンターけやきの杜【認知症対応型通所介護】新潟県長岡市上野町1059-2", "url": "https://www.kaigokensaku.mhlw.go.jp/15/index.php?action_kouhyou_detail_004_kani=true&JigyosyoCd=1570200533-00&ServiceCd=720&Type=search", "url2": "http://nagaokasanko.or.jp/" }, "geometry": { "type": "Point", "coordinates": [ 138.828519599999936, 37.4783079 ] } },
{ "type": "Feature", "properties": { "内容": "老人デイサービスセンターわらび園【認知症対応型通所介護】長岡市浦３０６０番地", "url": "https://www.kaigokensaku.mhlw.go.jp/15/index.php?action_kouhyou_detail_004_kani=true&JigyosyoCd=1570201515-00&ServiceCd=720&Type=search", "url2": "https://warabien.jp" }, "geometry": { "type": "Point", "coordinates": [ 138.804131899999987, 37.3886346 ] } },
{ "type": "Feature", "properties": { "内容": "デイホームけさじろ【認知症対応型通所介護】長岡市今朝白２丁目８－１８", "url": "https://www.kaigokensaku.mhlw.go.jp/15/index.php?action_kouhyou_detail_004_kani=true&JigyosyoCd=1590200018-00&ServiceCd=720&Type=search", "url2": "http://www.kobushien.com" }, "geometry": { "type": "Point", "coordinates": [ 138.858623500000022, 37.4497871 ] } },
{ "type": "Feature", "properties": { "内容": "てまりデイホーム【認知症対応型通所介護】長岡市平１丁目3番55号", "url": "https://www.kaigokensaku.mhlw.go.jp/15/index.php?action_kouhyou_detail_004_kani=true&JigyosyoCd=1590200422-00&ServiceCd=720&Type=search", "url2": "https://www.temari-care.com/" }, "geometry": { "type": "Point", "coordinates": [ 139.004985, 37.4714871 ] } },
{ "type": "Feature", "properties": { "内容": "デイホーム中之島【認知症対応型通所介護】長岡市中之島2105番地6", "url": "https://www.kaigokensaku.mhlw.go.jp/15/index.php?action_kouhyou_detail_004_kani=true&JigyosyoCd=1590200273-00&ServiceCd=720&Type=search", "url2": "http://nagaokasanko.or.jp/group/nakanosima/" }, "geometry": { "type": "Point", "coordinates": [ 138.873228957998208, 37.536231938495803 ] } },
{ "type": "Feature", "properties": { "内容": "デイホームしなの【認知症対応型通所介護】長岡市信濃２丁目６番１８号", "url": "https://www.kaigokensaku.mhlw.go.jp/15/index.php?action_kouhyou_detail_004_kani=true&JigyosyoCd=1570201879-00&ServiceCd=720&Type=search", "url2": "http://www.kobushien.com" }, "geometry": { "type": "Point", "coordinates": [ 138.837825699999939, 37.4506449 ] } },
{ "type": "Feature", "properties": { "内容": "デイホーム　縄文の杜関原【認知症対応型通所介護】新潟県長岡市関原町１丁目1072番地1高齢者総合施設　縄文の杜関原", "url": "https://www.kaigokensaku.mhlw.go.jp/15/index.php?action_kouhyou_detail_004_kani=true&JigyosyoCd=1570201127-00&ServiceCd=720&Type=search", "url2": "http://www.nagaokasanko.or.jp/group/joumon/" }, "geometry": { "type": "Point", "coordinates": [ 138.774595475482272, 37.452571074073362 ] } },
{ "type": "Feature", "properties": { "内容": "デイサービスセンターみやうち【認知症対応型通所介護】長岡市曲新町５６６番地７", "url": "https://www.kaigokensaku.mhlw.go.jp/15/index.php?action_kouhyou_detail_004_kani=true&JigyosyoCd=1570200657-00&ServiceCd=720&Type=search", "url2": "http://machidaen.jp/" }, "geometry": { "type": "Point", "coordinates": [ 138.8477451, 37.4197651 ] } },
{ "type": "Feature", "properties": { "内容": "特別養護老人ホームうらだての里【認知症対応型通所介護】三条市東裏館3丁目6番58号", "url": "https://www.kaigokensaku.mhlw.go.jp/15/index.php?action_kouhyou_detail_004_kani=true&JigyosyoCd=1570400299-00&ServiceCd=720&Type=search", "url2": "http://www.kenfuku.jp/" }, "geometry": { "type": "Point", "coordinates": [ 138.961827699999958, 37.6429672 ] } },
{ "type": "Feature", "properties": { "内容": "グループホーム花みずき【認知症対応型通所介護】新潟県三条市島潟221番1", "url": "https://www.kaigokensaku.mhlw.go.jp/15/index.php?action_kouhyou_detail_004_kani=true&JigyosyoCd=1590400089-00&ServiceCd=720&Type=search", "url2": "http://kenfuku.jp" }, "geometry": { "type": "Point", "coordinates": [ 139.013518400000066, 37.5899979 ] } },
{ "type": "Feature", "properties": { "内容": "はあとふるあたごグループホーム三条【認知症対応型通所介護】三条市石上２丁目１５番１号", "url": "https://www.kaigokensaku.mhlw.go.jp/15/index.php?action_kouhyou_detail_004_kani=true&JigyosyoCd=1570400752-00&ServiceCd=720&Type=search", "url2": "http://heartfull.jp/facility/sanjo" }, "geometry": { "type": "Point", "coordinates": [ 138.956131, 37.6442613 ] } },
{ "type": "Feature", "properties": { "内容": "ツクイ柏崎グループホーム【認知症対応型通所介護】新潟県柏崎市柳田町7-26", "url": "https://www.kaigokensaku.mhlw.go.jp/15/index.php?action_kouhyou_detail_004_kani=true&JigyosyoCd=1570500544-00&ServiceCd=720&Type=search", "url2": "http://www.tsukui.net" }, "geometry": { "type": "Point", "coordinates": [ 138.579911399999986, 37.3820463 ] } },
{ "type": "Feature", "properties": { "内容": "デイサービスセンター陽だまり苑【認知症対応型通所介護】新潟県新発田市岡田1746番地1", "url": "https://www.kaigokensaku.mhlw.go.jp/15/index.php?action_kouhyou_detail_004_kani=true&JigyosyoCd=1570600351-00&ServiceCd=720&Type=search", "url2": "http://hidamarien.ne.jp" }, "geometry": { "type": "Point", "coordinates": [ 139.359800899999982, 37.9510653 ] } },
{ "type": "Feature", "properties": { "内容": "モス・コーラデイホーム【認知症対応型通所介護】新潟県小千谷市大字桜町３１４６番地２", "url": "https://www.kaigokensaku.mhlw.go.jp/15/index.php?action_kouhyou_detail_004_kani=true&JigyosyoCd=1590800106-00&ServiceCd=720&Type=search", "url2": "http://www.temari-care.com" }, "geometry": { "type": "Point", "coordinates": [ 138.772685551637295, 37.310703265726666 ] } },
{ "type": "Feature", "properties": { "内容": "デイサービスセンター小千谷さくら【認知症対応型通所介護】小千谷市小粟田２７３２番地１３", "url": "https://www.kaigokensaku.mhlw.go.jp/15/index.php?action_kouhyou_detail_004_kani=true&JigyosyoCd=1570800225-00&ServiceCd=720&Type=search", "url2": "http://www.ojiya-sakura.jp" }, "geometry": { "type": "Point", "coordinates": [ 138.795420400000012, 37.3413796 ] } },
{ "type": "Feature", "properties": { "内容": "老人デイサービスセンターやまびこ【認知症対応型通所介護】新潟県十日町市寿町2丁目1番地1", "url": "https://www.kaigokensaku.mhlw.go.jp/15/index.php?action_kouhyou_detail_004_kani=true&JigyosyoCd=1571000197-00&ServiceCd=720&Type=search", "url2": "http://www.tokamachi-yamabiko.com" }, "geometry": { "type": "Point", "coordinates": [ 138.753560599999986, 37.1266628 ] } },
{ "type": "Feature", "properties": { "内容": "デイサービスセンター坂井園【認知症対応型通所介護】新潟県見附市坂井町８１番地１", "url": "https://www.kaigokensaku.mhlw.go.jp/15/index.php?action_kouhyou_detail_004_kani=true&JigyosyoCd=1571100138-00&ServiceCd=720&Type=search", "url2": "http://mitsukefukushikai.com/" }, "geometry": { "type": "Point", "coordinates": [ 138.890820699999949, 37.5641523 ] } },
{ "type": "Feature", "properties": { "内容": "はあとふるあたごグループホームみつけ【認知症対応型通所介護】新潟県見附市庄川町855番地1", "url": "https://www.kaigokensaku.mhlw.go.jp/15/index.php?action_kouhyou_detail_004_kani=true&JigyosyoCd=1591100159-00&ServiceCd=720&Type=search", "url2": "https://heartfull.jp/" }, "geometry": { "type": "Point", "coordinates": [ 138.939539279850436, 37.523013591860959 ] } },
{ "type": "Feature", "properties": { "内容": "デイサービスセンターくろっかす【認知症対応型通所介護】新潟県村上市海老江９４２番地１", "url": "https://www.kaigokensaku.mhlw.go.jp/15/index.php?action_kouhyou_detail_004_kani=true&JigyosyoCd=1591200074-00&ServiceCd=720&Type=search", "url2": null }, "geometry": { "type": "Point", "coordinates": [ 139.414611299999933, 38.1429486 ] } },
{ "type": "Feature", "properties": { "内容": "グループホーム　縁【認知症対応型通所介護】新潟県燕市分水旭町二丁目２番１７号", "url": "https://www.kaigokensaku.mhlw.go.jp/15/index.php?action_kouhyou_detail_004_kani=true&JigyosyoCd=1591300049-00&ServiceCd=720&Type=search", "url2": "http://www.sakurai-fukushi.or.jp" }, "geometry": { "type": "Point", "coordinates": [ 138.844979599999988, 37.6279766 ] } },
{ "type": "Feature", "properties": { "内容": "グループホームつどいの家・桜町【認知症対応型通所介護】新潟県燕市分水桜町3丁目3番16号地域生活支援施設つどい", "url": "https://www.kaigokensaku.mhlw.go.jp/15/index.php?action_kouhyou_detail_004_kani=true&JigyosyoCd=1591300189-00&ServiceCd=720&Type=search", "url2": "http://www.sakurai-fukushi.or.jp" }, "geometry": { "type": "Point", "coordinates": [ 138.839527399999952, 37.6261461 ] } },
{ "type": "Feature", "properties": { "内容": "みなかみの里ディ・サ－ビスセンター【認知症対応型通所介護】妙高市大字上新保549番地", "url": "https://www.kaigokensaku.mhlw.go.jp/15/index.php?action_kouhyou_detail_004_kani=true&JigyosyoCd=1571600111-00&ServiceCd=720&Type=search", "url2": "http://www.araikeinanfukushikai.or.jp" }, "geometry": { "type": "Point", "coordinates": [ 138.265568700000017, 37.0211444 ] } },
{ "type": "Feature", "properties": { "内容": "デイサービスセンターうずらはし【認知症対応型通所介護】新潟県五泉市橋田丙497-2", "url": "https://www.kaigokensaku.mhlw.go.jp/15/index.php?action_kouhyou_detail_004_kani=true&JigyosyoCd=1571700218-00&ServiceCd=720&Type=search", "url2": "http://www.tyutofukushikai.com/" }, "geometry": { "type": "Point", "coordinates": [ 139.1358305, 37.7282726 ] } },
{ "type": "Feature", "properties": { "内容": "はあとふるあたごグループホーム五泉【認知症対応型通所介護】五泉市太田2丁目1番3号", "url": "https://www.kaigokensaku.mhlw.go.jp/15/index.php?action_kouhyou_detail_004_kani=true&JigyosyoCd=1571700259-00&ServiceCd=720&Type=search", "url2": "http://www.heartfull.jp/" }, "geometry": { "type": "Point", "coordinates": [ 139.1851799, 37.7422301 ] } },
{ "type": "Feature", "properties": { "内容": "グループホームおたて【認知症対応型通所介護】新潟県上越市五智2丁目1番3号", "url": "https://www.kaigokensaku.mhlw.go.jp/15/index.php?action_kouhyou_detail_004_kani=true&JigyosyoCd=1590300230-00&ServiceCd=720&Type=search", "url2": "http://www.Joetsu-atago.or.jp" }, "geometry": { "type": "Point", "coordinates": [ 138.234079799999989, 37.171675 ] } },
{ "type": "Feature", "properties": { "内容": "みやじまの里清心荘　えがおの部屋【認知症対応型通所介護】新潟県上越市板倉区宮島131-1", "url": "https://www.kaigokensaku.mhlw.go.jp/15/index.php?action_kouhyou_detail_004_kani=true&JigyosyoCd=1570301844-00&ServiceCd=720&Type=search", "url2": "https://www.jouetushisyakyo.jp/" }, "geometry": { "type": "Point", "coordinates": [ 138.313229676721193, 37.046730757900669 ] } },
{ "type": "Feature", "properties": { "内容": "グループホームおらち【認知症対応型通所介護】新潟県上越市春日野1丁目4番43号グループホームおらち", "url": "https://www.kaigokensaku.mhlw.go.jp/15/index.php?action_kouhyou_detail_004_kani=true&JigyosyoCd=1590300685-00&ServiceCd=720&Type=search", "url2": null }, "geometry": { "type": "Point", "coordinates": [ 138.2299746, 37.1483698 ] } },
{ "type": "Feature", "properties": { "内容": "共用型デイサービスだんらん【認知症対応型通所介護】新潟県上越市頸城区北方１２５番地８", "url": "https://www.kaigokensaku.mhlw.go.jp/15/index.php?action_kouhyou_detail_004_kani=true&JigyosyoCd=1590300701-00&ServiceCd=720&Type=search", "url2": "http://park17.wakwak.com/~danran/" }, "geometry": { "type": "Point", "coordinates": [ 138.324301716259356, 37.190082037908802 ] } },
{ "type": "Feature", "properties": { "内容": "グループホームななうら【認知症対応型通所介護】新潟県佐渡市橘42", "url": "https://www.kaigokensaku.mhlw.go.jp/15/index.php?action_kouhyou_detail_004_kani=true&JigyosyoCd=1592200057-00&ServiceCd=720&Type=search", "url2": "https://www.clover-sado.com/" }, "geometry": { "type": "Point", "coordinates": [ 138.232395, 37.9774276 ] } },
{ "type": "Feature", "properties": { "内容": "ツクイ佐渡かないグループホーム【認知症対応型通所介護】新潟県佐渡市吉井本郷字新町144-1", "url": "https://www.kaigokensaku.mhlw.go.jp/15/index.php?action_kouhyou_detail_004_kani=true&JigyosyoCd=1592200024-00&ServiceCd=720&Type=search", "url2": "http://www.tsukui.net/" }, "geometry": { "type": "Point", "coordinates": [ 138.391724856483506, 38.046309916166784 ] } },
{ "type": "Feature", "properties": { "内容": "デイサービスセンターこだま【認知症対応型通所介護】新潟県魚沼市十日町２４３－４", "url": "https://www.kaigokensaku.mhlw.go.jp/15/index.php?action_kouhyou_detail_004_kani=true&JigyosyoCd=1592300121-00&ServiceCd=720&Type=search", "url2": null }, "geometry": { "type": "Point", "coordinates": [ 138.945592437434328, 37.193785898244471 ] } },
{ "type": "Feature", "properties": { "内容": "雪椿の里デイサービスセンター【認知症対応型通所介護】新潟県南魚沼市穴地１４番地１", "url": "https://www.kaigokensaku.mhlw.go.jp/15/index.php?action_kouhyou_detail_004_kani=true&JigyosyoCd=1592400178-00&ServiceCd=720&Type=search", "url2": "http://yukitsubakinosato.com" }, "geometry": { "type": "Point", "coordinates": [ 138.95387089999997, 37.1370822 ] } },
{ "type": "Feature", "properties": { "内容": "デイサービスセンターきらめき【認知症対応型通所介護】新潟県西蒲原郡弥彦村大字矢作4622番地", "url": "https://www.kaigokensaku.mhlw.go.jp/15/index.php?action_kouhyou_detail_004_kani=true&JigyosyoCd=1575200819-00&ServiceCd=720&Type=search", "url2": "http://yahiko-shakyo.com/" }, "geometry": { "type": "Point", "coordinates": [ 138.855140500000061, 37.6978369 ] } },
{ "type": "Feature", "properties": { "内容": "グループホームこいて【認知症対応型通所介護】西蒲原郡弥彦村矢作4623番地", "url": "https://www.kaigokensaku.mhlw.go.jp/15/index.php?action_kouhyou_detail_004_kani=true&JigyosyoCd=1595200013-00&ServiceCd=720&Type=search", "url2": "https://www.sakurai-fukushi.or.jp/" }, "geometry": { "type": "Point", "coordinates": [ 138.855609800000025, 37.6986313 ] } },
{ "type": "Feature", "properties": { "内容": "デイホーム雪割草【認知症対応型通所介護】新潟県南魚沼郡湯沢町大字土樽151-116", "url": "https://www.kaigokensaku.mhlw.go.jp/15/index.php?action_kouhyou_detail_004_kani=true&JigyosyoCd=1595800010-00&ServiceCd=720&Type=search", "url2": "http://naebafukushikai.com/" }, "geometry": { "type": "Point", "coordinates": [ 138.837605, 36.927348 ] } },
{ "type": "Feature", "properties": { "内容": "スマイルハウスつなん【認知症対応型通所介護】新潟県中魚沼郡津南町大字下船渡戊944-1", "url": "https://www.kaigokensaku.mhlw.go.jp/15/index.php?action_kouhyou_detail_004_kani=true&JigyosyoCd=1595900034-00&ServiceCd=720&Type=search", "url2": null }, "geometry": { "type": "Point", "coordinates": [ 138.648230799999965, 37.0151795 ] } },
{ "type": "Feature", "properties": { "内容": "ケアホーム恵福園なかつ【認知症対応型通所介護】新潟県中魚沼郡津南町大字中深見甲5540番地", "url": "https://www.kaigokensaku.mhlw.go.jp/15/index.php?action_kouhyou_detail_004_kani=true&JigyosyoCd=1595900042-00&ServiceCd=720&Type=search", "url2": "http://www.keifukuen.or.jp" }, "geometry": { "type": "Point", "coordinates": [ 138.6701018, 36.9910936 ] } },
{ "type": "Feature", "properties": { "内容": "関川村高齢者生活福祉センター【認知症対応型通所介護】新潟県岩船郡関川村大字湯沢1862-1", "url": "https://www.kaigokensaku.mhlw.go.jp/15/index.php?action_kouhyou_detail_004_kani=true&JigyosyoCd=1576400269-00&ServiceCd=720&Type=search", "url2": "http://www.fukuseki.or.jp/" }, "geometry": { "type": "Point", "coordinates": [ 139.576291399999945, 38.0935725 ] } }
]
}
