{
"type": "FeatureCollection",
"name": "geo_15_特定福祉用具販売",
"crs": { "type": "name", "properties": { "name": "urn:ogc:def:crs:OGC:1.3:CRS84" } },
"features": [
{ "type": "Feature", "properties": { "内容": "株式会社　ケアサポート新潟【特定福祉用具販売】新潟県新潟市北区白新町3丁目4番15号サンプラザビル１F", "url2": "https://www.kaigokensaku.mhlw.go.jp/15/index.php?action_kouhyou_detail_004_kani=true&JigyosyoCd=1570104115-00&ServiceCd=410&Type=search" }, "geometry": { "type": "Point", "coordinates": [ 139.2145396, 37.9151702 ] } },
{ "type": "Feature", "properties": { "内容": "アレック北栄　新潟東【特定福祉用具販売】新潟県新潟市東区船江町２丁目５番１５号", "url2": "https://www.kaigokensaku.mhlw.go.jp/15/index.php?action_kouhyou_detail_004_kani=true&JigyosyoCd=1570101004-00&ServiceCd=410&Type=search" }, "geometry": { "type": "Point", "coordinates": [ 139.0984272, 37.9538907 ] } },
{ "type": "Feature", "properties": { "内容": "シルバーサポート新潟店【特定福祉用具販売】新潟県新潟市東区紫竹卸新町1998－1", "url2": "https://www.kaigokensaku.mhlw.go.jp/15/index.php?action_kouhyou_detail_004_kani=true&JigyosyoCd=1570101319-00&ServiceCd=410&Type=search" }, "geometry": { "type": "Point", "coordinates": [ 139.0889403, 37.9060839 ] } },
{ "type": "Feature", "properties": { "内容": "新潟県基準寝具株式会社【特定福祉用具販売】新潟県新潟市東区中木戸382番地", "url2": "https://www.kaigokensaku.mhlw.go.jp/15/index.php?action_kouhyou_detail_004_kani=true&JigyosyoCd=1570100659-00&ServiceCd=410&Type=search" }, "geometry": { "type": "Point", "coordinates": [ 139.096871100000044, 37.92774330000001 ] } },
{ "type": "Feature", "properties": { "内容": "はあとふるあたご　福祉用具新潟東【特定福祉用具販売】新潟県新潟市東区海老ヶ瀬987-1", "url2": "https://www.kaigokensaku.mhlw.go.jp/15/index.php?action_kouhyou_detail_004_kani=true&JigyosyoCd=1570102614-00&ServiceCd=410&Type=search" }, "geometry": { "type": "Point", "coordinates": [ 139.122721100000035, 37.9339034 ] } },
{ "type": "Feature", "properties": { "内容": "株式会社メディカルライフ【特定福祉用具販売】新潟県新潟市東区中島2丁目1番16号グリーンハウス1階", "url2": "https://www.kaigokensaku.mhlw.go.jp/15/index.php?action_kouhyou_detail_004_kani=true&JigyosyoCd=1570102754-00&ServiceCd=410&Type=search" }, "geometry": { "type": "Point", "coordinates": [ 139.110420237093194, 37.908904505664658 ] } },
{ "type": "Feature", "properties": { "内容": "太陽【特定福祉用具販売】新潟県新潟市東区牡丹山5丁目１８番１８号サンパレス１０１号室", "url2": "https://www.kaigokensaku.mhlw.go.jp/15/index.php?action_kouhyou_detail_004_kani=true&JigyosyoCd=1570115517-00&ServiceCd=410&Type=search" }, "geometry": { "type": "Point", "coordinates": [ 139.0982704, 37.9201801 ] } },
{ "type": "Feature", "properties": { "内容": "プレイスメントサービス【特定福祉用具販売】新潟県新潟市東区江南4丁目2番地11", "url2": "https://www.kaigokensaku.mhlw.go.jp/15/index.php?action_kouhyou_detail_004_kani=true&JigyosyoCd=1570108199-00&ServiceCd=410&Type=search" }, "geometry": { "type": "Point", "coordinates": [ 139.08210102275396, 37.905343189854911 ] } },
{ "type": "Feature", "properties": { "内容": "SOMPOケア　新潟　福祉用具【特定福祉用具販売】新潟県新潟市東区紫竹5丁目26番1号2階", "url2": "https://www.kaigokensaku.mhlw.go.jp/15/index.php?action_kouhyou_detail_004_kani=true&JigyosyoCd=1570114437-00&ServiceCd=410&Type=search" }, "geometry": { "type": "Point", "coordinates": [ 139.081148500000012, 37.9062176 ] } },
{ "type": "Feature", "properties": { "内容": "さくらメディカル株式会社　新潟東営業所【特定福祉用具販売】新潟県新潟市東区竹尾2-19-7", "url2": "https://www.kaigokensaku.mhlw.go.jp/15/index.php?action_kouhyou_detail_004_kani=true&JigyosyoCd=1570116002-00&ServiceCd=410&Type=search" }, "geometry": { "type": "Point", "coordinates": [ 139.090675500000032, 37.9115966 ] } },
{ "type": "Feature", "properties": { "内容": "バイタルケア新潟介護ショップ【特定福祉用具販売】新潟県新潟市中央区川岸町2-8-2", "url2": "https://www.kaigokensaku.mhlw.go.jp/15/index.php?action_kouhyou_detail_004_kani=true&JigyosyoCd=1570105492-00&ServiceCd=410&Type=search" }, "geometry": { "type": "Point", "coordinates": [ 139.0305962, 37.9101439 ] } },
{ "type": "Feature", "properties": { "内容": "パナソニックエイジフリーショップ新潟【特定福祉用具販売】新潟県新潟市中央区弁天橋通1-31-12", "url2": "https://www.kaigokensaku.mhlw.go.jp/15/index.php?action_kouhyou_detail_004_kani=true&JigyosyoCd=1570109627-00&ServiceCd=410&Type=search" }, "geometry": { "type": "Point", "coordinates": [ 139.070133619332523, 37.895858547115672 ] } },
{ "type": "Feature", "properties": { "内容": "常陽会福祉用具サービス【特定福祉用具販売】新潟県新潟市中央区南長潟8番12号北越農林2階", "url2": "https://www.kaigokensaku.mhlw.go.jp/15/index.php?action_kouhyou_detail_004_kani=true&JigyosyoCd=1570115038-00&ServiceCd=410&Type=search" }, "geometry": { "type": "Point", "coordinates": [ 139.073981300000014, 37.8843808 ] } },
{ "type": "Feature", "properties": { "内容": "フランスベッド株式会社メディカル新潟営業所【特定福祉用具販売】新潟県新潟市中央区南出来島1丁目4番4号", "url2": "https://www.kaigokensaku.mhlw.go.jp/15/index.php?action_kouhyou_detail_004_kani=true&JigyosyoCd=1570108561-00&ServiceCd=410&Type=search" }, "geometry": { "type": "Point", "coordinates": [ 139.029228399999965, 37.896004 ] } },
{ "type": "Feature", "properties": { "内容": "さくらメディカル株式会社　新潟支店【特定福祉用具販売】新潟県新潟市中央区上沼710番地", "url2": "https://www.kaigokensaku.mhlw.go.jp/15/index.php?action_kouhyou_detail_004_kani=true&JigyosyoCd=1570101780-00&ServiceCd=410&Type=search" }, "geometry": { "type": "Point", "coordinates": [ 139.036508599999934, 37.883049300000025 ] } },
{ "type": "Feature", "properties": { "内容": "あおやまメディカル株式会社【特定福祉用具販売】新潟県新潟市中央区湖南27－7", "url2": "https://www.kaigokensaku.mhlw.go.jp/15/index.php?action_kouhyou_detail_004_kani=true&JigyosyoCd=1570101012-00&ServiceCd=410&Type=search" }, "geometry": { "type": "Point", "coordinates": [ 139.041833600000018, 37.8732256 ] } },
{ "type": "Feature", "properties": { "内容": "株式会社フロンティア新潟営業所【特定福祉用具販売】新潟県新潟市中央区鳥屋野南3-12-20", "url2": "https://www.kaigokensaku.mhlw.go.jp/15/index.php?action_kouhyou_detail_004_kani=true&JigyosyoCd=1570111516-00&ServiceCd=410&Type=search" }, "geometry": { "type": "Point", "coordinates": [ 139.028806300000042, 37.8849989 ] } },
{ "type": "Feature", "properties": { "内容": "ロングライフ用具サポート【特定福祉用具販売】新潟県新潟市中央区有明大橋町3番25号NIC有明ビル2階", "url2": "https://www.kaigokensaku.mhlw.go.jp/15/index.php?action_kouhyou_detail_004_kani=true&JigyosyoCd=1570113314-00&ServiceCd=410&Type=search" }, "geometry": { "type": "Point", "coordinates": [ 139.011411665446332, 37.904595802962312 ] } },
{ "type": "Feature", "properties": { "内容": "はあとふるあたご　福祉用具新潟中央【特定福祉用具販売】新潟県新潟市中央区下大川前通四ノ町2186番地", "url2": "https://www.kaigokensaku.mhlw.go.jp/15/index.php?action_kouhyou_detail_004_kani=true&JigyosyoCd=1570114858-00&ServiceCd=410&Type=search" }, "geometry": { "type": "Point", "coordinates": [ 139.0524373, 37.9226086 ] } },
{ "type": "Feature", "properties": { "内容": "株式会社エヌ介護サービス新潟センター【特定福祉用具販売】新潟県新潟市中央区鳥屋野４６２番地２", "url2": "https://www.kaigokensaku.mhlw.go.jp/15/index.php?action_kouhyou_detail_004_kani=true&JigyosyoCd=1570116663-00&ServiceCd=410&Type=search" }, "geometry": { "type": "Point", "coordinates": [ 139.037911799999989, 37.8870638 ] } },
{ "type": "Feature", "properties": { "内容": "ダスキンヘルスレント新潟東ステーション【特定福祉用具販売】新潟県新潟市中央区愛宕1-2-9", "url2": "https://www.kaigokensaku.mhlw.go.jp/15/index.php?action_kouhyou_detail_004_kani=true&JigyosyoCd=1570112472-00&ServiceCd=410&Type=search" }, "geometry": { "type": "Point", "coordinates": [ 139.028712582568517, 37.88820565325139 ] } },
{ "type": "Feature", "properties": { "内容": "有限会社　ケアサプライどりーむ【特定福祉用具販売】新潟県新潟市秋葉区新津4442番地ニューハイツ藤1F", "url2": "https://www.kaigokensaku.mhlw.go.jp/15/index.php?action_kouhyou_detail_004_kani=true&JigyosyoCd=1570104107-00&ServiceCd=410&Type=search" }, "geometry": { "type": "Point", "coordinates": [ 139.1141658, 37.7940763 ] } },
{ "type": "Feature", "properties": { "内容": "シルバーサポート新潟南店【特定福祉用具販売】新潟県新潟市秋葉区車場4-12-34クレール1階", "url2": "https://www.kaigokensaku.mhlw.go.jp/15/index.php?action_kouhyou_detail_004_kani=true&JigyosyoCd=1570113371-00&ServiceCd=410&Type=search" }, "geometry": { "type": "Point", "coordinates": [ 139.10607159999995, 37.8334152 ] } },
{ "type": "Feature", "properties": { "内容": "うおのさぽーと【特定福祉用具販売】新潟県新潟市秋葉区中野3丁目18番2号", "url2": "https://www.kaigokensaku.mhlw.go.jp/15/index.php?action_kouhyou_detail_004_kani=true&JigyosyoCd=1570113488-00&ServiceCd=410&Type=search" }, "geometry": { "type": "Point", "coordinates": [ 139.1130841, 37.8354838 ] } },
{ "type": "Feature", "properties": { "内容": "株式会社ケンブリッジ新潟営業所【特定福祉用具販売】新潟県新潟市西区寺尾10-2", "url2": "https://www.kaigokensaku.mhlw.go.jp/15/index.php?action_kouhyou_detail_004_kani=true&JigyosyoCd=1570102358-00&ServiceCd=410&Type=search" }, "geometry": { "type": "Point", "coordinates": [ 138.979458300000033, 37.8807835 ] } },
{ "type": "Feature", "properties": { "内容": "リハ道場福祉用具貸与販売事業所【特定福祉用具販売】新潟県新潟市西区五十嵐2の町8718-34", "url2": "https://www.kaigokensaku.mhlw.go.jp/15/index.php?action_kouhyou_detail_004_kani=true&JigyosyoCd=1570113207-00&ServiceCd=410&Type=search" }, "geometry": { "type": "Point", "coordinates": [ 138.926316474187672, 37.864168619657882 ] } },
{ "type": "Feature", "properties": { "内容": "オレンジスマイル【特定福祉用具販売】新潟県新潟市西区小新西２丁目４番１３号", "url2": "https://www.kaigokensaku.mhlw.go.jp/15/index.php?action_kouhyou_detail_004_kani=true&JigyosyoCd=1570111615-00&ServiceCd=410&Type=search" }, "geometry": { "type": "Point", "coordinates": [ 138.991895, 37.8769347 ] } },
{ "type": "Feature", "properties": { "内容": "うちの介護用品レンタル株式会社【特定福祉用具販売】新潟県新潟市西区みずき野2丁目20番38号", "url2": "https://www.kaigokensaku.mhlw.go.jp/15/index.php?action_kouhyou_detail_004_kani=true&JigyosyoCd=1570113215-00&ServiceCd=410&Type=search" }, "geometry": { "type": "Point", "coordinates": [ 138.906822150595843, 37.814334124189237 ] } },
{ "type": "Feature", "properties": { "内容": "はあとふるあたご　福祉用具新潟西【特定福祉用具販売】新潟県新潟市西区坂井2丁目2番32号", "url2": "https://www.kaigokensaku.mhlw.go.jp/15/index.php?action_kouhyou_detail_004_kani=true&JigyosyoCd=1570113397-00&ServiceCd=410&Type=search" }, "geometry": { "type": "Point", "coordinates": [ 138.977195400000028, 37.8698123 ] } },
{ "type": "Feature", "properties": { "内容": "ALPHASさわやか苑新潟福祉用具サービス【特定福祉用具販売】新潟県新潟市緒立流通2丁目2-13", "url2": "https://www.kaigokensaku.mhlw.go.jp/15/index.php?action_kouhyou_detail_004_kani=true&JigyosyoCd=1570105930-00&ServiceCd=410&Type=search" }, "geometry": { "type": "Point", "coordinates": [ 139.042676049073862, 37.885652283370369 ] } },
{ "type": "Feature", "properties": { "内容": "株式会社アルプスビジネスクリエーション長岡店【特定福祉用具販売】新潟県長岡市東蔵王2-3-20", "url2": "https://www.kaigokensaku.mhlw.go.jp/15/index.php?action_kouhyou_detail_004_kani=true&JigyosyoCd=1570203347-00&ServiceCd=410&Type=search" }, "geometry": { "type": "Point", "coordinates": [ 138.85842550000001, 37.4717531 ] } },
{ "type": "Feature", "properties": { "内容": "株式会社フロンティア長岡営業所【特定福祉用具販売】新潟県長岡市神田町2丁目1-6", "url2": "https://www.kaigokensaku.mhlw.go.jp/15/index.php?action_kouhyou_detail_004_kani=true&JigyosyoCd=1570203982-00&ServiceCd=410&Type=search" }, "geometry": { "type": "Point", "coordinates": [ 138.853639772352579, 37.455834468719125 ] } },
{ "type": "Feature", "properties": { "内容": "エフビー介護サービス株式会社長岡営業所【特定福祉用具販売】新潟県長岡市高見町965-1", "url2": "https://www.kaigokensaku.mhlw.go.jp/15/index.php?action_kouhyou_detail_004_kani=true&JigyosyoCd=1570203719-00&ServiceCd=410&Type=search" }, "geometry": { "type": "Point", "coordinates": [ 138.860995699999989, 37.5005312 ] } },
{ "type": "Feature", "properties": { "内容": "アレック北栄　長岡【特定福祉用具販売】新潟県長岡市雨池町44-5", "url2": "https://www.kaigokensaku.mhlw.go.jp/15/index.php?action_kouhyou_detail_004_kani=true&JigyosyoCd=1570200251-00&ServiceCd=410&Type=search" }, "geometry": { "type": "Point", "coordinates": [ 138.8173825, 37.4679284 ] } },
{ "type": "Feature", "properties": { "内容": "クレアメディコ第１地域介護推進室【特定福祉用具販売】長岡市緑町1-38-280　緑町ビル2階　2-A号室", "url2": "https://www.kaigokensaku.mhlw.go.jp/15/index.php?action_kouhyou_detail_004_kani=true&JigyosyoCd=1570200202-00&ServiceCd=410&Type=search" }, "geometry": { "type": "Point", "coordinates": [ 138.822333100000037, 37.4486085 ] } },
{ "type": "Feature", "properties": { "内容": "さくらメディカル株式会社　長岡支店【特定福祉用具販売】新潟県長岡市古正寺3-143", "url2": "https://www.kaigokensaku.mhlw.go.jp/15/index.php?action_kouhyou_detail_004_kani=true&JigyosyoCd=1570200806-00&ServiceCd=410&Type=search" }, "geometry": { "type": "Point", "coordinates": [ 138.821151966270463, 37.459319236117651 ] } },
{ "type": "Feature", "properties": { "内容": "ダスキンヘルスレント長岡ステーション【特定福祉用具販売】新潟県長岡市西津町3811番地2", "url2": "https://www.kaigokensaku.mhlw.go.jp/15/index.php?action_kouhyou_detail_004_kani=true&JigyosyoCd=1570201143-00&ServiceCd=410&Type=search" }, "geometry": { "type": "Point", "coordinates": [ 138.812356300000033, 37.450911 ] } },
{ "type": "Feature", "properties": { "内容": "ラミコジャパン株式会社　シルバーサポート長岡店【特定福祉用具販売】長岡市蓮潟町字五郎作428番7", "url2": "https://www.kaigokensaku.mhlw.go.jp/15/index.php?action_kouhyou_detail_004_kani=true&JigyosyoCd=1570201176-00&ServiceCd=410&Type=search" }, "geometry": { "type": "Point", "coordinates": [ 138.820906270426065, 37.473932430343872 ] } },
{ "type": "Feature", "properties": { "内容": "株式会社アルプスビジネスクリエーション県央店【特定福祉用具販売】三条市須頃1-8", "url2": "https://www.kaigokensaku.mhlw.go.jp/15/index.php?action_kouhyou_detail_004_kani=true&JigyosyoCd=1570401586-00&ServiceCd=410&Type=search" }, "geometry": { "type": "Point", "coordinates": [ 138.932849800000014, 37.64898 ] } },
{ "type": "Feature", "properties": { "内容": "はあとふるあたご　福祉用具三条【特定福祉用具販売】新潟県三条市西四日町3丁目4番5号", "url2": "https://www.kaigokensaku.mhlw.go.jp/15/index.php?action_kouhyou_detail_004_kani=true&JigyosyoCd=1570401883-00&ServiceCd=410&Type=search" }, "geometry": { "type": "Point", "coordinates": [ 138.951113, 37.6226782 ] } },
{ "type": "Feature", "properties": { "内容": "さくらメディカル株式会社　県央営業所【特定福祉用具販売】新潟県三条市西裏館2丁目6番2号STビル", "url2": "https://www.kaigokensaku.mhlw.go.jp/15/index.php?action_kouhyou_detail_004_kani=true&JigyosyoCd=1570401461-00&ServiceCd=410&Type=search" }, "geometry": { "type": "Point", "coordinates": [ 138.954784315567537, 37.636049522618521 ] } },
{ "type": "Feature", "properties": { "内容": "ラミコジャパン株式会社　シルバーサポート三条店【特定福祉用具販売】新潟県三条市三竹3丁目1-65", "url2": "https://www.kaigokensaku.mhlw.go.jp/15/index.php?action_kouhyou_detail_004_kani=true&JigyosyoCd=1571300266-00&ServiceCd=410&Type=search" }, "geometry": { "type": "Point", "coordinates": [ 138.980775176748722, 37.628887804060653 ] } },
{ "type": "Feature", "properties": { "内容": "ALPHASさわやか苑県央福祉用具サービス【特定福祉用具販売】新潟県三条市北入蔵2丁目7番14号シルバーハウスさわやか苑三条東", "url2": "https://www.kaigokensaku.mhlw.go.jp/15/index.php?action_kouhyou_detail_004_kani=true&JigyosyoCd=1570401784-00&ServiceCd=410&Type=search" }, "geometry": { "type": "Point", "coordinates": [ 138.98551470000001, 37.6356011 ] } },
{ "type": "Feature", "properties": { "内容": "株式会社フロンティア三条営業所【特定福祉用具販売】新潟県三条市須頃2-23", "url2": "https://www.kaigokensaku.mhlw.go.jp/15/index.php?action_kouhyou_detail_004_kani=true&JigyosyoCd=1570402014-00&ServiceCd=410&Type=search" }, "geometry": { "type": "Point", "coordinates": [ 138.94144510000001, 37.6469258 ] } },
{ "type": "Feature", "properties": { "内容": "シルバーサポートあすも【特定福祉用具販売】新潟県三条市東裏館2丁目13-15", "url2": "https://www.kaigokensaku.mhlw.go.jp/15/index.php?action_kouhyou_detail_004_kani=true&JigyosyoCd=1571300845-00&ServiceCd=410&Type=search" }, "geometry": { "type": "Point", "coordinates": [ 138.958244799999989, 37.6381678 ] } },
{ "type": "Feature", "properties": { "内容": "株式会社ケンブリッジ【特定福祉用具販売】柏崎市中央町７番７号", "url2": "https://www.kaigokensaku.mhlw.go.jp/15/index.php?action_kouhyou_detail_004_kani=true&JigyosyoCd=1570500353-00&ServiceCd=410&Type=search" }, "geometry": { "type": "Point", "coordinates": [ 138.55857519999995, 37.3731748 ] } },
{ "type": "Feature", "properties": { "内容": "株式会社アルプスビジネスクリエーション柏崎店【特定福祉用具販売】新潟県柏崎市田塚1丁目1-28", "url2": "https://www.kaigokensaku.mhlw.go.jp/15/index.php?action_kouhyou_detail_004_kani=true&JigyosyoCd=1570501138-00&ServiceCd=410&Type=search" }, "geometry": { "type": "Point", "coordinates": [ 138.578514600000062, 37.3716505 ] } },
{ "type": "Feature", "properties": { "内容": "アイ・ケアーズ【特定福祉用具販売】柏崎市長峰町11番12号", "url2": "https://www.kaigokensaku.mhlw.go.jp/15/index.php?action_kouhyou_detail_004_kani=true&JigyosyoCd=1570500726-00&ServiceCd=410&Type=search" }, "geometry": { "type": "Point", "coordinates": [ 138.569046800000024, 37.349889 ] } },
{ "type": "Feature", "properties": { "内容": "さくらメディカル株式会社　新発田営業所【特定福祉用具販売】新潟県新発田市本町3-506-1", "url2": "https://www.kaigokensaku.mhlw.go.jp/15/index.php?action_kouhyou_detail_004_kani=true&JigyosyoCd=1570600526-00&ServiceCd=410&Type=search" }, "geometry": { "type": "Point", "coordinates": [ 139.334084484254049, 37.950253117038571 ] } },
{ "type": "Feature", "properties": { "内容": "株式会社　五十嵐薬品【特定福祉用具販売】新潟県新発田市本町1-2-3", "url2": "https://www.kaigokensaku.mhlw.go.jp/15/index.php?action_kouhyou_detail_004_kani=true&JigyosyoCd=1570600062-00&ServiceCd=410&Type=search" }, "geometry": { "type": "Point", "coordinates": [ 139.333525300000019, 37.9457614 ] } },
{ "type": "Feature", "properties": { "内容": "はあとふるあたご　福祉用具新発田【特定福祉用具販売】新発田市新富町1丁目4番10号", "url2": "https://www.kaigokensaku.mhlw.go.jp/15/index.php?action_kouhyou_detail_004_kani=true&JigyosyoCd=1570600740-00&ServiceCd=410&Type=search" }, "geometry": { "type": "Point", "coordinates": [ 139.336379061885026, 37.955233137237713 ] } },
{ "type": "Feature", "properties": { "内容": "ライフクリエィションCO．，LTD．有限会社【特定福祉用具販売】新潟県新発田市下中ノ目665番地", "url2": "https://www.kaigokensaku.mhlw.go.jp/15/index.php?action_kouhyou_detail_004_kani=true&JigyosyoCd=1570601391-00&ServiceCd=410&Type=search" }, "geometry": { "type": "Point", "coordinates": [ 139.304308, 37.9209959 ] } },
{ "type": "Feature", "properties": { "内容": "クレアメディコ小千谷地域介護推進室【特定福祉用具販売】新潟県小千谷市本町1-6-13", "url2": "https://www.kaigokensaku.mhlw.go.jp/15/index.php?action_kouhyou_detail_004_kani=true&JigyosyoCd=1570800555-00&ServiceCd=410&Type=search" }, "geometry": { "type": "Point", "coordinates": [ 138.799728870639001, 37.310403466773842 ] } },
{ "type": "Feature", "properties": { "内容": "クスリのみどり【特定福祉用具販売】小千谷市城内1-1283-3", "url2": "https://www.kaigokensaku.mhlw.go.jp/15/index.php?action_kouhyou_detail_004_kani=true&JigyosyoCd=1570800233-00&ServiceCd=410&Type=search" }, "geometry": { "type": "Point", "coordinates": [ 138.795822137434357, 37.313334732810283 ] } },
{ "type": "Feature", "properties": { "内容": "株式会社田辺喜平商店福祉用具貸与・販売事業所【特定福祉用具販売】新潟県加茂市上町７－１０", "url2": "https://www.kaigokensaku.mhlw.go.jp/15/index.php?action_kouhyou_detail_004_kani=true&JigyosyoCd=1570900215-00&ServiceCd=410&Type=search" }, "geometry": { "type": "Point", "coordinates": [ 139.058066, 37.6575423 ] } },
{ "type": "Feature", "properties": { "内容": "越後交通株式会社介護事業部十日町営業所【特定福祉用具販売】新潟県十日町市下川原町27番地", "url2": "https://www.kaigokensaku.mhlw.go.jp/15/index.php?action_kouhyou_detail_004_kani=true&JigyosyoCd=1571001146-00&ServiceCd=410&Type=search" }, "geometry": { "type": "Point", "coordinates": [ 138.7593831, 37.1423178 ] } },
{ "type": "Feature", "properties": { "内容": "スマイル十日町店【特定福祉用具販売】新潟県十日町市高山3丁目795", "url2": "https://www.kaigokensaku.mhlw.go.jp/15/index.php?action_kouhyou_detail_004_kani=true&JigyosyoCd=1571001229-00&ServiceCd=410&Type=search" }, "geometry": { "type": "Point", "coordinates": [ 138.74346296657464, 37.131621501325952 ] } },
{ "type": "Feature", "properties": { "内容": "福祉用具のふれあい【特定福祉用具販売】新潟県十日町市山谷650番地1ゆいテラスやまや　内", "url2": "https://www.kaigokensaku.mhlw.go.jp/15/index.php?action_kouhyou_detail_004_kani=true&JigyosyoCd=1571001237-00&ServiceCd=410&Type=search" }, "geometry": { "type": "Point", "coordinates": [ 138.726475521720914, 37.147877090658611 ] } },
{ "type": "Feature", "properties": { "内容": "ラミコジャパン株式会社　シルバーサポート十日町店【特定福祉用具販売】新潟県十日町市大黒沢179番地", "url2": "https://www.kaigokensaku.mhlw.go.jp/15/index.php?action_kouhyou_detail_004_kani=true&JigyosyoCd=1571001179-00&ServiceCd=410&Type=search" }, "geometry": { "type": "Point", "coordinates": [ 138.743221799999986, 37.1090579 ] } },
{ "type": "Feature", "properties": { "内容": "株式会社ケンブリッジ中越営業所【特定福祉用具販売】新潟県見附市今町5-38-23", "url2": "https://www.kaigokensaku.mhlw.go.jp/15/index.php?action_kouhyou_detail_004_kani=true&JigyosyoCd=1571100609-00&ServiceCd=410&Type=search" }, "geometry": { "type": "Point", "coordinates": [ 138.892483, 37.5521987 ] } },
{ "type": "Feature", "properties": { "内容": "はあとふるあたご福祉用具村上【特定福祉用具販売】新潟県村上市南町2-11-40", "url2": "https://www.kaigokensaku.mhlw.go.jp/15/index.php?action_kouhyou_detail_004_kani=true&JigyosyoCd=1571201175-00&ServiceCd=410&Type=search" }, "geometry": { "type": "Point", "coordinates": [ 139.472397199999989, 38.2158231 ] } },
{ "type": "Feature", "properties": { "内容": "シルバーサポートかんきち堂店【特定福祉用具販売】新潟県村上市山居町1丁目8番55号", "url2": "https://www.kaigokensaku.mhlw.go.jp/15/index.php?action_kouhyou_detail_004_kani=true&JigyosyoCd=1571200052-00&ServiceCd=410&Type=search" }, "geometry": { "type": "Point", "coordinates": [ 139.466811799999959, 38.2158826 ] } },
{ "type": "Feature", "properties": { "内容": "ライフ【特定福祉用具販売】新潟県村上市下鍜冶屋７６２番地２", "url2": "https://www.kaigokensaku.mhlw.go.jp/15/index.php?action_kouhyou_detail_004_kani=true&JigyosyoCd=1571200987-00&ServiceCd=410&Type=search" }, "geometry": { "type": "Point", "coordinates": [ 139.455178899999964, 38.1125812 ] } },
{ "type": "Feature", "properties": { "内容": "えちご上越農業協同組合　ふれあい介護センター　愛あい【特定福祉用具販売】新潟県糸魚川市大和川436", "url2": "https://www.kaigokensaku.mhlw.go.jp/15/index.php?action_kouhyou_detail_004_kani=true&JigyosyoCd=1571500055-00&ServiceCd=410&Type=search" }, "geometry": { "type": "Point", "coordinates": [ 137.8977975, 37.0534044 ] } },
{ "type": "Feature", "properties": { "内容": "ごせん福祉レンタル【特定福祉用具販売】新潟県五泉市三本木2-1-14", "url2": "https://www.kaigokensaku.mhlw.go.jp/15/index.php?action_kouhyou_detail_004_kani=true&JigyosyoCd=1571700887-00&ServiceCd=410&Type=search" }, "geometry": { "type": "Point", "coordinates": [ 139.177383099999986, 37.7543339 ] } },
{ "type": "Feature", "properties": { "内容": "ホームケアプラス福祉用具事業所【特定福祉用具販売】新潟県上越市大字中田原80-28", "url2": "https://www.kaigokensaku.mhlw.go.jp/15/index.php?action_kouhyou_detail_004_kani=true&JigyosyoCd=1570303097-00&ServiceCd=410&Type=search" }, "geometry": { "type": "Point", "coordinates": [ 138.234286300528566, 37.094739238481239 ] } },
{ "type": "Feature", "properties": { "内容": "株式会社フロンティア上越営業所【特定福祉用具販売】新潟県上越市下源入大野274-1", "url2": "https://www.kaigokensaku.mhlw.go.jp/15/index.php?action_kouhyou_detail_004_kani=true&JigyosyoCd=1570304178-00&ServiceCd=410&Type=search" }, "geometry": { "type": "Point", "coordinates": [ 138.255977767181406, 37.166738105026013 ] } },
{ "type": "Feature", "properties": { "内容": "ワークライフふじまき【特定福祉用具販売】新潟県上越市藤巻7番35号", "url2": "https://www.kaigokensaku.mhlw.go.jp/15/index.php?action_kouhyou_detail_004_kani=true&JigyosyoCd=1570300119-00&ServiceCd=410&Type=search" }, "geometry": { "type": "Point", "coordinates": [ 138.243902, 37.1365104 ] } },
{ "type": "Feature", "properties": { "内容": "だんらん福祉用具貸与販売事業所【特定福祉用具販売】新潟県上越市頸城区北方125番地9", "url2": "https://www.kaigokensaku.mhlw.go.jp/15/index.php?action_kouhyou_detail_004_kani=true&JigyosyoCd=1570303394-00&ServiceCd=410&Type=search" }, "geometry": { "type": "Point", "coordinates": [ 138.3241907, 37.1901705 ] } },
{ "type": "Feature", "properties": { "内容": "さくらメディカル株式会社　上越支社【特定福祉用具販売】新潟県上越市子安1378番地", "url2": "https://www.kaigokensaku.mhlw.go.jp/15/index.php?action_kouhyou_detail_004_kani=true&JigyosyoCd=1570300150-00&ServiceCd=410&Type=search" }, "geometry": { "type": "Point", "coordinates": [ 138.274531199999927, 37.107629 ] } },
{ "type": "Feature", "properties": { "内容": "有限会社　上新ライフサービス【特定福祉用具販売】新潟県上越市西城町1-1-20", "url2": "https://www.kaigokensaku.mhlw.go.jp/15/index.php?action_kouhyou_detail_004_kani=true&JigyosyoCd=1570300903-00&ServiceCd=410&Type=search" }, "geometry": { "type": "Point", "coordinates": [ 138.2512456, 37.1155282 ] } },
{ "type": "Feature", "properties": { "内容": "株式会社栗原医療器械店　上越オフィス【特定福祉用具販売】新潟県上越市平成町554番地", "url2": "https://www.kaigokensaku.mhlw.go.jp/15/index.php?action_kouhyou_detail_004_kani=true&JigyosyoCd=1570303980-00&ServiceCd=410&Type=search" }, "geometry": { "type": "Point", "coordinates": [ 138.2849731, 37.1227037 ] } },
{ "type": "Feature", "properties": { "内容": "エフビー介護サービス株式会社　上越営業所【特定福祉用具販売】新潟県上越市新光町1-6-16", "url2": "https://www.kaigokensaku.mhlw.go.jp/15/index.php?action_kouhyou_detail_004_kani=true&JigyosyoCd=1570300846-00&ServiceCd=410&Type=search" }, "geometry": { "type": "Point", "coordinates": [ 138.238549199999966, 37.1503503 ] } },
{ "type": "Feature", "properties": { "内容": "しるばーさぽーとじょうえつてん【特定福祉用具販売】新潟県上越市下門前899-1", "url2": "https://www.kaigokensaku.mhlw.go.jp/15/index.php?action_kouhyou_detail_004_kani=true&JigyosyoCd=1570302123-00&ServiceCd=410&Type=search" }, "geometry": { "type": "Point", "coordinates": [ 138.2487797, 37.1596759 ] } },
{ "type": "Feature", "properties": { "内容": "サクラケア　上越店【特定福祉用具販売】上越市国府1丁目2-38", "url2": "https://www.kaigokensaku.mhlw.go.jp/15/index.php?action_kouhyou_detail_004_kani=true&JigyosyoCd=1570302248-00&ServiceCd=410&Type=search" }, "geometry": { "type": "Point", "coordinates": [ 138.2288858, 37.165207 ] } },
{ "type": "Feature", "properties": { "内容": "有限会社　とき【特定福祉用具販売】新潟県阿賀野市北園町1番32号", "url2": "https://www.kaigokensaku.mhlw.go.jp/15/index.php?action_kouhyou_detail_004_kani=true&JigyosyoCd=1572100152-00&ServiceCd=410&Type=search" }, "geometry": { "type": "Point", "coordinates": [ 139.229417026319879, 37.845154679883066 ] } },
{ "type": "Feature", "properties": { "内容": "株式会社五頭クリーンサービス介護事業部【特定福祉用具販売】新潟県阿賀野市保田4439番地", "url2": "https://www.kaigokensaku.mhlw.go.jp/15/index.php?action_kouhyou_detail_004_kani=true&JigyosyoCd=1572100160-00&ServiceCd=410&Type=search" }, "geometry": { "type": "Point", "coordinates": [ 139.237968099999989, 37.771988800000017 ] } },
{ "type": "Feature", "properties": { "内容": "介護サービスセンター　ふれあい館【特定福祉用具販売】佐渡市千種５８番地１", "url2": "https://www.kaigokensaku.mhlw.go.jp/15/index.php?action_kouhyou_detail_004_kani=true&JigyosyoCd=1572200846-00&ServiceCd=410&Type=search" }, "geometry": { "type": "Point", "coordinates": [ 138.364544782803364, 38.021638806756258 ] } },
{ "type": "Feature", "properties": { "内容": "ふれあい館　南佐渡【特定福祉用具販売】新潟県佐渡市羽茂本郷190番地１", "url2": "https://www.kaigokensaku.mhlw.go.jp/15/index.php?action_kouhyou_detail_004_kani=true&JigyosyoCd=1572201141-00&ServiceCd=410&Type=search" }, "geometry": { "type": "Point", "coordinates": [ 138.31366479999997, 37.8422766 ] } },
{ "type": "Feature", "properties": { "内容": "株式会社　内田家具【特定福祉用具販売】新潟県佐渡市両津夷168", "url2": "https://www.kaigokensaku.mhlw.go.jp/15/index.php?action_kouhyou_detail_004_kani=true&JigyosyoCd=1572200754-00&ServiceCd=410&Type=search" }, "geometry": { "type": "Point", "coordinates": [ 138.4322881, 38.0871997 ] } },
{ "type": "Feature", "properties": { "内容": "株式会社アルプスビジネスクリエーション魚沼店【特定福祉用具販売】新潟県魚沼市小出島1177", "url2": "https://www.kaigokensaku.mhlw.go.jp/15/index.php?action_kouhyou_detail_004_kani=true&JigyosyoCd=1572300661-00&ServiceCd=410&Type=search" }, "geometry": { "type": "Point", "coordinates": [ 138.964202056344675, 37.239357651307728 ] } },
{ "type": "Feature", "properties": { "内容": "さくらメディカル株式会社　魚沼営業所【特定福祉用具販売】新潟県南魚沼市浦佐1335", "url2": "https://www.kaigokensaku.mhlw.go.jp/15/index.php?action_kouhyou_detail_004_kani=true&JigyosyoCd=1572400057-00&ServiceCd=410&Type=search" }, "geometry": { "type": "Point", "coordinates": [ 138.925677299999961, 37.165876900000015 ] } },
{ "type": "Feature", "properties": { "内容": "シルバーサポートスマイル【特定福祉用具販売】新潟県南魚沼市六日町2367-1", "url2": "https://www.kaigokensaku.mhlw.go.jp/15/index.php?action_kouhyou_detail_004_kani=true&JigyosyoCd=1572400610-00&ServiceCd=410&Type=search" }, "geometry": { "type": "Point", "coordinates": [ 138.868301, 37.0603945 ] } },
{ "type": "Feature", "properties": { "内容": "越後交通株式会社　介護事業部　魚沼営業所【特定福祉用具販売】新潟県南魚沼市塩沢787-5", "url2": "https://www.kaigokensaku.mhlw.go.jp/15/index.php?action_kouhyou_detail_004_kani=true&JigyosyoCd=1572401113-00&ServiceCd=410&Type=search" }, "geometry": { "type": "Point", "coordinates": [ 138.865811200000053, 37.0463682 ] } },
{ "type": "Feature", "properties": { "内容": "株式会社フロンティア魚沼営業所【特定福祉用具販売】新潟県南魚沼市野田585-1", "url2": "https://www.kaigokensaku.mhlw.go.jp/15/index.php?action_kouhyou_detail_004_kani=true&JigyosyoCd=1572401246-00&ServiceCd=410&Type=search" }, "geometry": { "type": "Point", "coordinates": [ 138.879169, 37.0973705 ] } },
{ "type": "Feature", "properties": { "内容": "株式会社河内建築介護福祉事業部ミライエ【特定福祉用具販売】新潟県胎内市大出916-1", "url2": "https://www.kaigokensaku.mhlw.go.jp/15/index.php?action_kouhyou_detail_004_kani=true&JigyosyoCd=1572500492-00&ServiceCd=410&Type=search" }, "geometry": { "type": "Point", "coordinates": [ 139.3945616, 38.1029361 ] } },
{ "type": "Feature", "properties": { "内容": "ライフパートナー【特定福祉用具販売】新潟県胎内市あかね町27-12株式会社カエツ工業中条営業所", "url2": "https://www.kaigokensaku.mhlw.go.jp/15/index.php?action_kouhyou_detail_004_kani=true&JigyosyoCd=1572500278-00&ServiceCd=410&Type=search" }, "geometry": { "type": "Point", "coordinates": [ 139.3941049, 38.0551493 ] } }
]
}
