{
"type": "FeatureCollection",
"name": "geo_15_大学",
"crs": { "type": "name", "properties": { "name": "urn:ogc:def:crs:EPSG::6668" } },
"features": [
{ "type": "Feature", "properties": { "P29_001": "15107", "P29_002": "F115110105046", "P29_003": "16007", "P29_004": "新潟大学", "P29_005": "新潟県新潟市西区五十嵐2の町8050", "P29_006": "1", "P29_007": "0", "P29_008": "01", "P29_009": "五十嵐キャンパス" }, "geometry": { "type": "Point", "coordinates": [ 138.941644125962625, 37.868521238238323 ] } },
{ "type": "Feature", "properties": { "P29_001": "15202", "P29_002": "F115110105055", "P29_003": "16007", "P29_004": "長岡技術科学大学", "P29_005": "新潟県長岡市上富岡町1603-1", "P29_006": "1", "P29_007": "0", "P29_008": "00", "P29_009": null }, "geometry": { "type": "Point", "coordinates": [ 138.778126655744444, 37.424564100899296 ] } },
{ "type": "Feature", "properties": { "P29_001": "15222", "P29_002": "F115110105064", "P29_003": "16007", "P29_004": "上越教育大学", "P29_005": "新潟県上越市山屋敷町1", "P29_006": "1", "P29_007": "0", "P29_008": "00", "P29_009": null }, "geometry": { "type": "Point", "coordinates": [ 138.225281448632842, 37.136279147779447 ] } },
{ "type": "Feature", "properties": { "P29_001": "15222", "P29_002": "F115210105071", "P29_003": "16007", "P29_004": "新潟県立看護大学", "P29_005": "新潟県上越市新南町240", "P29_006": "2", "P29_007": "0", "P29_008": "00", "P29_009": null }, "geometry": { "type": "Point", "coordinates": [ 138.268425184589404, 37.105664382328733 ] } },
{ "type": "Feature", "properties": { "P29_001": "15102", "P29_002": "F115210105080", "P29_003": "16007", "P29_004": "新潟県立大学", "P29_005": "新潟県新潟市東区海老ケ瀬471", "P29_006": "2", "P29_007": "0", "P29_008": "00", "P29_009": null }, "geometry": { "type": "Point", "coordinates": [ 139.127138554110786, 37.923280784284294 ] } },
{ "type": "Feature", "properties": { "P29_001": "15202", "P29_002": "F115210105099", "P29_003": "16007", "P29_004": "長岡造形大学", "P29_005": "新潟県長岡市千秋4-197", "P29_006": "3", "P29_007": "0", "P29_008": "00", "P29_009": null }, "geometry": { "type": "Point", "coordinates": [ 138.83095412001245, 37.467110964853234 ] } },
{ "type": "Feature", "properties": { "P29_001": "15204", "P29_002": "F115210111849", "P29_003": "16007", "P29_004": "三条市立大学", "P29_005": "新潟県三条市上須頃5002-5", "P29_006": "3", "P29_007": "0", "P29_008": "00", "P29_009": null }, "geometry": { "type": "Point", "coordinates": [ 138.931314340704859, 37.643564851151631 ] } },
{ "type": "Feature", "properties": { "P29_001": "15202", "P29_002": "F115310105104", "P29_003": "16007", "P29_004": "長岡大学", "P29_005": "新潟県長岡市御山町80-8", "P29_006": "4", "P29_007": "0", "P29_008": "00", "P29_009": null }, "geometry": { "type": "Point", "coordinates": [ 138.878203344038099, 37.430610640487387 ] } },
{ "type": "Feature", "properties": { "P29_001": "15101", "P29_002": "F115310105113", "P29_003": "16007", "P29_004": "新潟医療福祉大学", "P29_005": "新潟県新潟市北区島見町1398", "P29_006": "4", "P29_007": "0", "P29_008": "00", "P29_009": null }, "geometry": { "type": "Point", "coordinates": [ 139.187353053618921, 37.965635127650707 ] } },
{ "type": "Feature", "properties": { "P29_001": "15103", "P29_002": "F115310105122", "P29_003": "16007", "P29_004": "新潟青陵大学", "P29_005": "新潟県新潟市中央区水道町1-5939", "P29_006": "4", "P29_007": "0", "P29_008": "00", "P29_009": null }, "geometry": { "type": "Point", "coordinates": [ 139.024270692664686, 37.921090519405155 ] } },
{ "type": "Feature", "properties": { "P29_001": "15205", "P29_002": "F115310105131", "P29_003": "16007", "P29_004": "新潟工科大学", "P29_005": "新潟県柏崎市大字藤橋1719", "P29_006": "4", "P29_007": "0", "P29_008": "00", "P29_009": null }, "geometry": { "type": "Point", "coordinates": [ 138.578815329226757, 37.339474916635297 ] } },
{ "type": "Feature", "properties": { "P29_001": "15209", "P29_002": "F115310105140", "P29_003": "16007", "P29_004": "新潟経営大学", "P29_005": "新潟県加茂市希望ケ丘2909-2", "P29_006": "4", "P29_007": "0", "P29_008": "00", "P29_009": null }, "geometry": { "type": "Point", "coordinates": [ 139.064968253032504, 37.671833302570917 ] } },
{ "type": "Feature", "properties": { "P29_001": "15107", "P29_002": "F115310105159", "P29_003": "16007", "P29_004": "新潟国際情報大学", "P29_005": "新潟県新潟市西区みずき野3-1-1", "P29_006": "4", "P29_007": "0", "P29_008": "00", "P29_009": null }, "geometry": { "type": "Point", "coordinates": [ 138.900552867019144, 37.817303198222554 ] } },
{ "type": "Feature", "properties": { "P29_001": "15307", "P29_002": "F115310105168", "P29_003": "16007", "P29_004": "敬和学園大学", "P29_005": "新潟県新発田市富塚字三賀境1270", "P29_006": "4", "P29_007": "0", "P29_008": "00", "P29_009": null }, "geometry": { "type": "Point", "coordinates": [ 139.292284473872229, 37.95590890995588 ] } },
{ "type": "Feature", "properties": { "P29_001": "15105", "P29_002": "F115310105177", "P29_003": "16007", "P29_004": "新潟薬科大学", "P29_005": "新潟県新潟市秋葉区東島265-1", "P29_006": "4", "P29_007": "0", "P29_008": "00", "P29_009": null }, "geometry": { "type": "Point", "coordinates": [ 139.122284450260281, 37.774460066736253 ] } },
{ "type": "Feature", "properties": { "P29_001": "15226", "P29_002": "F115310105186", "P29_003": "16007", "P29_004": "国際大学", "P29_005": "新潟県南魚沼市国際町777", "P29_006": "4", "P29_007": "0", "P29_008": "00", "P29_009": null }, "geometry": { "type": "Point", "coordinates": [ 138.947124204225901, 37.148407898024352 ] } },
{ "type": "Feature", "properties": { "P29_001": "15205", "P29_002": "F115310105195", "P29_003": "16007", "P29_004": "新潟産業大学", "P29_005": "新潟県柏崎市大字軽井川4730", "P29_006": "4", "P29_007": "0", "P29_008": "00", "P29_009": null }, "geometry": { "type": "Point", "coordinates": [ 138.592947995897049, 37.334617983506767 ] } },
{ "type": "Feature", "properties": { "P29_001": "15103", "P29_002": "F115310105202", "P29_003": "16007", "P29_004": "事業創造大学院大学", "P29_005": "新潟県新潟市中央区米山3-1-46", "P29_006": "4", "P29_007": "0", "P29_008": "00", "P29_009": null }, "geometry": { "type": "Point", "coordinates": [ 139.061912992640828, 37.908009792550786 ] } },
{ "type": "Feature", "properties": { "P29_001": "15212", "P29_002": "F115310105211", "P29_003": "16007", "P29_004": "新潟リハビリテーション大学", "P29_005": "新潟県村上市上の山2-16", "P29_006": "4", "P29_007": "0", "P29_008": "00", "P29_009": null }, "geometry": { "type": "Point", "coordinates": [ 139.439849907141621, 38.185743504917312 ] } },
{ "type": "Feature", "properties": { "P29_001": "15101", "P29_002": "F115310105220", "P29_003": "16007", "P29_004": "新潟食料農業大学", "P29_005": "新潟県新潟市北区島見町940", "P29_006": "4", "P29_007": "0", "P29_008": "00", "P29_009": null }, "geometry": { "type": "Point", "coordinates": [ 139.183929920935213, 37.969419500565905 ] } },
{ "type": "Feature", "properties": { "P29_001": "15103", "P29_002": "F115310105239", "P29_003": "16007", "P29_004": "開志専門職大学", "P29_005": "新潟県新潟市中央区紫竹山6-3-5", "P29_006": "4", "P29_007": "0", "P29_008": "00", "P29_009": null }, "geometry": { "type": "Point", "coordinates": [ 139.066359780792283, 37.897217478491541 ] } },
{ "type": "Feature", "properties": { "P29_001": "15202", "P29_002": "F115310105248", "P29_003": "16007", "P29_004": "長岡崇徳大学", "P29_005": "新潟県長岡市深沢町2278-8", "P29_006": "4", "P29_007": "0", "P29_008": "00", "P29_009": null }, "geometry": { "type": "Point", "coordinates": [ 138.772710696102337, 37.425095873223341 ] } },
{ "type": "Feature", "properties": { "P29_001": "15103", "P29_002": "F113310103411", "P29_003": "16007", "P29_004": "日本歯科大学", "P29_005": "新潟県新潟市中央区浜浦町1-8", "P29_006": "4", "P29_007": "0", "P29_008": "02", "P29_009": "新潟キャンパス" }, "geometry": { "type": "Point", "coordinates": [ 139.010659879904921, 37.911281134468915 ] } },
{ "type": "Feature", "properties": { "P29_001": "15103", "P29_002": "F115110105046", "P29_003": "16007", "P29_004": "新潟大学", "P29_005": "新潟県新潟市中央区旭町通一番町757", "P29_006": "1", "P29_007": "0", "P29_008": "02", "P29_009": "旭町キャンパス" }, "geometry": { "type": "Point", "coordinates": [ 139.035252632556166, 37.920235894439436 ] } }
]
}
