{
"type": "FeatureCollection",
"name": "geo_15_幼保連携型認定こども園",
"crs": { "type": "name", "properties": { "name": "urn:ogc:def:crs:EPSG::6668" } },
"features": [
{ "type": "Feature", "properties": { "P29_001": "15213", "P29_002": "A215221300017", "P29_003": "16013", "P29_004": "燕市立燕南こども園", "P29_005": "新潟県燕市南3-1-20", "P29_006": "3", "P29_007": "0", "P29_008": "00", "P29_009": null }, "geometry": { "type": "Point", "coordinates": [ 138.926936764951847, 37.661308053481008 ] } },
{ "type": "Feature", "properties": { "P29_001": "15213", "P29_002": "A215221300026", "P29_003": "16013", "P29_004": "燕市立燕こども園", "P29_005": "新潟県燕市白山町1-9-15", "P29_006": "3", "P29_007": "0", "P29_008": "00", "P29_009": null }, "geometry": { "type": "Point", "coordinates": [ 138.920972302462161, 37.665651012145148 ] } },
{ "type": "Feature", "properties": { "P29_001": "15217", "P29_002": "A215221700013", "P29_003": "16013", "P29_004": "妙高市立さくらこども園", "P29_005": "新潟県妙高市小出雲3356", "P29_006": "3", "P29_007": "0", "P29_008": "00", "P29_009": null }, "geometry": { "type": "Point", "coordinates": [ 138.255542001185063, 37.013574996198564 ] } },
{ "type": "Feature", "properties": { "P29_001": "15217", "P29_002": "A215221700022", "P29_003": "16013", "P29_004": "妙高市立妙高高原こども園", "P29_005": "新潟県妙高市田口942-1", "P29_006": "3", "P29_007": "0", "P29_008": "00", "P29_009": null }, "geometry": { "type": "Point", "coordinates": [ 138.208318602017982, 36.87874039917299 ] } },
{ "type": "Feature", "properties": { "P29_001": "15217", "P29_002": "A215221700031", "P29_003": "16013", "P29_004": "妙高市立よつばこども園", "P29_005": "新潟県妙高市関川町2-6-2", "P29_006": "3", "P29_007": "0", "P29_008": "00", "P29_009": null }, "geometry": { "type": "Point", "coordinates": [ 138.262775028120103, 37.026763181300794 ] } },
{ "type": "Feature", "properties": { "P29_001": "15217", "P29_002": "A215221700040", "P29_003": "16013", "P29_004": "妙高市立和田にじいろこども園", "P29_005": "新潟県妙高市月岡1-11-12", "P29_006": "3", "P29_007": "0", "P29_008": "00", "P29_009": null }, "geometry": { "type": "Point", "coordinates": [ 138.265437004268392, 37.048073052387515 ] } },
{ "type": "Feature", "properties": { "P29_001": "15218", "P29_002": "A215221800012", "P29_003": "16013", "P29_004": "五泉市立村松こども園", "P29_005": "新潟県五泉市村松乙118-3", "P29_006": "3", "P29_007": "0", "P29_008": "00", "P29_009": null }, "geometry": { "type": "Point", "coordinates": [ 139.174097627108978, 37.692322135754615 ] } },
{ "type": "Feature", "properties": { "P29_001": "15224", "P29_002": "A215222400023", "P29_003": "16013", "P29_004": "あいかわこども園", "P29_005": "新潟県佐渡市相川下戸村218-7", "P29_006": "3", "P29_007": "0", "P29_008": "00", "P29_009": null }, "geometry": { "type": "Point", "coordinates": [ 138.243001397924985, 38.024322768427972 ] } },
{ "type": "Feature", "properties": { "P29_001": "15225", "P29_002": "A215222500013", "P29_003": "16013", "P29_004": "魚沼市立すもんこども園", "P29_005": "新潟県魚沼市須原4546-1", "P29_006": "3", "P29_007": "0", "P29_008": "00", "P29_009": null }, "geometry": { "type": "Point", "coordinates": [ 139.023602962746025, 37.325509000946099 ] } },
{ "type": "Feature", "properties": { "P29_001": "15227", "P29_002": "A215222700011", "P29_003": "16013", "P29_004": "胎内市中条すこやかこども園", "P29_005": "新潟県胎内市西条町3-10", "P29_006": "3", "P29_007": "0", "P29_008": "00", "P29_009": null }, "geometry": { "type": "Point", "coordinates": [ 139.400063313252446, 38.065295271858737 ] } },
{ "type": "Feature", "properties": { "P29_001": "15361", "P29_002": "A215236100017", "P29_003": "16013", "P29_004": "田上町立竹の友幼児園", "P29_005": "新潟県南蒲原郡田上町原ケ崎新田1978-1", "P29_006": "3", "P29_007": "0", "P29_008": "00", "P29_009": null }, "geometry": { "type": "Point", "coordinates": [ 139.066967116723674, 37.695845201070199 ] } },
{ "type": "Feature", "properties": { "P29_001": "15101", "P29_002": "A215310000011", "P29_003": "16013", "P29_004": "小鳥の森こども園", "P29_005": "新潟県新潟市北区嘉山533", "P29_006": "4", "P29_007": "0", "P29_008": "00", "P29_009": null }, "geometry": { "type": "Point", "coordinates": [ 139.221302214762773, 37.904362871402434 ] } },
{ "type": "Feature", "properties": { "P29_001": "15101", "P29_002": "A215310000020", "P29_003": "16013", "P29_004": "つくしこども園", "P29_005": "新潟県新潟市北区東栄町1-1-66", "P29_006": "4", "P29_007": "0", "P29_008": "00", "P29_009": null }, "geometry": { "type": "Point", "coordinates": [ 139.222960479731256, 37.913904482201275 ] } },
{ "type": "Feature", "properties": { "P29_001": "15101", "P29_002": "A215310000039", "P29_003": "16013", "P29_004": "あがのこども園", "P29_005": "新潟県新潟市北区新元島町3953-3", "P29_006": "4", "P29_007": "0", "P29_008": "00", "P29_009": null }, "geometry": { "type": "Point", "coordinates": [ 139.147455502588116, 37.945211223189098 ] } },
{ "type": "Feature", "properties": { "P29_001": "15101", "P29_002": "A215310000048", "P29_003": "16013", "P29_004": "松浜こども園", "P29_005": "新潟県新潟市北区松浜本町4-2-38", "P29_006": "4", "P29_007": "0", "P29_008": "00", "P29_009": null }, "geometry": { "type": "Point", "coordinates": [ 139.139042502072982, 37.951689326737956 ] } },
{ "type": "Feature", "properties": { "P29_001": "15101", "P29_002": "A215310000057", "P29_003": "16013", "P29_004": "にごりかわこども園", "P29_005": "新潟県新潟市北区濁川300-1", "P29_006": "4", "P29_007": "0", "P29_008": "00", "P29_009": null }, "geometry": { "type": "Point", "coordinates": [ 139.158921028130891, 37.931275116026448 ] } },
{ "type": "Feature", "properties": { "P29_001": "15102", "P29_002": "A215310000066", "P29_003": "16013", "P29_004": "認定こども園新潟あゆみこども園", "P29_005": "新潟県新潟市東区東中野山3-13-26", "P29_006": "4", "P29_007": "0", "P29_008": "00", "P29_009": null }, "geometry": { "type": "Point", "coordinates": [ 139.112260518088505, 37.900597932401105 ] } },
{ "type": "Feature", "properties": { "P29_001": "15102", "P29_002": "A215310000075", "P29_003": "16013", "P29_004": "認定こども園藤見幼稚園", "P29_005": "新潟県新潟市東区小金町1-1-17", "P29_006": "4", "P29_007": "0", "P29_008": "00", "P29_009": null }, "geometry": { "type": "Point", "coordinates": [ 139.088748513024967, 37.937481025857608 ] } },
{ "type": "Feature", "properties": { "P29_001": "15102", "P29_002": "A215310000084", "P29_003": "16013", "P29_004": "認定こども園恵泉こども園", "P29_005": "新潟県新潟市東区松和町16-5", "P29_006": "4", "P29_007": "0", "P29_008": "00", "P29_009": null }, "geometry": { "type": "Point", "coordinates": [ 139.098257505346737, 37.939396554880005 ] } },
{ "type": "Feature", "properties": { "P29_001": "15102", "P29_002": "A215310000093", "P29_003": "16013", "P29_004": "岡山幼保連携型認定こども園", "P29_005": "新潟県新潟市東区本所254-4", "P29_006": "4", "P29_007": "0", "P29_008": "00", "P29_009": null }, "geometry": { "type": "Point", "coordinates": [ 139.125527162683341, 37.910910709351008 ] } },
{ "type": "Feature", "properties": { "P29_001": "15102", "P29_002": "A215310000100", "P29_003": "16013", "P29_004": "しょうとくこども園", "P29_005": "新潟県新潟市東区河渡本町15-16", "P29_006": "4", "P29_007": "0", "P29_008": "00", "P29_009": null }, "geometry": { "type": "Point", "coordinates": [ 139.104067484053644, 37.934943064090831 ] } },
{ "type": "Feature", "properties": { "P29_001": "15102", "P29_002": "A215310000119", "P29_003": "16013", "P29_004": "認定こども園物見山はじめ保育園", "P29_005": "新潟県新潟市東区物見山3-3-16", "P29_006": "4", "P29_007": "0", "P29_008": "00", "P29_009": null }, "geometry": { "type": "Point", "coordinates": [ 139.098235498420507, 37.945624876343807 ] } },
{ "type": "Feature", "properties": { "P29_001": "15102", "P29_002": "A215310000128", "P29_003": "16013", "P29_004": "みたけこども園", "P29_005": "新潟県新潟市東区紫竹卸新町1869-1", "P29_006": "4", "P29_007": "0", "P29_008": "00", "P29_009": null }, "geometry": { "type": "Point", "coordinates": [ 139.085393508754152, 37.906606625009992 ] } },
{ "type": "Feature", "properties": { "P29_001": "15102", "P29_002": "A215310000137", "P29_003": "16013", "P29_004": "みつばちこども園", "P29_005": "新潟県新潟市東区粟山3-3-8", "P29_006": "4", "P29_007": "0", "P29_008": "00", "P29_009": null }, "geometry": { "type": "Point", "coordinates": [ 139.10108348871853, 37.897571353792188 ] } },
{ "type": "Feature", "properties": { "P29_001": "15102", "P29_002": "A215310000146", "P29_003": "16013", "P29_004": "緑が丘幼稚園", "P29_005": "新潟県新潟市東区有楽3-4-4", "P29_006": "4", "P29_007": "0", "P29_008": "00", "P29_009": null }, "geometry": { "type": "Point", "coordinates": [ 139.111043106593883, 37.940212108448982 ] } },
{ "type": "Feature", "properties": { "P29_001": "15102", "P29_002": "A215310000155", "P29_003": "16013", "P29_004": "いろはこども園", "P29_005": "新潟県新潟市東区竹尾2-21-10", "P29_006": "4", "P29_007": "0", "P29_008": "00", "P29_009": null }, "geometry": { "type": "Point", "coordinates": [ 139.092540912375, 37.912558762286629 ] } },
{ "type": "Feature", "properties": { "P29_001": "15102", "P29_002": "A215310000164", "P29_003": "16013", "P29_004": "牡丹山ひかりこども園", "P29_005": "新潟県新潟市東区上木戸1-14-9", "P29_006": "4", "P29_007": "0", "P29_008": "00", "P29_009": null }, "geometry": { "type": "Point", "coordinates": [ 139.099548487313285, 37.9238430256977 ] } },
{ "type": "Feature", "properties": { "P29_001": "15102", "P29_002": "A215310000173", "P29_003": "16013", "P29_004": "認定こども園松崎保育園", "P29_005": "新潟県新潟市東区白銀2-4-7", "P29_006": "4", "P29_007": "0", "P29_008": "00", "P29_009": null }, "geometry": { "type": "Point", "coordinates": [ 139.115030280164291, 37.937736886011457 ] } },
{ "type": "Feature", "properties": { "P29_001": "15102", "P29_002": "A215310000182", "P29_003": "16013", "P29_004": "東明こども園", "P29_005": "新潟県新潟市東区東明3-15-2", "P29_006": "4", "P29_007": "0", "P29_008": "00", "P29_009": null }, "geometry": { "type": "Point", "coordinates": [ 139.086557708966552, 37.901457394218696 ] } },
{ "type": "Feature", "properties": { "P29_001": "15102", "P29_002": "A215310000191", "P29_003": "16013", "P29_004": "上木戸こども園", "P29_005": "新潟県新潟市東区上木戸5-17-13", "P29_006": "4", "P29_007": "0", "P29_008": "00", "P29_009": null }, "geometry": { "type": "Point", "coordinates": [ 139.105326111307136, 37.91932168631687 ] } },
{ "type": "Feature", "properties": { "P29_001": "15102", "P29_002": "A215310000208", "P29_003": "16013", "P29_004": "みのりこどもえん", "P29_005": "新潟県新潟市東区下木戸600-14", "P29_006": "4", "P29_007": "0", "P29_008": "00", "P29_009": null }, "geometry": { "type": "Point", "coordinates": [ 139.089238278991132, 37.927642747665466 ] } },
{ "type": "Feature", "properties": { "P29_001": "15102", "P29_002": "A215310000217", "P29_003": "16013", "P29_004": "みなとこども園", "P29_005": "新潟県新潟市東区臨海町1-32", "P29_006": "4", "P29_007": "0", "P29_008": "00", "P29_009": null }, "geometry": { "type": "Point", "coordinates": [ 139.070872856914661, 37.943735783855772 ] } },
{ "type": "Feature", "properties": { "P29_001": "15103", "P29_002": "A215310000226", "P29_003": "16013", "P29_004": "認定こども園あそびの森有明幼稚園", "P29_005": "新潟県新潟市中央区文京町17-21", "P29_006": "4", "P29_007": "0", "P29_008": "00", "P29_009": null }, "geometry": { "type": "Point", "coordinates": [ 139.008950017151932, 37.907477042613721 ] } },
{ "type": "Feature", "properties": { "P29_001": "15103", "P29_002": "A215310000235", "P29_003": "16013", "P29_004": "認定こども園恵光学園第２幼稚園恵光保育園", "P29_005": "新潟県新潟市中央区女池3-43-11", "P29_006": "4", "P29_007": "0", "P29_008": "00", "P29_009": null }, "geometry": { "type": "Point", "coordinates": [ 139.042779554048309, 37.89748582523125 ] } },
{ "type": "Feature", "properties": { "P29_001": "15103", "P29_002": "A215310000244", "P29_003": "16013", "P29_004": "認定こども園親松幼稚園", "P29_005": "新潟県新潟市中央区親松136", "P29_006": "4", "P29_007": "0", "P29_008": "00", "P29_009": null }, "geometry": { "type": "Point", "coordinates": [ 139.03164769701479, 37.879163692521139 ] } },
{ "type": "Feature", "properties": { "P29_001": "15103", "P29_002": "A215310000253", "P29_003": "16013", "P29_004": "認定こども園　京王幼稚園", "P29_005": "新潟県新潟市中央区京王3-19-1", "P29_006": "4", "P29_007": "0", "P29_008": "00", "P29_009": null }, "geometry": { "type": "Point", "coordinates": [ 139.082047209059596, 37.896736196761758 ] } },
{ "type": "Feature", "properties": { "P29_001": "15103", "P29_002": "A215310000262", "P29_003": "16013", "P29_004": "白鳥こども園", "P29_005": "新潟県新潟市中央区女池上山2-184", "P29_006": "4", "P29_007": "0", "P29_008": "00", "P29_009": null }, "geometry": { "type": "Point", "coordinates": [ 139.029391222562026, 37.891057975331002 ] } },
{ "type": "Feature", "properties": { "P29_001": "15103", "P29_002": "A215310000271", "P29_003": "16013", "P29_004": "愛泉こども園", "P29_005": "新潟県新潟市中央区上所3-14-1", "P29_006": "4", "P29_007": "0", "P29_008": "00", "P29_009": null }, "geometry": { "type": "Point", "coordinates": [ 139.041867184677358, 37.904600469925093 ] } },
{ "type": "Feature", "properties": { "P29_001": "15103", "P29_002": "A215310000280", "P29_003": "16013", "P29_004": "めいけこども園", "P29_005": "新潟県新潟市中央区女池6-4-18", "P29_006": "4", "P29_007": "0", "P29_008": "00", "P29_009": null }, "geometry": { "type": "Point", "coordinates": [ 139.044188135860651, 37.891733765688329 ] } },
{ "type": "Feature", "properties": { "P29_001": "15103", "P29_002": "A215310000299", "P29_003": "16013", "P29_004": "幼保連携型こやす認定こども園", "P29_005": "新潟県新潟市中央区日の出1-14-23", "P29_006": "4", "P29_007": "0", "P29_008": "00", "P29_009": null }, "geometry": { "type": "Point", "coordinates": [ 139.072480686892334, 37.919210063498838 ] } },
{ "type": "Feature", "properties": { "P29_001": "15103", "P29_002": "A215310000306", "P29_003": "16013", "P29_004": "幼保連携型うまこしこやす認定こども園", "P29_005": "新潟県新潟市中央区本馬越2-9-14", "P29_006": "4", "P29_007": "0", "P29_008": "00", "P29_009": null }, "geometry": { "type": "Point", "coordinates": [ 139.075295981600817, 37.911313338046341 ] } },
{ "type": "Feature", "properties": { "P29_001": "15103", "P29_002": "A215310000324", "P29_003": "16013", "P29_004": "こばとこども園", "P29_005": "新潟県新潟市中央区女池神明2-6-1", "P29_006": "4", "P29_007": "0", "P29_008": "00", "P29_009": null }, "geometry": { "type": "Point", "coordinates": [ 139.03455691390127, 37.889126924187543 ] } },
{ "type": "Feature", "properties": { "P29_001": "15103", "P29_002": "A215310000333", "P29_003": "16013", "P29_004": "認定こども園新潟えきなかこども園", "P29_005": "新潟県新潟市中央区花園1-1-1（ＪＲ新潟駅構内）", "P29_006": "4", "P29_007": "0", "P29_008": "00", "P29_009": null }, "geometry": { "type": "Point", "coordinates": [ 139.063736812458188, 37.912447952474459 ] } },
{ "type": "Feature", "properties": { "P29_001": "15103", "P29_002": "A215310000342", "P29_003": "16013", "P29_004": "笹口こども園", "P29_005": "新潟県新潟市中央区南笹口1-8-57", "P29_006": "4", "P29_007": "0", "P29_008": "00", "P29_009": null }, "geometry": { "type": "Point", "coordinates": [ 139.065926662960834, 37.908530543308061 ] } },
{ "type": "Feature", "properties": { "P29_001": "15103", "P29_002": "A215310000351", "P29_003": "16013", "P29_004": "新潟葵こども園", "P29_005": "新潟県新潟市中央区上大川前通2番町135-1", "P29_006": "4", "P29_007": "0", "P29_008": "00", "P29_009": null }, "geometry": { "type": "Point", "coordinates": [ 139.043650739348777, 37.915709107716339 ] } },
{ "type": "Feature", "properties": { "P29_001": "15103", "P29_002": "A215310000360", "P29_003": "16013", "P29_004": "ここの実こども園", "P29_005": "新潟県新潟市中央区南出来島1-4-7", "P29_006": "4", "P29_007": "0", "P29_008": "00", "P29_009": null }, "geometry": { "type": "Point", "coordinates": [ 139.029125425554184, 37.895657287733982 ] } },
{ "type": "Feature", "properties": { "P29_001": "15103", "P29_002": "A215310000379", "P29_003": "16013", "P29_004": "寄居こども園", "P29_005": "新潟県新潟市中央区寄居町702", "P29_006": "4", "P29_007": "0", "P29_008": "00", "P29_009": null }, "geometry": { "type": "Point", "coordinates": [ 139.039638924537456, 37.922729035527901 ] } },
{ "type": "Feature", "properties": { "P29_001": "15103", "P29_002": "A215310000388", "P29_003": "16013", "P29_004": "紫竹山こども園", "P29_005": "新潟県新潟市中央区紫竹山2-3-5", "P29_006": "4", "P29_007": "0", "P29_008": "00", "P29_009": null }, "geometry": { "type": "Point", "coordinates": [ 139.068294573354194, 37.902479338628183 ] } },
{ "type": "Feature", "properties": { "P29_001": "15103", "P29_002": "A215310000397", "P29_003": "16013", "P29_004": "新潟認定こども園", "P29_005": "新潟県新潟市中央区中央区川岸町3-21-2", "P29_006": "4", "P29_007": "0", "P29_008": "00", "P29_009": null }, "geometry": { "type": "Point", "coordinates": [ 139.025990753358627, 37.909352334821733 ] } },
{ "type": "Feature", "properties": { "P29_001": "15103", "P29_002": "A215310000404", "P29_003": "16013", "P29_004": "隣保館認定こども園", "P29_005": "新潟県新潟市中央区四ツ屋町1-5141-5", "P29_006": "4", "P29_007": "0", "P29_008": "00", "P29_009": null }, "geometry": { "type": "Point", "coordinates": [ 139.044158146656031, 37.932699638802795 ] } },
{ "type": "Feature", "properties": { "P29_001": "15103", "P29_002": "A215310000413", "P29_003": "16013", "P29_004": "開志上所こども園", "P29_005": "新潟県新潟市中央区上所中1-11-22", "P29_006": "4", "P29_007": "0", "P29_008": "00", "P29_009": null }, "geometry": { "type": "Point", "coordinates": [ 139.034635223591721, 37.905958592214773 ] } },
{ "type": "Feature", "properties": { "P29_001": "15103", "P29_002": "A215310000422", "P29_003": "16013", "P29_004": "こどものいえこども園", "P29_005": "新潟県新潟市中央区親松字101-1", "P29_006": "4", "P29_007": "0", "P29_008": "00", "P29_009": null }, "geometry": { "type": "Point", "coordinates": [ 139.028948421239392, 37.879869193719244 ] } },
{ "type": "Feature", "properties": { "P29_001": "15103", "P29_002": "A215310000431", "P29_003": "16013", "P29_004": "はるまちこども園", "P29_005": "新潟県新潟市中央区鳥屋野南3-10-1", "P29_006": "4", "P29_007": "0", "P29_008": "00", "P29_009": null }, "geometry": { "type": "Point", "coordinates": [ 139.028168544311001, 37.884626346010357 ] } },
{ "type": "Feature", "properties": { "P29_001": "15104", "P29_002": "A215310000440", "P29_003": "16013", "P29_004": "割野こども園", "P29_005": "新潟県新潟市江南区割野2092-3", "P29_006": "4", "P29_007": "0", "P29_008": "00", "P29_009": null }, "geometry": { "type": "Point", "coordinates": [ 139.091046753560477, 37.839881201298532 ] } },
{ "type": "Feature", "properties": { "P29_001": "15105", "P29_002": "A215310000459", "P29_003": "16013", "P29_004": "敬愛認定こども園", "P29_005": "新潟県新潟市秋葉区荻島3-1-20", "P29_006": "4", "P29_007": "0", "P29_008": "00", "P29_009": null }, "geometry": { "type": "Point", "coordinates": [ 139.118316237456355, 37.832690171007179 ] } },
{ "type": "Feature", "properties": { "P29_001": "15105", "P29_002": "A215310000468", "P29_003": "16013", "P29_004": "幼保連携型認定こども園あおぞら", "P29_005": "新潟県新潟市秋葉区中沢町14-18", "P29_006": "4", "P29_007": "0", "P29_008": "00", "P29_009": null }, "geometry": { "type": "Point", "coordinates": [ 139.12818669850833, 37.790853826136932 ] } },
{ "type": "Feature", "properties": { "P29_001": "15105", "P29_002": "A215310000477", "P29_003": "16013", "P29_004": "幼保連携型認定こども園おひさま", "P29_005": "新潟県新潟市秋葉区下新361-1", "P29_006": "4", "P29_007": "0", "P29_008": "00", "P29_009": null }, "geometry": { "type": "Point", "coordinates": [ 139.172021905471695, 37.779371862729903 ] } },
{ "type": "Feature", "properties": { "P29_001": "15105", "P29_002": "A215310000486", "P29_003": "16013", "P29_004": "にいつ愛慈こども園", "P29_005": "新潟県新潟市秋葉区新津本町1-9-6", "P29_006": "4", "P29_007": "0", "P29_008": "00", "P29_009": null }, "geometry": { "type": "Point", "coordinates": [ 139.121649345440574, 37.80121314954765 ] } },
{ "type": "Feature", "properties": { "P29_001": "15105", "P29_002": "A215310000495", "P29_003": "16013", "P29_004": "幼保連携型認定こども園にじ", "P29_005": "新潟県新潟市秋葉区新津東町2-2-8", "P29_006": "4", "P29_007": "0", "P29_008": "00", "P29_009": null }, "geometry": { "type": "Point", "coordinates": [ 139.140447669675154, 37.801440132018421 ] } },
{ "type": "Feature", "properties": { "P29_001": "15106", "P29_002": "A215310000501", "P29_003": "16013", "P29_004": "あかねこども園", "P29_005": "新潟県新潟市南区鯵潟404-1", "P29_006": "4", "P29_007": "0", "P29_008": "00", "P29_009": null }, "geometry": { "type": "Point", "coordinates": [ 139.016027908758929, 37.776649763586505 ] } },
{ "type": "Feature", "properties": { "P29_001": "15107", "P29_002": "A215310000510", "P29_003": "16013", "P29_004": "認定こども園明美ヶ丘こども園", "P29_005": "新潟県新潟市西区五十嵐東1-16-33", "P29_006": "4", "P29_007": "0", "P29_008": "00", "P29_009": null }, "geometry": { "type": "Point", "coordinates": [ 138.957413365369405, 37.87575449411456 ] } },
{ "type": "Feature", "properties": { "P29_001": "15107", "P29_002": "A215310000529", "P29_003": "16013", "P29_004": "認定こども園あそびの森つばさ幼稚園", "P29_005": "新潟県新潟市西区大学南2-24-24", "P29_006": "4", "P29_007": "0", "P29_008": "00", "P29_009": null }, "geometry": { "type": "Point", "coordinates": [ 138.938722301746964, 37.862602201052034 ] } },
{ "type": "Feature", "properties": { "P29_001": "15107", "P29_002": "A215310000538", "P29_003": "16013", "P29_004": "旭が丘こども園", "P29_005": "新潟県新潟市西区五十嵐2の町8633", "P29_006": "4", "P29_007": "0", "P29_008": "00", "P29_009": null }, "geometry": { "type": "Point", "coordinates": [ 138.934008478650242, 37.862273709948312 ] } },
{ "type": "Feature", "properties": { "P29_001": "15107", "P29_002": "A215310000547", "P29_003": "16013", "P29_004": "認定こども園寺尾幼稚園", "P29_005": "新潟県新潟市西区寺尾上1-6-55", "P29_006": "4", "P29_007": "0", "P29_008": "00", "P29_009": null }, "geometry": { "type": "Point", "coordinates": [ 138.973638515868828, 37.879596396770516 ] } },
{ "type": "Feature", "properties": { "P29_001": "15107", "P29_002": "A215310000556", "P29_003": "16013", "P29_004": "認定こども園ノートルダム幼稚園・保育園", "P29_005": "新潟県新潟市西区寺尾西3-26-50", "P29_006": "4", "P29_007": "0", "P29_008": "00", "P29_009": null }, "geometry": { "type": "Point", "coordinates": [ 138.961924751688827, 37.875923026690934 ] } },
{ "type": "Feature", "properties": { "P29_001": "15107", "P29_002": "A215310000565", "P29_003": "16013", "P29_004": "認定こども園坂井輪東幼稚園", "P29_005": "新潟県新潟市西区坂井東1-6-8", "P29_006": "4", "P29_007": "0", "P29_008": "00", "P29_009": null }, "geometry": { "type": "Point", "coordinates": [ 138.984422677395031, 37.879626392076204 ] } },
{ "type": "Feature", "properties": { "P29_001": "15107", "P29_002": "A215310000574", "P29_003": "16013", "P29_004": "松の実第二こども園", "P29_005": "新潟県新潟市西区五十嵐東3-11-18", "P29_006": "4", "P29_007": "0", "P29_008": "00", "P29_009": null }, "geometry": { "type": "Point", "coordinates": [ 138.956068329421697, 37.878015982466664 ] } },
{ "type": "Feature", "properties": { "P29_001": "15107", "P29_002": "A215310000583", "P29_003": "16013", "P29_004": "幼保連携型認定　赤塚こども園", "P29_005": "新潟県新潟市西区赤塚2783-2", "P29_006": "4", "P29_007": "0", "P29_008": "00", "P29_009": null }, "geometry": { "type": "Point", "coordinates": [ 138.886868922229439, 37.81471567478718 ] } },
{ "type": "Feature", "properties": { "P29_001": "15107", "P29_002": "A215310000592", "P29_003": "16013", "P29_004": "幼保連携型認定　なの花こども園", "P29_005": "新潟県新潟市西区赤塚2362-1", "P29_006": "4", "P29_007": "0", "P29_008": "00", "P29_009": null }, "geometry": { "type": "Point", "coordinates": [ 138.881214198654675, 37.818672930044755 ] } },
{ "type": "Feature", "properties": { "P29_001": "15107", "P29_002": "A215310000609", "P29_003": "16013", "P29_004": "愛慈こども園", "P29_005": "新潟県新潟市西区上新栄町1-3-3", "P29_006": "4", "P29_007": "0", "P29_008": "00", "P29_009": null }, "geometry": { "type": "Point", "coordinates": [ 138.972176538676962, 37.887039645457833 ] } },
{ "type": "Feature", "properties": { "P29_001": "15107", "P29_002": "A215310000618", "P29_003": "16013", "P29_004": "山五十嵐こども園", "P29_005": "新潟県新潟市西区五十嵐3の町西16-13", "P29_006": "4", "P29_007": "0", "P29_008": "00", "P29_009": null }, "geometry": { "type": "Point", "coordinates": [ 138.925033905499703, 37.857766151087553 ] } },
{ "type": "Feature", "properties": { "P29_001": "15107", "P29_002": "A215310000627", "P29_003": "16013", "P29_004": "幼保連携型認定新通こども園", "P29_005": "新潟県新潟市西区新通872-2", "P29_006": "4", "P29_007": "0", "P29_008": "00", "P29_009": null }, "geometry": { "type": "Point", "coordinates": [ 138.952684695940945, 37.858882587984702 ] } },
{ "type": "Feature", "properties": { "P29_001": "15107", "P29_002": "A215310000636", "P29_003": "16013", "P29_004": "天鐘こども園", "P29_005": "新潟県新潟市西区坂井914-1", "P29_006": "4", "P29_007": "0", "P29_008": "00", "P29_009": null }, "geometry": { "type": "Point", "coordinates": [ 138.95942015060055, 37.867333495541388 ] } },
{ "type": "Feature", "properties": { "P29_001": "15107", "P29_002": "A215310000645", "P29_003": "16013", "P29_004": "あいりすこども園", "P29_005": "新潟県新潟市西区小新5-8-28", "P29_006": "4", "P29_007": "0", "P29_008": "00", "P29_009": null }, "geometry": { "type": "Point", "coordinates": [ 139.002240706742072, 37.879969505458121 ] } },
{ "type": "Feature", "properties": { "P29_001": "15107", "P29_002": "A215310000654", "P29_003": "16013", "P29_004": "吉田こども園", "P29_005": "新潟県新潟市西区西小針台2-9-27", "P29_006": "4", "P29_007": "0", "P29_008": "00", "P29_009": null }, "geometry": { "type": "Point", "coordinates": [ 138.978984817908525, 37.885962244700295 ] } },
{ "type": "Feature", "properties": { "P29_001": "15107", "P29_002": "A215310000663", "P29_003": "16013", "P29_004": "東小針認定こども園", "P29_005": "新潟県新潟市西区小針1-33-12", "P29_006": "4", "P29_007": "0", "P29_008": "00", "P29_009": null }, "geometry": { "type": "Point", "coordinates": [ 139.000397584952992, 37.889012997540483 ] } },
{ "type": "Feature", "properties": { "P29_001": "15107", "P29_002": "A215310000672", "P29_003": "16013", "P29_004": "有明こども園", "P29_005": "新潟県新潟市西区有明町1-76", "P29_006": "4", "P29_007": "0", "P29_008": "00", "P29_009": null }, "geometry": { "type": "Point", "coordinates": [ 138.991118862516373, 37.897092100187891 ] } },
{ "type": "Feature", "properties": { "P29_001": "15107", "P29_002": "A215310000681", "P29_003": "16013", "P29_004": "幼保連携型認定こども園るんびいにこども園", "P29_005": "新潟県新潟市西区小新西2-20-16", "P29_006": "4", "P29_007": "0", "P29_008": "00", "P29_009": null }, "geometry": { "type": "Point", "coordinates": [ 138.993936455624663, 37.874298466187064 ] } },
{ "type": "Feature", "properties": { "P29_001": "15107", "P29_002": "A215310000690", "P29_003": "16013", "P29_004": "松の実こども園", "P29_005": "新潟県新潟市西区寺尾台3-19-13", "P29_006": "4", "P29_007": "0", "P29_008": "00", "P29_009": null }, "geometry": { "type": "Point", "coordinates": [ 138.970513997718058, 37.881410003457965 ] } },
{ "type": "Feature", "properties": { "P29_001": "15108", "P29_002": "A215310000707", "P29_003": "16013", "P29_004": "めぐみこども園", "P29_005": "新潟県新潟市西蒲区巻乙9", "P29_006": "4", "P29_007": "0", "P29_008": "00", "P29_009": null }, "geometry": { "type": "Point", "coordinates": [ 138.881871094029123, 37.760584535166323 ] } },
{ "type": "Feature", "properties": { "P29_001": "15108", "P29_002": "A215310000716", "P29_003": "16013", "P29_004": "曽根おひさまこども園", "P29_005": "新潟県新潟市西蒲区曽根829", "P29_006": "4", "P29_007": "0", "P29_008": "00", "P29_009": null }, "geometry": { "type": "Point", "coordinates": [ 138.918121396558661, 37.796514668341331 ] } },
{ "type": "Feature", "properties": { "P29_001": "15102", "P29_002": "A215310000725", "P29_003": "16013", "P29_004": "中道山こども園", "P29_005": "新潟県新潟市東区幸栄2-18-8", "P29_006": "4", "P29_007": "0", "P29_008": "00", "P29_009": null }, "geometry": { "type": "Point", "coordinates": [ 139.102456470322835, 37.94637262081956 ] } },
{ "type": "Feature", "properties": { "P29_001": "15102", "P29_002": "A215310000734", "P29_003": "16013", "P29_004": "認定こども園栄光こども園", "P29_005": "新潟県新潟市東区石山1-3-80", "P29_006": "4", "P29_007": "0", "P29_008": "00", "P29_009": null }, "geometry": { "type": "Point", "coordinates": [ 139.090643985364864, 37.896711667089136 ] } },
{ "type": "Feature", "properties": { "P29_001": "15103", "P29_002": "A215310000743", "P29_003": "16013", "P29_004": "勝楽寺こども園", "P29_005": "新潟県新潟市中央区西堀通8番町1588", "P29_006": "4", "P29_007": "0", "P29_008": "00", "P29_009": null }, "geometry": { "type": "Point", "coordinates": [ 139.043975011435407, 37.926753539946908 ] } },
{ "type": "Feature", "properties": { "P29_001": "15103", "P29_002": "A215310000752", "P29_003": "16013", "P29_004": "ながたゆめのつばさこども園", "P29_005": "新潟県新潟市中央区長潟831", "P29_006": "4", "P29_007": "0", "P29_008": "00", "P29_009": null }, "geometry": { "type": "Point", "coordinates": [ 139.070547408843197, 37.885261787988952 ] } },
{ "type": "Feature", "properties": { "P29_001": "15105", "P29_002": "A215310000761", "P29_003": "16013", "P29_004": "満日こども園", "P29_005": "新潟県新潟市秋葉区七日町17-25", "P29_006": "4", "P29_007": "0", "P29_008": "00", "P29_009": null }, "geometry": { "type": "Point", "coordinates": [ 139.1491389176025, 37.824901952931434 ] } },
{ "type": "Feature", "properties": { "P29_001": "15105", "P29_002": "A215310000770", "P29_003": "16013", "P29_004": "認定こども園　新津カトリック幼稚園", "P29_005": "新潟県新潟市秋葉区日宝町2-1", "P29_006": "4", "P29_007": "0", "P29_008": "00", "P29_009": null }, "geometry": { "type": "Point", "coordinates": [ 139.128295087299279, 37.798023862513936 ] } },
{ "type": "Feature", "properties": { "P29_001": "15106", "P29_002": "A215310000789", "P29_003": "16013", "P29_004": "白根カトリックこども園", "P29_005": "新潟県新潟市南区能登2-7-30", "P29_006": "4", "P29_007": "0", "P29_008": "00", "P29_009": null }, "geometry": { "type": "Point", "coordinates": [ 139.015533455891955, 37.769239918912845 ] } },
{ "type": "Feature", "properties": { "P29_001": "15102", "P29_002": "A215310000798", "P29_003": "16013", "P29_004": "開志新潟東こども園", "P29_005": "新潟県新潟市東区中野山3-3-9", "P29_006": "4", "P29_007": "0", "P29_008": "00", "P29_009": null }, "geometry": { "type": "Point", "coordinates": [ 139.103317013928404, 37.905107088441042 ] } },
{ "type": "Feature", "properties": { "P29_001": "15103", "P29_002": "A215310000805", "P29_003": "16013", "P29_004": "新和ここの実こども園", "P29_005": "新潟県新潟市中央区新和2-3-1", "P29_006": "4", "P29_007": "0", "P29_008": "00", "P29_009": null }, "geometry": { "type": "Point", "coordinates": [ 139.042704903472384, 37.901574466154806 ] } },
{ "type": "Feature", "properties": { "P29_001": "15107", "P29_002": "A215310000814", "P29_003": "16013", "P29_004": "あいりすヒルズこども園", "P29_005": "新潟県新潟市西区青山4-1-8-10", "P29_006": "4", "P29_007": "0", "P29_008": "00", "P29_009": null }, "geometry": { "type": "Point", "coordinates": [ 138.999945747767441, 37.898570415066992 ] } },
{ "type": "Feature", "properties": { "P29_001": "15102", "P29_002": "A215310000823", "P29_003": "16013", "P29_004": "山の下こども園", "P29_005": "新潟県新潟市東区古川町67", "P29_006": "4", "P29_007": "0", "P29_008": "00", "P29_009": null }, "geometry": { "type": "Point", "coordinates": [ 139.074832937497831, 37.937278032720485 ] } },
{ "type": "Feature", "properties": { "P29_001": "15202", "P29_002": "A215320200018", "P29_003": "16013", "P29_004": "認定こども園長岡和光幼稚園・なごみ保育園", "P29_005": "新潟県長岡市長町2-550-1", "P29_006": "4", "P29_007": "0", "P29_008": "00", "P29_009": null }, "geometry": { "type": "Point", "coordinates": [ 138.856477349815748, 37.458618317486085 ] } },
{ "type": "Feature", "properties": { "P29_001": "15202", "P29_002": "A215320200027", "P29_003": "16013", "P29_004": "認定こども園太陽幼稚園・おひさま保育園", "P29_005": "新潟県長岡市福山町447-2", "P29_006": "4", "P29_007": "0", "P29_008": "00", "P29_009": null }, "geometry": { "type": "Point", "coordinates": [ 138.809346417942265, 37.445086439781583 ] } },
{ "type": "Feature", "properties": { "P29_001": "15202", "P29_002": "A215320200036", "P29_003": "16013", "P29_004": "認定こども園帝京長岡幼稚園", "P29_005": "新潟県長岡市干場1-5-5", "P29_006": "4", "P29_007": "0", "P29_008": "00", "P29_009": null }, "geometry": { "type": "Point", "coordinates": [ 138.862339190073129, 37.452787334888406 ] } },
{ "type": "Feature", "properties": { "P29_001": "15202", "P29_002": "A215320200045", "P29_003": "16013", "P29_004": "認定こども園　長岡みのり幼稚園", "P29_005": "新潟県長岡市石内2-5-38", "P29_006": "4", "P29_007": "0", "P29_008": "00", "P29_009": null }, "geometry": { "type": "Point", "coordinates": [ 138.851697355922568, 37.462582104122227 ] } },
{ "type": "Feature", "properties": { "P29_001": "15202", "P29_002": "A215320200054", "P29_003": "16013", "P29_004": "認定こども園　明幸幼稚園　すまいる保育園", "P29_005": "新潟県長岡市錦1-6-23", "P29_006": "4", "P29_007": "0", "P29_008": "00", "P29_009": null }, "geometry": { "type": "Point", "coordinates": [ 138.856282999809736, 37.430555002539712 ] } },
{ "type": "Feature", "properties": { "P29_001": "15202", "P29_002": "A215320200063", "P29_003": "16013", "P29_004": "東光こども園", "P29_005": "新潟県長岡市上条町223-1", "P29_006": "4", "P29_007": "0", "P29_008": "00", "P29_009": null }, "geometry": { "type": "Point", "coordinates": [ 138.853167150780905, 37.430324819851975 ] } },
{ "type": "Feature", "properties": { "P29_001": "15202", "P29_002": "A215320200072", "P29_003": "16013", "P29_004": "学校法人聖母学園認定こども園長岡天使・聖母幼稚園", "P29_005": "新潟県長岡市表町4-2-10", "P29_006": "4", "P29_007": "0", "P29_008": "00", "P29_009": null }, "geometry": { "type": "Point", "coordinates": [ 138.848973844525148, 37.451398160022705 ] } },
{ "type": "Feature", "properties": { "P29_001": "15202", "P29_002": "A215320200081", "P29_003": "16013", "P29_004": "認定こども園長峰幼稚園", "P29_005": "新潟県長岡市西津町字前島2444-1", "P29_006": "4", "P29_007": "0", "P29_008": "00", "P29_009": null }, "geometry": { "type": "Point", "coordinates": [ 138.810340466209226, 37.434503671097048 ] } },
{ "type": "Feature", "properties": { "P29_001": "15202", "P29_002": "A215320200090", "P29_003": "16013", "P29_004": "認定こども園第一幼稚園", "P29_005": "新潟県長岡市緑町1-38-363", "P29_006": "4", "P29_007": "0", "P29_008": "00", "P29_009": null }, "geometry": { "type": "Point", "coordinates": [ 138.823874652695565, 37.449033416046824 ] } },
{ "type": "Feature", "properties": { "P29_001": "15202", "P29_002": "A215320200107", "P29_003": "16013", "P29_004": "中島幼稚園わくわく保育園", "P29_005": "新潟県長岡市中島1-14-14", "P29_006": "4", "P29_007": "0", "P29_008": "00", "P29_009": null }, "geometry": { "type": "Point", "coordinates": [ 138.838790712967096, 37.453662231266627 ] } },
{ "type": "Feature", "properties": { "P29_001": "15202", "P29_002": "A215320200116", "P29_003": "16013", "P29_004": "認定こども園長生幼稚園まんまる", "P29_005": "新潟県長岡市西千手2-1-1", "P29_006": "4", "P29_007": "0", "P29_008": "00", "P29_009": null }, "geometry": { "type": "Point", "coordinates": [ 138.841257722165921, 37.441764332014927 ] } },
{ "type": "Feature", "properties": { "P29_001": "15202", "P29_002": "A215320200125", "P29_003": "16013", "P29_004": "恵和こども園", "P29_005": "新潟県長岡市蓮潟町312", "P29_006": "4", "P29_007": "0", "P29_008": "00", "P29_009": null }, "geometry": { "type": "Point", "coordinates": [ 138.823783932096603, 37.470325894636332 ] } },
{ "type": "Feature", "properties": { "P29_001": "15202", "P29_002": "A215320200134", "P29_003": "16013", "P29_004": "みどりこども園", "P29_005": "新潟県長岡市下樫出653-1", "P29_006": "4", "P29_007": "0", "P29_008": "00", "P29_009": null }, "geometry": { "type": "Point", "coordinates": [ 139.019979962042214, 37.495545633050092 ] } },
{ "type": "Feature", "properties": { "P29_001": "15202", "P29_002": "A215320200143", "P29_003": "16013", "P29_004": "恵和めぐみキッズランド（恵和こども園分園）", "P29_005": "新潟県長岡市大荒戸町字腰巻250-1", "P29_006": "4", "P29_007": "0", "P29_008": "00", "P29_009": null }, "geometry": { "type": "Point", "coordinates": [ 138.802563997498595, 37.481983997605553 ] } },
{ "type": "Feature", "properties": { "P29_001": "15202", "P29_002": "A215320200152", "P29_003": "16013", "P29_004": "幼保連携型認定こども園ひごし中央こども園", "P29_005": "新潟県長岡市高瀬町110", "P29_006": "4", "P29_007": "0", "P29_008": "00", "P29_009": null }, "geometry": { "type": "Point", "coordinates": [ 138.799253515346265, 37.456599361851708 ] } },
{ "type": "Feature", "properties": { "P29_001": "15202", "P29_002": "A215320200161", "P29_003": "16013", "P29_004": "認定こども園東部保育園", "P29_005": "新潟県長岡市四郎丸3-5-11", "P29_006": "4", "P29_007": "0", "P29_008": "00", "P29_009": null }, "geometry": { "type": "Point", "coordinates": [ 138.856218477430303, 37.441755674905941 ] } },
{ "type": "Feature", "properties": { "P29_001": "15202", "P29_002": "A215320200170", "P29_003": "16013", "P29_004": "幼保連携型認定こども園蔵王のもりこども園", "P29_005": "新潟県長岡市蔵王1-8-15", "P29_006": "4", "P29_007": "0", "P29_008": "00", "P29_009": null }, "geometry": { "type": "Point", "coordinates": [ 138.851367389697032, 37.466814448620589 ] } },
{ "type": "Feature", "properties": { "P29_001": "15202", "P29_002": "A215320200189", "P29_003": "16013", "P29_004": "幼保連携型認定こども園宮内中央こども園", "P29_005": "新潟県長岡市宮内3-10-13", "P29_006": "4", "P29_007": "0", "P29_008": "00", "P29_009": null }, "geometry": { "type": "Point", "coordinates": [ 138.842947215203566, 37.422246718687042 ] } },
{ "type": "Feature", "properties": { "P29_001": "15202", "P29_002": "A215320200198", "P29_003": "16013", "P29_004": "幼保連携型認定こども園あすなろこどもえん", "P29_005": "新潟県長岡市下柳2-7-7", "P29_006": "4", "P29_007": "0", "P29_008": "00", "P29_009": null }, "geometry": { "type": "Point", "coordinates": [ 138.835781346071542, 37.473738621243051 ] } },
{ "type": "Feature", "properties": { "P29_001": "15202", "P29_002": "A215320200205", "P29_003": "16013", "P29_004": "幼保連携型認定こども園いなばこども園", "P29_005": "新潟県長岡市稲葉町793-1", "P29_006": "4", "P29_007": "0", "P29_008": "00", "P29_009": null }, "geometry": { "type": "Point", "coordinates": [ 138.868694233857667, 37.474240156054201 ] } },
{ "type": "Feature", "properties": { "P29_001": "15202", "P29_002": "A215320200214", "P29_003": "16013", "P29_004": "幼保連携型認定こども園みしま中央こども園", "P29_005": "新潟県長岡市上岩井6826", "P29_006": "4", "P29_007": "0", "P29_008": "00", "P29_009": null }, "geometry": { "type": "Point", "coordinates": [ 138.782115417882295, 37.493009546475378 ] } },
{ "type": "Feature", "properties": { "P29_001": "15202", "P29_002": "A215320200223", "P29_003": "16013", "P29_004": "幼保連携型認定こども園与板こども園", "P29_005": "新潟県長岡市与板町与板452", "P29_006": "4", "P29_007": "0", "P29_008": "00", "P29_009": null }, "geometry": { "type": "Point", "coordinates": [ 138.812472003575181, 37.540244003867315 ] } },
{ "type": "Feature", "properties": { "P29_001": "15202", "P29_002": "A215320200232", "P29_003": "16013", "P29_004": "認定こども園希望が丘幼稚園", "P29_005": "新潟県長岡市福島町566", "P29_006": "4", "P29_007": "0", "P29_008": "00", "P29_009": null }, "geometry": { "type": "Point", "coordinates": [ 138.878798448750103, 37.483684428543718 ] } },
{ "type": "Feature", "properties": { "P29_001": "15202", "P29_002": "A215320200241", "P29_003": "16013", "P29_004": "認定こども園栃尾天使幼稚園", "P29_005": "新潟県長岡市金沢2-1-36", "P29_006": "4", "P29_007": "0", "P29_008": "00", "P29_009": null }, "geometry": { "type": "Point", "coordinates": [ 138.998158157946989, 37.477682327778666 ] } },
{ "type": "Feature", "properties": { "P29_001": "15202", "P29_002": "A215320200250", "P29_003": "16013", "P29_004": "認定こども園東部川崎保育園", "P29_005": "新潟県長岡市川崎3-2388", "P29_006": "4", "P29_007": "0", "P29_008": "00", "P29_009": null }, "geometry": { "type": "Point", "coordinates": [ 138.869962805207507, 37.451963725692693 ] } },
{ "type": "Feature", "properties": { "P29_001": "15202", "P29_002": "A215320200269", "P29_003": "16013", "P29_004": "幼保連携型認定こども園くろじょうこども園", "P29_005": "新潟県長岡市黒津町377", "P29_006": "4", "P29_007": "0", "P29_008": "00", "P29_009": null }, "geometry": { "type": "Point", "coordinates": [ 138.858828748237642, 37.498507908641791 ] } },
{ "type": "Feature", "properties": { "P29_001": "15202", "P29_002": "A215320200278", "P29_003": "16013", "P29_004": "幼保連携型認定こども園大島こどもえん", "P29_005": "新潟県長岡市大島本町2-10-28", "P29_006": "4", "P29_007": "0", "P29_008": "00", "P29_009": null }, "geometry": { "type": "Point", "coordinates": [ 138.824074565819501, 37.443105929447817 ] } },
{ "type": "Feature", "properties": { "P29_001": "15202", "P29_002": "A215320200287", "P29_003": "16013", "P29_004": "前川こども園", "P29_005": "新潟県長岡市前島町211", "P29_006": "4", "P29_007": "0", "P29_008": "00", "P29_009": null }, "geometry": { "type": "Point", "coordinates": [ 138.82144482802633, 37.404951780943698 ] } },
{ "type": "Feature", "properties": { "P29_001": "15202", "P29_002": "A215320200296", "P29_003": "16013", "P29_004": "幼保連携型認定こども園関原こども園", "P29_005": "新潟県長岡市関原町3-甲486-1", "P29_006": "4", "P29_007": "0", "P29_008": "00", "P29_009": null }, "geometry": { "type": "Point", "coordinates": [ 138.771195808554609, 37.453457730471136 ] } },
{ "type": "Feature", "properties": { "P29_001": "15202", "P29_002": "A215320200303", "P29_003": "16013", "P29_004": "認定こども園東部マドカ保育園", "P29_005": "新潟県長岡市土合5-2-4", "P29_006": "4", "P29_007": "0", "P29_008": "00", "P29_009": null }, "geometry": { "type": "Point", "coordinates": [ 138.859383994393511, 37.437611000078732 ] } },
{ "type": "Feature", "properties": { "P29_001": "15202", "P29_002": "A215320200312", "P29_003": "16013", "P29_004": "幼保連携型認定こども園岡南こども園", "P29_005": "新潟県長岡市滝谷町1701-2", "P29_006": "4", "P29_007": "0", "P29_008": "00", "P29_009": null }, "geometry": { "type": "Point", "coordinates": [ 138.837741815141584, 37.366300539198214 ] } },
{ "type": "Feature", "properties": { "P29_001": "15202", "P29_002": "A215320200321", "P29_003": "16013", "P29_004": "柏こども園", "P29_005": "新潟県長岡市寿2-1-5", "P29_006": "4", "P29_007": "0", "P29_008": "00", "P29_009": null }, "geometry": { "type": "Point", "coordinates": [ 138.855318931830709, 37.475996568484874 ] } },
{ "type": "Feature", "properties": { "P29_001": "15202", "P29_002": "A215320200330", "P29_003": "16013", "P29_004": "幼保連携型認定こども園太陽ゆうゆう保育園", "P29_005": "新潟県長岡市青葉台5-8-1", "P29_006": "4", "P29_007": "0", "P29_008": "00", "P29_009": null }, "geometry": { "type": "Point", "coordinates": [ 138.752982832807589, 37.438153572829464 ] } },
{ "type": "Feature", "properties": { "P29_001": "15202", "P29_002": "A215320200349", "P29_003": "16013", "P29_004": "幼保連携型認定こども園悠みどりこども園", "P29_005": "新潟県長岡市花園南2-317", "P29_006": "4", "P29_007": "0", "P29_008": "00", "P29_009": null }, "geometry": { "type": "Point", "coordinates": [ 138.865290127760119, 37.429806821668521 ] } },
{ "type": "Feature", "properties": { "P29_001": "15202", "P29_002": "A215320200358", "P29_003": "16013", "P29_004": "長生保育園", "P29_005": "新潟県長岡市西千手3-116-3", "P29_006": "4", "P29_007": "0", "P29_008": "00", "P29_009": null }, "geometry": { "type": "Point", "coordinates": [ 138.841559001570744, 37.443540004938406 ] } },
{ "type": "Feature", "properties": { "P29_001": "15202", "P29_002": "A215320200367", "P29_003": "16013", "P29_004": "認定こども園中沢白ゆり幼稚園", "P29_005": "新潟県長岡市中沢町2280-1", "P29_006": "4", "P29_007": "0", "P29_008": "00", "P29_009": null }, "geometry": { "type": "Point", "coordinates": [ 138.87544299493959, 37.439052998203309 ] } },
{ "type": "Feature", "properties": { "P29_001": "15202", "P29_002": "A215320200376", "P29_003": "16013", "P29_004": "豊愛なかのしまこども園", "P29_005": "新潟県長岡市中之島430-1", "P29_006": "4", "P29_007": "0", "P29_008": "00", "P29_009": null }, "geometry": { "type": "Point", "coordinates": [ 138.878670405685455, 37.544692463737583 ] } },
{ "type": "Feature", "properties": { "P29_001": "15202", "P29_002": "A215320200385", "P29_003": "16013", "P29_004": "幼保連携型認定こども園こしじこども園", "P29_005": "新潟県長岡市浦4800", "P29_006": "4", "P29_007": "0", "P29_008": "00", "P29_009": null }, "geometry": { "type": "Point", "coordinates": [ 138.801039427406266, 37.391973409561572 ] } },
{ "type": "Feature", "properties": { "P29_001": "15204", "P29_002": "A215320400016", "P29_003": "16013", "P29_004": "聖公会聖母こども園", "P29_005": "新潟県三条市月岡2-11-4", "P29_006": "4", "P29_007": "0", "P29_008": "00", "P29_009": null }, "geometry": { "type": "Point", "coordinates": [ 138.978205746998412, 37.616808572679261 ] } },
{ "type": "Feature", "properties": { "P29_001": "15204", "P29_002": "A215320400025", "P29_003": "16013", "P29_004": "認定こども園松葉幼稚園", "P29_005": "新潟県三条市本町2-1-56", "P29_006": "4", "P29_007": "0", "P29_008": "00", "P29_009": null }, "geometry": { "type": "Point", "coordinates": [ 138.957602843408296, 37.631205565415193 ] } },
{ "type": "Feature", "properties": { "P29_001": "15204", "P29_002": "A215320400034", "P29_003": "16013", "P29_004": "川通どれみこども園", "P29_005": "新潟県三条市尾崎955-2", "P29_006": "4", "P29_007": "0", "P29_008": "00", "P29_009": null }, "geometry": { "type": "Point", "coordinates": [ 138.902646173112771, 37.619948562681948 ] } },
{ "type": "Feature", "properties": { "P29_001": "15206", "P29_002": "A215320600014", "P29_003": "16013", "P29_004": "学校法人愛生学園あやめこども園", "P29_005": "新潟県新発田市大手町3-2-30", "P29_006": "4", "P29_007": "0", "P29_008": "00", "P29_009": null }, "geometry": { "type": "Point", "coordinates": [ 139.32487290750413, 37.952731240855407 ] } },
{ "type": "Feature", "properties": { "P29_001": "15206", "P29_002": "A215320600023", "P29_003": "16013", "P29_004": "認定こども園　わかば幼稚園", "P29_005": "新潟県新発田市豊町2-7-10", "P29_006": "4", "P29_007": "0", "P29_008": "00", "P29_009": null }, "geometry": { "type": "Point", "coordinates": [ 139.340016510060792, 37.941444851536211 ] } },
{ "type": "Feature", "properties": { "P29_001": "15206", "P29_002": "A215320600032", "P29_003": "16013", "P29_004": "認定こども園東幼稚園", "P29_005": "新潟県新発田市舟入町3-4-14", "P29_006": "4", "P29_007": "0", "P29_008": "00", "P29_009": null }, "geometry": { "type": "Point", "coordinates": [ 139.306963379315107, 37.958823542372208 ] } },
{ "type": "Feature", "properties": { "P29_001": "15206", "P29_002": "A215320600041", "P29_003": "16013", "P29_004": "あおばこども園", "P29_005": "新潟県新発田市富塚町1-2-20", "P29_006": "4", "P29_007": "0", "P29_008": "00", "P29_009": null }, "geometry": { "type": "Point", "coordinates": [ 139.303969381754911, 37.949997327081043 ] } },
{ "type": "Feature", "properties": { "P29_001": "15206", "P29_002": "A215320600050", "P29_003": "16013", "P29_004": "認定こども園優の森こども園", "P29_005": "新潟県新発田市住吉町4-18-16", "P29_006": "4", "P29_007": "0", "P29_008": "00", "P29_009": null }, "geometry": { "type": "Point", "coordinates": [ 139.312053741361893, 37.941996591299258 ] } },
{ "type": "Feature", "properties": { "P29_001": "15206", "P29_002": "A215320600069", "P29_003": "16013", "P29_004": "認定こども園あそびの森すみよし保育園", "P29_005": "新潟県新発田市住吉町2-8-12", "P29_006": "4", "P29_007": "0", "P29_008": "00", "P29_009": null }, "geometry": { "type": "Point", "coordinates": [ 139.311649064747996, 37.948023140673939 ] } },
{ "type": "Feature", "properties": { "P29_001": "15206", "P29_002": "A215320600078", "P29_003": "16013", "P29_004": "認定こども園新発田聖母こども園", "P29_005": "新潟県新発田市中央町4-10-18", "P29_006": "4", "P29_007": "0", "P29_008": "00", "P29_009": null }, "geometry": { "type": "Point", "coordinates": [ 139.328244676928648, 37.95082037394635 ] } },
{ "type": "Feature", "properties": { "P29_001": "15206", "P29_002": "A215320600087", "P29_003": "16013", "P29_004": "認定こども園あいこども園", "P29_005": "新潟県新発田市豊町4-11-18", "P29_006": "4", "P29_007": "0", "P29_008": "00", "P29_009": null }, "geometry": { "type": "Point", "coordinates": [ 139.342281331225507, 37.945457747617979 ] } },
{ "type": "Feature", "properties": { "P29_001": "15206", "P29_002": "A215320600096", "P29_003": "16013", "P29_004": "幼保連携型認定こども園ルンビニ保育園", "P29_005": "新潟県新発田市新富町3-2-3", "P29_006": "4", "P29_007": "0", "P29_008": "00", "P29_009": null }, "geometry": { "type": "Point", "coordinates": [ 139.34055699729052, 37.953040996604535 ] } },
{ "type": "Feature", "properties": { "P29_001": "15206", "P29_002": "A215320600103", "P29_003": "16013", "P29_004": "幼保連携型認定こども園百華保育園", "P29_005": "新潟県新発田市中央町1-1-10", "P29_006": "4", "P29_007": "0", "P29_008": "00", "P29_009": null }, "geometry": { "type": "Point", "coordinates": [ 139.329784063193586, 37.947986318281984 ] } },
{ "type": "Feature", "properties": { "P29_001": "15206", "P29_002": "A215320600112", "P29_003": "16013", "P29_004": "認定こども園キッズ陽だまり園", "P29_005": "新潟県新発田市諏訪町1-10-38", "P29_006": "4", "P29_007": "0", "P29_008": "00", "P29_009": null }, "geometry": { "type": "Point", "coordinates": [ 139.333953291726914, 37.943599823310336 ] } },
{ "type": "Feature", "properties": { "P29_001": "15206", "P29_002": "A215320600149", "P29_003": "16013", "P29_004": "にしぞのこども園", "P29_005": "新潟県新発田市住吉町1-7-6", "P29_006": "4", "P29_007": "0", "P29_008": "00", "P29_009": null }, "geometry": { "type": "Point", "coordinates": [ 139.310588366220657, 37.95207135933007 ] } },
{ "type": "Feature", "properties": { "P29_001": "15208", "P29_002": "A215320800012", "P29_003": "16013", "P29_004": "学校法人舟陵学園幼保連携型認定こども園小千谷幼稚園", "P29_005": "新潟県小千谷市平成2-3-35", "P29_006": "4", "P29_007": "0", "P29_008": "00", "P29_009": null }, "geometry": { "type": "Point", "coordinates": [ 138.794007316872666, 37.30763329949805 ] } },
{ "type": "Feature", "properties": { "P29_001": "15208", "P29_002": "A215320800021", "P29_003": "16013", "P29_004": "ひばり認定こども園", "P29_005": "新潟県小千谷市大字?生乙914-4", "P29_006": "4", "P29_007": "0", "P29_008": "00", "P29_009": null }, "geometry": { "type": "Point", "coordinates": [ 138.806586696433328, 37.307896195596172 ] } },
{ "type": "Feature", "properties": { "P29_001": "15208", "P29_002": "A215320800030", "P29_003": "16013", "P29_004": "学校法人専正学園認定こども園つくし幼稚園", "P29_005": "新潟県小千谷市平成1-5-20", "P29_006": "4", "P29_007": "0", "P29_008": "00", "P29_009": null }, "geometry": { "type": "Point", "coordinates": [ 138.793910226698102, 37.309411734326943 ] } },
{ "type": "Feature", "properties": { "P29_001": "15209", "P29_002": "A215320900011", "P29_003": "16013", "P29_004": "社会福祉法人日章会幼保連携型認定こども園本量寺こども園", "P29_005": "新潟県加茂市五番町13-15", "P29_006": "4", "P29_007": "0", "P29_008": "00", "P29_009": null }, "geometry": { "type": "Point", "coordinates": [ 139.058761761976342, 37.655007043092894 ] } },
{ "type": "Feature", "properties": { "P29_001": "15209", "P29_002": "A215320900020", "P29_003": "16013", "P29_004": "幼保連携型認定こども園須田保育園", "P29_005": "新潟県加茂市大字前須田31-2", "P29_006": "4", "P29_007": "0", "P29_008": "00", "P29_009": null }, "geometry": { "type": "Point", "coordinates": [ 139.007996945227262, 37.689274154448562 ] } },
{ "type": "Feature", "properties": { "P29_001": "15210", "P29_002": "A215321000018", "P29_003": "16013", "P29_004": "むつみこども園", "P29_005": "新潟県十日町市下条3-209", "P29_006": "4", "P29_007": "0", "P29_008": "00", "P29_009": null }, "geometry": { "type": "Point", "coordinates": [ 138.777336694807616, 37.194925562232612 ] } },
{ "type": "Feature", "properties": { "P29_001": "15210", "P29_002": "A215321000027", "P29_003": "16013", "P29_004": "慈光こども園", "P29_005": "新潟県十日町市川治877-1", "P29_006": "4", "P29_007": "0", "P29_008": "00", "P29_009": null }, "geometry": { "type": "Point", "coordinates": [ 138.74709541944199, 37.121516810493581 ] } },
{ "type": "Feature", "properties": { "P29_001": "15210", "P29_002": "A215321000036", "P29_003": "16013", "P29_004": "いずみこども園", "P29_005": "新潟県十日町市昭和町3-18-1", "P29_006": "4", "P29_007": "0", "P29_008": "00", "P29_009": null }, "geometry": { "type": "Point", "coordinates": [ 138.758051926521233, 37.133034440457195 ] } },
{ "type": "Feature", "properties": { "P29_001": "15210", "P29_002": "A215321000045", "P29_003": "16013", "P29_004": "中条こども園", "P29_005": "新潟県十日町市中条甲1022-7", "P29_006": "4", "P29_007": "0", "P29_008": "00", "P29_009": null }, "geometry": { "type": "Point", "coordinates": [ 138.776553556150134, 37.162506958762968 ] } },
{ "type": "Feature", "properties": { "P29_001": "15210", "P29_002": "A215321000054", "P29_003": "16013", "P29_004": "幼保連携型認定こども園しんざこども園", "P29_005": "新潟県十日町市新座甲823-4", "P29_006": "4", "P29_007": "0", "P29_008": "00", "P29_009": null }, "geometry": { "type": "Point", "coordinates": [ 138.771191108963336, 37.14019122121033 ] } },
{ "type": "Feature", "properties": { "P29_001": "15210", "P29_002": "A215321000063", "P29_003": "16013", "P29_004": "幼保連携型認定こども園うえのこども園", "P29_005": "新潟県十日町市上野乙166", "P29_006": "4", "P29_007": "0", "P29_008": "00", "P29_009": null }, "geometry": { "type": "Point", "coordinates": [ 138.751541049683027, 37.182258000533906 ] } },
{ "type": "Feature", "properties": { "P29_001": "15210", "P29_002": "A215321000072", "P29_003": "16013", "P29_004": "北越こども園", "P29_005": "新潟県十日町市本町6-1-79-1", "P29_006": "4", "P29_007": "0", "P29_008": "00", "P29_009": null }, "geometry": { "type": "Point", "coordinates": [ 138.761920439282022, 37.137882952835 ] } },
{ "type": "Feature", "properties": { "P29_001": "15210", "P29_002": "A215321000081", "P29_003": "16013", "P29_004": "認定こども園あおのもり", "P29_005": "新潟県十日町市馬場丁1577-2", "P29_006": "4", "P29_007": "0", "P29_008": "00", "P29_009": null }, "geometry": { "type": "Point", "coordinates": [ 138.734803368970461, 37.096524580548831 ] } },
{ "type": "Feature", "properties": { "P29_001": "15210", "P29_002": "A215321000090", "P29_003": "16013", "P29_004": "認定こども園愛宕幼稚園", "P29_005": "新潟県十日町市川原町853-6", "P29_006": "4", "P29_007": "0", "P29_008": "00", "P29_009": null }, "geometry": { "type": "Point", "coordinates": [ 138.765038336357748, 37.1331538163654 ] } },
{ "type": "Feature", "properties": { "P29_001": "15211", "P29_002": "A215321100017", "P29_003": "16013", "P29_004": "幼保連携型認定こども園ホップこども園", "P29_005": "新潟県見附市今町2-15-21", "P29_006": "4", "P29_007": "0", "P29_008": "00", "P29_009": null }, "geometry": { "type": "Point", "coordinates": [ 138.88092971097322, 37.551491116285298 ] } },
{ "type": "Feature", "properties": { "P29_001": "15211", "P29_002": "A215321100026", "P29_003": "16013", "P29_004": "幼保連携型認定こども園見附みどりこども園", "P29_005": "新潟県見附市学校町2-5-1", "P29_006": "4", "P29_007": "0", "P29_008": "00", "P29_009": null }, "geometry": { "type": "Point", "coordinates": [ 138.917811455633256, 37.532978214026478 ] } },
{ "type": "Feature", "properties": { "P29_001": "15211", "P29_002": "A215321100035", "P29_003": "16013", "P29_004": "社会福祉法人芳香稚草園わかくさ中央こども園", "P29_005": "新潟県見附市南本町1-3-36", "P29_006": "4", "P29_007": "0", "P29_008": "00", "P29_009": null }, "geometry": { "type": "Point", "coordinates": [ 138.925831023451963, 37.522601189023106 ] } },
{ "type": "Feature", "properties": { "P29_001": "15212", "P29_002": "A215321200016", "P29_003": "16013", "P29_004": "認定こども園村上いずみ園", "P29_005": "新潟県村上市山居町2-10-23", "P29_006": "4", "P29_007": "0", "P29_008": "00", "P29_009": null }, "geometry": { "type": "Point", "coordinates": [ 139.463706489499771, 38.215793054872655 ] } },
{ "type": "Feature", "properties": { "P29_001": "15213", "P29_002": "A215321300015", "P29_003": "16013", "P29_004": "認定こども園真学園", "P29_005": "新潟県燕市灰方726", "P29_006": "4", "P29_007": "0", "P29_008": "00", "P29_009": null }, "geometry": { "type": "Point", "coordinates": [ 138.936279633994019, 37.68374015349707 ] } },
{ "type": "Feature", "properties": { "P29_001": "15213", "P29_002": "A215321300024", "P29_003": "16013", "P29_004": "きららおひさまこども園", "P29_005": "新潟県燕市吉田東栄町34-10", "P29_006": "4", "P29_007": "0", "P29_008": "00", "P29_009": null }, "geometry": { "type": "Point", "coordinates": [ 138.874041823056018, 37.679723603638877 ] } },
{ "type": "Feature", "properties": { "P29_001": "15213", "P29_002": "A215321300033", "P29_003": "16013", "P29_004": "きららにこにここども園", "P29_005": "新潟県燕市吉田西太田704", "P29_006": "4", "P29_007": "0", "P29_008": "00", "P29_009": null }, "geometry": { "type": "Point", "coordinates": [ 138.872893009704512, 37.67108286181481 ] } },
{ "type": "Feature", "properties": { "P29_001": "15213", "P29_002": "A215321300042", "P29_003": "16013", "P29_004": "幼保連携型認定こども園ぎんなん保育園", "P29_005": "新潟県燕市井土巻228", "P29_006": "4", "P29_007": "0", "P29_008": "00", "P29_009": null }, "geometry": { "type": "Point", "coordinates": [ 138.930424045311639, 37.655434606435463 ] } },
{ "type": "Feature", "properties": { "P29_001": "15216", "P29_002": "A215321600012", "P29_003": "16013", "P29_004": "糸魚川幼稚園", "P29_005": "新潟県糸魚川市寺町1-7-12", "P29_006": "4", "P29_007": "0", "P29_008": "00", "P29_009": null }, "geometry": { "type": "Point", "coordinates": [ 137.862406268309797, 37.045350212098505 ] } },
{ "type": "Feature", "properties": { "P29_001": "15217", "P29_002": "A215321700011", "P29_003": "16013", "P29_004": "幼保連携型認定こども園ときわこども園", "P29_005": "新潟県妙高市下町5-9", "P29_006": "4", "P29_007": "0", "P29_008": "00", "P29_009": null }, "geometry": { "type": "Point", "coordinates": [ 138.248994371819492, 37.028927622097683 ] } },
{ "type": "Feature", "properties": { "P29_001": "15218", "P29_002": "A215321800010", "P29_003": "16013", "P29_004": "五泉いずみこども園", "P29_005": "新潟県五泉市東本町2-8-41", "P29_006": "4", "P29_007": "0", "P29_008": "00", "P29_009": null }, "geometry": { "type": "Point", "coordinates": [ 139.182410555669946, 37.740931118973677 ] } },
{ "type": "Feature", "properties": { "P29_001": "15218", "P29_002": "A215321800029", "P29_003": "16013", "P29_004": "認定こども園エービーシー幼稚園", "P29_005": "新潟県五泉市五泉2483-2", "P29_006": "4", "P29_007": "0", "P29_008": "00", "P29_009": null }, "geometry": { "type": "Point", "coordinates": [ 139.17878778827685, 37.727635322121905 ] } },
{ "type": "Feature", "properties": { "P29_001": "15218", "P29_002": "A215321800038", "P29_003": "16013", "P29_004": "すみれこども園", "P29_005": "新潟県五泉市駅前2-6-19", "P29_006": "4", "P29_007": "0", "P29_008": "00", "P29_009": null }, "geometry": { "type": "Point", "coordinates": [ 139.1820929974065, 37.734806001082362 ] } },
{ "type": "Feature", "properties": { "P29_001": "15218", "P29_002": "A215321800047", "P29_003": "16013", "P29_004": "ひまわりこども園", "P29_005": "新潟県五泉市荻曽根187-1", "P29_006": "4", "P29_007": "0", "P29_008": "00", "P29_009": null }, "geometry": { "type": "Point", "coordinates": [ 139.165655350468228, 37.739095133537006 ] } },
{ "type": "Feature", "properties": { "P29_001": "15218", "P29_002": "A215321800056", "P29_003": "16013", "P29_004": "みどりこども園", "P29_005": "新潟県五泉市本田屋1002-1", "P29_006": "4", "P29_007": "0", "P29_008": "00", "P29_009": null }, "geometry": { "type": "Point", "coordinates": [ 139.177125350103097, 37.702573226047399 ] } },
{ "type": "Feature", "properties": { "P29_001": "15218", "P29_002": "A215321800065", "P29_003": "16013", "P29_004": "村松さくらこども園", "P29_005": "新潟県五泉市村松甲6288", "P29_006": "4", "P29_007": "0", "P29_008": "00", "P29_009": null }, "geometry": { "type": "Point", "coordinates": [ 139.175669118910179, 37.683847054920363 ] } },
{ "type": "Feature", "properties": { "P29_001": "15222", "P29_002": "A215322200014", "P29_003": "16013", "P29_004": "たちばな認定こども園", "P29_005": "新潟県上越市中央1-14-31", "P29_006": "4", "P29_007": "0", "P29_008": "00", "P29_009": null }, "geometry": { "type": "Point", "coordinates": [ 138.2443781038113, 37.17563561310439 ] } },
{ "type": "Feature", "properties": { "P29_001": "15222", "P29_002": "A215322200023", "P29_003": "16013", "P29_004": "認定こども園マハヤナ幼稚園ミルフィーユ保育園", "P29_005": "新潟県上越市下門前1817", "P29_006": "4", "P29_007": "0", "P29_008": "00", "P29_009": null }, "geometry": { "type": "Point", "coordinates": [ 138.24959700342643, 37.156804670726927 ] } },
{ "type": "Feature", "properties": { "P29_001": "15222", "P29_002": "A215322200032", "P29_003": "16013", "P29_004": "聖上智オリーブこども園", "P29_005": "新潟県上越市春日新田2-9-7", "P29_006": "4", "P29_007": "0", "P29_008": "00", "P29_009": null }, "geometry": { "type": "Point", "coordinates": [ 138.259275613384858, 37.171803795669469 ] } },
{ "type": "Feature", "properties": { "P29_001": "15222", "P29_002": "A215322200041", "P29_003": "16013", "P29_004": "たちばな春日認定こども園", "P29_005": "新潟県上越市春日山町3-1-39", "P29_006": "4", "P29_007": "0", "P29_008": "00", "P29_009": null }, "geometry": { "type": "Point", "coordinates": [ 138.232739535496961, 37.147262375581988 ] } },
{ "type": "Feature", "properties": { "P29_001": "15222", "P29_002": "A215322200050", "P29_003": "16013", "P29_004": "認定こども園なかよし保育園", "P29_005": "新潟県上越市稲田3-6-6", "P29_006": "4", "P29_007": "0", "P29_008": "00", "P29_009": null }, "geometry": { "type": "Point", "coordinates": [ 138.26802568082735, 37.120438669635057 ] } },
{ "type": "Feature", "properties": { "P29_001": "15222", "P29_002": "A215322200069", "P29_003": "16013", "P29_004": "幼保連携型認定こども園大曲こども園", "P29_005": "新潟県上越市新光町1-10-14", "P29_006": "4", "P29_007": "0", "P29_008": "00", "P29_009": null }, "geometry": { "type": "Point", "coordinates": [ 138.236639284504889, 37.15118476948178 ] } },
{ "type": "Feature", "properties": { "P29_001": "15222", "P29_002": "A215322200078", "P29_003": "16013", "P29_004": "高志こども園", "P29_005": "新潟県上越市木田新田1-1-7", "P29_006": "4", "P29_007": "0", "P29_008": "00", "P29_009": null }, "geometry": { "type": "Point", "coordinates": [ 138.238786673852246, 37.13937585244377 ] } },
{ "type": "Feature", "properties": { "P29_001": "15222", "P29_002": "A215322200087", "P29_003": "16013", "P29_004": "認定こども園聖母マリアこども園", "P29_005": "新潟県上越市五智1-5-3", "P29_006": "4", "P29_007": "0", "P29_008": "00", "P29_009": null }, "geometry": { "type": "Point", "coordinates": [ 138.233648356399499, 37.170017416412016 ] } },
{ "type": "Feature", "properties": { "P29_001": "15222", "P29_002": "A215322200096", "P29_003": "16013", "P29_004": "社会福祉法人フランシスコ第三会マリア園認定こども園ひがししろこども園", "P29_005": "新潟県上越市東城町1-2-5", "P29_006": "4", "P29_007": "0", "P29_008": "00", "P29_009": null }, "geometry": { "type": "Point", "coordinates": [ 138.257150424128071, 37.101604838117133 ] } },
{ "type": "Feature", "properties": { "P29_001": "15222", "P29_002": "A215322200103", "P29_003": "16013", "P29_004": "いずみIこども園", "P29_005": "新潟県上越市南新町1-5", "P29_006": "4", "P29_007": "0", "P29_008": "00", "P29_009": null }, "geometry": { "type": "Point", "coordinates": [ 138.244407453725984, 37.099245549477764 ] } },
{ "type": "Feature", "properties": { "P29_001": "15222", "P29_002": "A215322200112", "P29_003": "16013", "P29_004": "幼保連携型認定こども園明照幼稚園", "P29_005": "新潟県上越市寺町3-8-20", "P29_006": "4", "P29_007": "0", "P29_008": "00", "P29_009": null }, "geometry": { "type": "Point", "coordinates": [ 138.238139415392908, 37.118417929038657 ] } },
{ "type": "Feature", "properties": { "P29_001": "15223", "P29_002": "A215322300013", "P29_003": "16013", "P29_004": "認定こども園ほたるこども園", "P29_005": "新潟県阿賀野市保田3882-1", "P29_006": "4", "P29_007": "0", "P29_008": "00", "P29_009": null }, "geometry": { "type": "Point", "coordinates": [ 139.24225197169531, 37.766890373779468 ] } },
{ "type": "Feature", "properties": { "P29_001": "15223", "P29_002": "A215322300022", "P29_003": "16013", "P29_004": "認定こども園京ヶ瀬こども園", "P29_005": "新潟県阿賀野市緑岡3-20", "P29_006": "4", "P29_007": "0", "P29_008": "00", "P29_009": null }, "geometry": { "type": "Point", "coordinates": [ 139.189142706375122, 37.842661784541789 ] } },
{ "type": "Feature", "properties": { "P29_001": "15223", "P29_002": "A215322300031", "P29_003": "16013", "P29_004": "幼保連携型認定こども園安野こども園", "P29_005": "新潟県阿賀野市南安野町7-66", "P29_006": "4", "P29_007": "0", "P29_008": "00", "P29_009": null }, "geometry": { "type": "Point", "coordinates": [ 139.213857245680742, 37.83825222571388 ] } },
{ "type": "Feature", "properties": { "P29_001": "15223", "P29_002": "A215322300040", "P29_003": "16013", "P29_004": "幼保連携型認定こども園風の子こども園", "P29_005": "新潟県阿賀野市保田715-1", "P29_006": "4", "P29_007": "0", "P29_008": "00", "P29_009": null }, "geometry": { "type": "Point", "coordinates": [ 139.229277715750612, 37.780958545782624 ] } },
{ "type": "Feature", "properties": { "P29_001": "15223", "P29_002": "A215322300059", "P29_003": "16013", "P29_004": "幼保連携型認定こども園おとぎのくにこども園", "P29_005": "新潟県阿賀野市金田町9-81", "P29_006": "4", "P29_007": "0", "P29_008": "00", "P29_009": null }, "geometry": { "type": "Point", "coordinates": [ 139.230778674506865, 37.830043059480168 ] } },
{ "type": "Feature", "properties": { "P29_001": "15223", "P29_002": "A215322300068", "P29_003": "16013", "P29_004": "幼保連携型認定こども園分田こども園", "P29_005": "新潟県阿賀野市上江端3751-1", "P29_006": "4", "P29_007": "0", "P29_008": "00", "P29_009": null }, "geometry": { "type": "Point", "coordinates": [ 139.201412941130144, 37.792002945536936 ] } },
{ "type": "Feature", "properties": { "P29_001": "15223", "P29_002": "A215322300077", "P29_003": "16013", "P29_004": "幼保連携型認定こども園みどり保育園", "P29_005": "新潟県阿賀野市緑町24-30", "P29_006": "4", "P29_007": "0", "P29_008": "00", "P29_009": null }, "geometry": { "type": "Point", "coordinates": [ 139.217528433203483, 37.829004708551622 ] } },
{ "type": "Feature", "properties": { "P29_001": "15223", "P29_002": "A215322300086", "P29_003": "16013", "P29_004": "幼保連携型認定こども園たちばなこども園", "P29_005": "新潟県阿賀野市中央町1-3-1", "P29_006": "4", "P29_007": "0", "P29_008": "00", "P29_009": null }, "geometry": { "type": "Point", "coordinates": [ 139.22879323510648, 37.839949219846552 ] } },
{ "type": "Feature", "properties": { "P29_001": "15223", "P29_002": "A215322300095", "P29_003": "16013", "P29_004": "いつつむりこども園", "P29_005": "新潟県阿賀野市山崎96-1", "P29_006": "4", "P29_007": "0", "P29_008": "00", "P29_009": null }, "geometry": { "type": "Point", "coordinates": [ 139.268722469520128, 37.835442220888297 ] } },
{ "type": "Feature", "properties": { "P29_001": "15223", "P29_002": "A215322300102", "P29_003": "16013", "P29_004": "認定こども園あやめ保育園", "P29_005": "新潟県阿賀野市野地城91", "P29_006": "4", "P29_007": "0", "P29_008": "00", "P29_009": null }, "geometry": { "type": "Point", "coordinates": [ 139.229547800580974, 37.817498746183013 ] } },
{ "type": "Feature", "properties": { "P29_001": "15223", "P29_002": "A215322300111", "P29_003": "16013", "P29_004": "認定こども園日章幼稚園", "P29_005": "新潟県阿賀野市下条1562-1", "P29_006": "4", "P29_007": "0", "P29_008": "00", "P29_009": null }, "geometry": { "type": "Point", "coordinates": [ 139.21506700934188, 37.831746409130204 ] } },
{ "type": "Feature", "properties": { "P29_001": "15223", "P29_002": "A215322300120", "P29_003": "16013", "P29_004": "認定こども園ひまわり幼稚園", "P29_005": "新潟県阿賀野市学校町6-5", "P29_006": "4", "P29_007": "0", "P29_008": "00", "P29_009": null }, "geometry": { "type": "Point", "coordinates": [ 139.224222580498861, 37.829602529029735 ] } },
{ "type": "Feature", "properties": { "P29_001": "15223", "P29_002": "A215322300139", "P29_003": "16013", "P29_004": "みのりこども園", "P29_005": "新潟県阿賀野市上高関107-3", "P29_006": "4", "P29_007": "0", "P29_008": "00", "P29_009": null }, "geometry": { "type": "Point", "coordinates": [ 139.269713343130263, 37.864507563602075 ] } },
{ "type": "Feature", "properties": { "P29_001": "15224", "P29_002": "A215322400012", "P29_003": "16013", "P29_004": "羽茂こども園", "P29_005": "新潟県佐渡市羽茂本郷803-1", "P29_006": "4", "P29_007": "0", "P29_008": "00", "P29_009": null }, "geometry": { "type": "Point", "coordinates": [ 138.318209000140911, 37.846801001396813 ] } },
{ "type": "Feature", "properties": { "P29_001": "15224", "P29_002": "A215322400021", "P29_003": "16013", "P29_004": "双葉こども園", "P29_005": "新潟県佐渡市東大通8", "P29_006": "4", "P29_007": "0", "P29_008": "00", "P29_009": null }, "geometry": { "type": "Point", "coordinates": [ 138.328339726700221, 38.004994737125514 ] } },
{ "type": "Feature", "properties": { "P29_001": "15226", "P29_002": "A215322600010", "P29_003": "16013", "P29_004": "幼保連携型認定こども園金城幼稚園・保育園", "P29_005": "新潟県南魚沼市塩沢1393-1", "P29_006": "4", "P29_007": "0", "P29_008": "00", "P29_009": null }, "geometry": { "type": "Point", "coordinates": [ 138.844650967784361, 37.038667721077566 ] } },
{ "type": "Feature", "properties": { "P29_001": "15226", "P29_002": "A215322600029", "P29_003": "16013", "P29_004": "むいかまちこども園", "P29_005": "新潟県南魚沼市余川1519", "P29_006": "4", "P29_007": "0", "P29_008": "00", "P29_009": null }, "geometry": { "type": "Point", "coordinates": [ 138.875152815412747, 37.071934610328299 ] } },
{ "type": "Feature", "properties": { "P29_001": "15226", "P29_002": "A215322600038", "P29_003": "16013", "P29_004": "認定こども園野の百合こども園", "P29_005": "新潟県南魚沼市六日町1225-1", "P29_006": "4", "P29_007": "0", "P29_008": "00", "P29_009": null }, "geometry": { "type": "Point", "coordinates": [ 138.877755669435572, 37.059471899278172 ] } },
{ "type": "Feature", "properties": { "P29_001": "15227", "P29_002": "A215322700019", "P29_003": "16013", "P29_004": "聖心こども園", "P29_005": "新潟県胎内市西栄町9-46", "P29_006": "4", "P29_007": "0", "P29_008": "00", "P29_009": null }, "geometry": { "type": "Point", "coordinates": [ 139.40139779726843, 38.050890623525461 ] } },
{ "type": "Feature", "properties": { "P29_001": "15227", "P29_002": "A215322700028", "P29_003": "16013", "P29_004": "きすげこども園", "P29_005": "新潟県胎内市黒川1124", "P29_006": "4", "P29_007": "0", "P29_008": "00", "P29_009": null }, "geometry": { "type": "Point", "coordinates": [ 139.438386954415989, 38.077345628922103 ] } },
{ "type": "Feature", "properties": { "P29_001": "15227", "P29_002": "A215322700037", "P29_003": "16013", "P29_004": "ひだまりこども園", "P29_005": "新潟県胎内市十二天91-5", "P29_006": "4", "P29_007": "0", "P29_008": "00", "P29_009": null }, "geometry": { "type": "Point", "coordinates": [ 139.408684080470323, 38.091099562974946 ] } },
{ "type": "Feature", "properties": { "P29_001": "15307", "P29_002": "A215330700012", "P29_003": "16013", "P29_004": "聖籠はじめこども園", "P29_005": "新潟県北蒲原郡聖籠町大字蓮野1930-1", "P29_006": "4", "P29_007": "0", "P29_008": "00", "P29_009": null }, "geometry": { "type": "Point", "coordinates": [ 139.264959201557645, 37.963958245132844 ] } },
{ "type": "Feature", "properties": { "P29_001": "15307", "P29_002": "A215330700021", "P29_003": "16013", "P29_004": "ハーモニーこども園", "P29_005": "新潟県北蒲原郡聖籠町大字次第浜2963", "P29_006": "4", "P29_007": "0", "P29_008": "00", "P29_009": null }, "geometry": { "type": "Point", "coordinates": [ 139.280882852333946, 38.011005394759124 ] } },
{ "type": "Feature", "properties": { "P29_001": "15405", "P29_002": "A215340500013", "P29_003": "16013", "P29_004": "幼保連携型認定こども園出雲崎こども園", "P29_005": "新潟県三島郡出雲崎町大字住吉町551", "P29_006": "4", "P29_007": "0", "P29_008": "00", "P29_009": null }, "geometry": { "type": "Point", "coordinates": [ 138.686384609973828, 37.541958779954868 ] } }
]
}
