{
"type": "FeatureCollection",
"name": "geo_15_4",
"crs": { "type": "name", "properties": { "name": "urn:ogc:def:crs:OGC:1.3:CRS84" } },
"features": [
{ "type": "Feature", "properties": { "ID": "154JOJTX00002", "正式名称": "本道　さとみ", "機関区分": 4, "都道府県コード": 15, "市区町村コード": 217, "所在地": "新潟県妙高市籠町６６番地", "緯度": 37.044485, "経度": 138.243215, "url": "https://www.iryou.teikyouseido.mhlw.go.jp/znk-web/juminkanja/S2430/initialize?prefCd=15&kikanCd=JOJTX00002&kikanKbn=4", "url2": null, "内容": "本道　さとみ【4:助産院】新潟県妙高市籠町６６番地" }, "geometry": { "type": "Point", "coordinates": [ 138.243215, 37.044485 ] } },
{ "type": "Feature", "properties": { "ID": "154JOJTX00018", "正式名称": "沼田　美里", "機関区分": 4, "都道府県コード": 15, "市区町村コード": 222, "所在地": "新潟県上越市西城町４－１２－１２", "緯度": 37.118409, "経度": 138.251143, "url": "https://www.iryou.teikyouseido.mhlw.go.jp/znk-web/juminkanja/S2430/initialize?prefCd=15&kikanCd=JOJTX00018&kikanKbn=4", "url2": null, "内容": "沼田　美里【4:助産院】新潟県上越市西城町４－１２－１２" }, "geometry": { "type": "Point", "coordinates": [ 138.251143, 37.118409 ] } },
{ "type": "Feature", "properties": { "ID": "154JOJTX00023", "正式名称": "藤橋　杏美", "機関区分": 4, "都道府県コード": 15, "市区町村コード": 222, "所在地": "新潟県上越市柿崎区柿崎７１２０－１", "緯度": 37.280522, "経度": 138.392592, "url": "https://www.iryou.teikyouseido.mhlw.go.jp/znk-web/juminkanja/S2430/initialize?prefCd=15&kikanCd=JOJTX00023&kikanKbn=4", "url2": null, "内容": "藤橋　杏美【4:助産院】新潟県上越市柿崎区柿崎７１２０－１" }, "geometry": { "type": "Point", "coordinates": [ 138.392592, 37.280522 ] } },
{ "type": "Feature", "properties": { "ID": "154JOMNX00006", "正式名称": "さとう助産院", "機関区分": 4, "都道府県コード": 15, "市区町村コード": 226, "所在地": "新潟県南魚沼市一村尾３０８８－１４", "緯度": 37.145809, "経度": 138.910787, "url": "https://www.iryou.teikyouseido.mhlw.go.jp/znk-web/juminkanja/S2430/initialize?prefCd=15&kikanCd=JOMNX00006&kikanKbn=4", "url2": null, "内容": "さとう助産院【4:助産院】新潟県南魚沼市一村尾３０８８－１４" }, "geometry": { "type": "Point", "coordinates": [ 138.910787, 37.145809 ] } },
{ "type": "Feature", "properties": { "ID": "154JONCX00001", "正式名称": "森川母乳育児相談室", "機関区分": 4, "都道府県コード": 15, "市区町村コード": 104, "所在地": "新潟県新潟市江南区曽野木２丁目２番２１号", "緯度": 37.864641, "経度": 139.038726, "url": "https://www.iryou.teikyouseido.mhlw.go.jp/znk-web/juminkanja/S2430/initialize?prefCd=15&kikanCd=JONCX00001&kikanKbn=4", "url2": "https//morikawa-b-i-s7-crayonsite/info/", "内容": "森川母乳育児相談室【4:助産院】新潟県新潟市江南区曽野木２丁目２番２１号" }, "geometry": { "type": "Point", "coordinates": [ 139.038726, 37.864641 ] } },
{ "type": "Feature", "properties": { "ID": "154JONCX00003", "正式名称": "みちつき助産院", "機関区分": 4, "都道府県コード": 15, "市区町村コード": 107, "所在地": "新潟県新潟市西区五十嵐一の町６３７９番地９５", "緯度": 37.876282, "経度": 138.945944, "url": "https://www.iryou.teikyouseido.mhlw.go.jp/znk-web/juminkanja/S2430/initialize?prefCd=15&kikanCd=JONCX00003&kikanKbn=4", "url2": "https://babymoon0303.jimdofree.com/", "内容": "みちつき助産院【4:助産院】新潟県新潟市西区五十嵐一の町６３７９番地９５" }, "geometry": { "type": "Point", "coordinates": [ 138.945944, 37.876282 ] } },
{ "type": "Feature", "properties": { "ID": "154JONCX00004", "正式名称": "なかむら母乳育児相談室", "機関区分": 4, "都道府県コード": 15, "市区町村コード": 102, "所在地": "新潟県新潟市東区もえぎ野３丁目７ー１６", "緯度": 37.894394, "経度": 139.106451, "url": "https://www.iryou.teikyouseido.mhlw.go.jp/znk-web/juminkanja/S2430/initialize?prefCd=15&kikanCd=JONCX00004&kikanKbn=4", "url2": "https://midwife-nakamura.jimdofree.com/", "内容": "なかむら母乳育児相談室【4:助産院】新潟県新潟市東区もえぎ野３丁目７ー１６" }, "geometry": { "type": "Point", "coordinates": [ 139.106451, 37.894394 ] } },
{ "type": "Feature", "properties": { "ID": "154JONCX00005", "正式名称": "にれい母乳育児相談室", "機関区分": 4, "都道府県コード": 15, "市区町村コード": 108, "所在地": "新潟県新潟市西蒲区河井７９－２", "緯度": 37.750034, "経度": 138.911815, "url": "https://www.iryou.teikyouseido.mhlw.go.jp/znk-web/juminkanja/S2430/initialize?prefCd=15&kikanCd=JONCX00005&kikanKbn=4", "url2": "https://nireibaby.jimdo.com/", "内容": "にれい母乳育児相談室【4:助産院】新潟県新潟市西蒲区河井７９－２" }, "geometry": { "type": "Point", "coordinates": [ 138.911815, 37.750034 ] } },
{ "type": "Feature", "properties": { "ID": "154JONCX00008", "正式名称": "遠藤　助産院", "機関区分": 4, "都道府県コード": 15, "市区町村コード": 102, "所在地": "新潟県新潟市東区北葉町５番４号", "緯度": 37.937816, "経度": 139.076296, "url": "https://www.iryou.teikyouseido.mhlw.go.jp/znk-web/juminkanja/S2430/initialize?prefCd=15&kikanCd=JONCX00008&kikanKbn=4", "url2": null, "内容": "遠藤　助産院【4:助産院】新潟県新潟市東区北葉町５番４号" }, "geometry": { "type": "Point", "coordinates": [ 139.076296, 37.937816 ] } },
{ "type": "Feature", "properties": { "ID": "154JONCX0001", "正式名称": "森川母乳育児相談室", "機関区分": 4, "都道府県コード": 15, "市区町村コード": 104, "所在地": "新潟県新潟市江南区曽野木２－２－２１森川母乳育児相談室", "緯度": 37.864628, "経度": 139.038699, "url": "https://www.iryou.teikyouseido.mhlw.go.jp/znk-web/juminkanja/S2430/initialize?prefCd=15&kikanCd=JONCX0001&kikanKbn=4", "url2": "https://morikawa-b-i-s7.crayonsite.info/", "内容": "森川母乳育児相談室【4:助産院】新潟県新潟市江南区曽野木２－２－２１森川母乳育児相談室" }, "geometry": { "type": "Point", "coordinates": [ 139.038699, 37.864628 ] } },
{ "type": "Feature", "properties": { "ID": "154JONCX00022", "正式名称": "いずみ出張専門助産院（和泉久美子）", "機関区分": 4, "都道府県コード": 15, "市区町村コード": 105, "所在地": "新潟県新潟市秋葉区山谷町１－１０－２８", "緯度": 37.796194, "経度": 139.119278, "url": "https://www.iryou.teikyouseido.mhlw.go.jp/znk-web/juminkanja/S2430/initialize?prefCd=15&kikanCd=JONCX00022&kikanKbn=4", "url2": null, "内容": "いずみ出張専門助産院（和泉久美子）【4:助産院】新潟県新潟市秋葉区山谷町１－１０－２８" }, "geometry": { "type": "Point", "coordinates": [ 139.119278, 37.796194 ] } },
{ "type": "Feature", "properties": { "ID": "154JONCX00063", "正式名称": "さくらマタニティケアホーム", "機関区分": 4, "都道府県コード": 15, "市区町村コード": 104, "所在地": "新潟県新潟市江南区横越中央７丁目１番６号", "緯度": 37.853385, "経度": 139.14501, "url": "https://www.iryou.teikyouseido.mhlw.go.jp/znk-web/juminkanja/S2430/initialize?prefCd=15&kikanCd=JONCX00063&kikanKbn=4", "url2": "https://www.sankafujinka.jp/?page_id=1055", "内容": "さくらマタニティケアホーム【4:助産院】新潟県新潟市江南区横越中央７丁目１番６号" }, "geometry": { "type": "Point", "coordinates": [ 139.14501, 37.853385 ] } },
{ "type": "Feature", "properties": { "ID": "154JONCX00065", "正式名称": "助産院　春ひつじ", "機関区分": 4, "都道府県コード": 15, "市区町村コード": 103, "所在地": "新潟県新潟市中央区川岸町３ー２０ー２９", "緯度": 37.908777, "経度": 139.025841, "url": "https://www.iryou.teikyouseido.mhlw.go.jp/znk-web/juminkanja/S2430/initialize?prefCd=15&kikanCd=JONCX00065&kikanKbn=4", "url2": null, "内容": "助産院　春ひつじ【4:助産院】新潟県新潟市中央区川岸町３ー２０ー２９" }, "geometry": { "type": "Point", "coordinates": [ 139.025841, 37.908777 ] } },
{ "type": "Feature", "properties": { "ID": "154JONCX00068", "正式名称": "Ｃｌａｉｒ　ｄｅ　ｌｕｎｅ", "機関区分": 4, "都道府県コード": 15, "市区町村コード": 105, "所在地": "新潟県新潟市秋葉区あおば通２丁目１５番２４号", "緯度": 37.835258, "経度": 139.10362, "url": "https://www.iryou.teikyouseido.mhlw.go.jp/znk-web/juminkanja/S2430/initialize?prefCd=15&kikanCd=JONCX00068&kikanKbn=4", "url2": "https://clair-de-lune-2017.wixsite.com/website", "内容": "Ｃｌａｉｒ　ｄｅ　ｌｕｎｅ【4:助産院】新潟県新潟市秋葉区あおば通２丁目１５番２４号" }, "geometry": { "type": "Point", "coordinates": [ 139.10362, 37.835258 ] } },
{ "type": "Feature", "properties": { "ID": "154JONCX00070", "正式名称": "ふくかめ助産院", "機関区分": 4, "都道府県コード": 15, "市区町村コード": 104, "所在地": "新潟県新潟市江南区袋津４丁目３番３１号", "緯度": 37.863742, "経度": 139.114736, "url": "https://www.iryou.teikyouseido.mhlw.go.jp/znk-web/juminkanja/S2430/initialize?prefCd=15&kikanCd=JONCX00070&kikanKbn=4", "url2": "fukukame-josanin.com", "内容": "ふくかめ助産院【4:助産院】新潟県新潟市江南区袋津４丁目３番３１号" }, "geometry": { "type": "Point", "coordinates": [ 139.114736, 37.863742 ] } },
{ "type": "Feature", "properties": { "ID": "154JONCX00071", "正式名称": "上田　順江", "機関区分": 4, "都道府県コード": 15, "市区町村コード": 105, "所在地": "新潟県新潟市秋葉区大鹿５９１番地", "緯度": 37.795305, "経度": 139.095329, "url": "https://www.iryou.teikyouseido.mhlw.go.jp/znk-web/juminkanja/S2430/initialize?prefCd=15&kikanCd=JONCX00071&kikanKbn=4", "url2": null, "内容": "上田　順江【4:助産院】新潟県新潟市秋葉区大鹿５９１番地" }, "geometry": { "type": "Point", "coordinates": [ 139.095329, 37.795305 ] } },
{ "type": "Feature", "properties": { "ID": "154JONCX00074", "正式名称": "みはる助産所", "機関区分": 4, "都道府県コード": 15, "市区町村コード": 106, "所在地": "新潟県新潟市南区白根古川１０４番地１", "緯度": 37.769572, "経度": 139.028995, "url": "https://www.iryou.teikyouseido.mhlw.go.jp/znk-web/juminkanja/S2430/initialize?prefCd=15&kikanCd=JONCX00074&kikanKbn=4", "url2": null, "内容": "みはる助産所【4:助産院】新潟県新潟市南区白根古川１０４番地１" }, "geometry": { "type": "Point", "coordinates": [ 139.028995, 37.769572 ] } },
{ "type": "Feature", "properties": { "ID": "154JONGX00028", "正式名称": "産後ケアハウスねんねこ", "機関区分": 4, "都道府県コード": 15, "市区町村コード": 202, "所在地": "新潟県長岡市蓮潟１－１４－６", "緯度": 37.465708, "経度": 138.82142, "url": "https://www.iryou.teikyouseido.mhlw.go.jp/znk-web/juminkanja/S2430/initialize?prefCd=15&kikanCd=JONGX00028&kikanKbn=4", "url2": null, "内容": "産後ケアハウスねんねこ【4:助産院】新潟県長岡市蓮潟１－１４－６" }, "geometry": { "type": "Point", "coordinates": [ 138.82142, 37.465708 ] } },
{ "type": "Feature", "properties": { "ID": "154JONTX00002", "正式名称": "ママハウス和", "機関区分": 4, "都道府県コード": 15, "市区町村コード": 218, "所在地": "新潟県五泉市寺沢４丁目１－４３", "緯度": 37.732089, "経度": 139.186135, "url": "https://www.iryou.teikyouseido.mhlw.go.jp/znk-web/juminkanja/S2430/initialize?prefCd=15&kikanCd=JONTX00002&kikanKbn=4", "url2": null, "内容": "ママハウス和【4:助産院】新潟県五泉市寺沢４丁目１－４３" }, "geometry": { "type": "Point", "coordinates": [ 139.186135, 37.732089 ] } },
{ "type": "Feature", "properties": { "ID": "154JOSDX00003", "正式名称": "優助産所", "機関区分": 4, "都道府県コード": 15, "市区町村コード": 224, "所在地": "新潟県佐渡市中興乙１３２０", "緯度": 38.018945, "経度": 138.358783, "url": "https://www.iryou.teikyouseido.mhlw.go.jp/znk-web/juminkanja/S2430/initialize?prefCd=15&kikanCd=JOSDX00003&kikanKbn=4", "url2": null, "内容": "優助産所【4:助産院】新潟県佐渡市中興乙１３２０" }, "geometry": { "type": "Point", "coordinates": [ 138.358783, 38.018945 ] } },
{ "type": "Feature", "properties": { "ID": "154JOSHX00001", "正式名称": "産後ケアハウスねんね　なかそね町", "機関区分": 4, "都道府県コード": 15, "市区町村コード": 206, "所在地": "新潟県新発田市中曽根町１丁目８－８－２", "緯度": 37.963353, "経度": 139.314442, "url": "https://www.iryou.teikyouseido.mhlw.go.jp/znk-web/juminkanja/S2430/initialize?prefCd=15&kikanCd=JOSHX00001&kikanKbn=4", "url2": null, "内容": "産後ケアハウスねんね　なかそね町【4:助産院】新潟県新発田市中曽根町１丁目８－８－２" }, "geometry": { "type": "Point", "coordinates": [ 139.314442, 37.963353 ] } },
{ "type": "Feature", "properties": { "ID": "154JOSHX00004", "正式名称": "阿久津助産所", "機関区分": 4, "都道府県コード": 15, "市区町村コード": 227, "所在地": "新潟県胎内市西条町２－５", "緯度": 38.063429, "経度": 139.40001, "url": "https://www.iryou.teikyouseido.mhlw.go.jp/znk-web/juminkanja/S2430/initialize?prefCd=15&kikanCd=JOSHX00004&kikanKbn=4", "url2": null, "内容": "阿久津助産所【4:助産院】新潟県胎内市西条町２－５" }, "geometry": { "type": "Point", "coordinates": [ 139.40001, 38.063429 ] } },
{ "type": "Feature", "properties": { "ID": "154JOSHX00007", "正式名称": "ほのぼの母乳育児助産所", "機関区分": 4, "都道府県コード": 15, "市区町村コード": 206, "所在地": "新潟県新発田市舟入町１－１７－１３アークヴィラ１０２号室", "緯度": 37.954326, "経度": 139.303555, "url": "https://www.iryou.teikyouseido.mhlw.go.jp/znk-web/juminkanja/S2430/initialize?prefCd=15&kikanCd=JOSHX00007&kikanKbn=4", "url2": "https://www.honobono-ikuji.jp", "内容": "ほのぼの母乳育児助産所【4:助産院】新潟県新発田市舟入町１－１７－１３アークヴィラ１０２号室" }, "geometry": { "type": "Point", "coordinates": [ 139.303555, 37.954326 ] } },
{ "type": "Feature", "properties": { "ID": "154JOSHX00011", "正式名称": "産後ケアハウスねんね　住吉町", "機関区分": 4, "都道府県コード": 15, "市区町村コード": 206, "所在地": "新潟県新発田市住吉町２－８－８", "緯度": 37.949514, "経度": 139.314322, "url": "https://www.iryou.teikyouseido.mhlw.go.jp/znk-web/juminkanja/S2430/initialize?prefCd=15&kikanCd=JOSHX00011&kikanKbn=4", "url2": null, "内容": "産後ケアハウスねんね　住吉町【4:助産院】新潟県新発田市住吉町２－８－８" }, "geometry": { "type": "Point", "coordinates": [ 139.314322, 37.949514 ] } },
{ "type": "Feature", "properties": { "ID": "154JOSNX00014", "正式名称": "ｓａｙｕ助産院", "機関区分": 4, "都道府県コード": 15, "市区町村コード": 213, "所在地": "新潟県燕市吉田日之出町２－７", "緯度": 37.685863, "経度": 138.878994, "url": "https://www.iryou.teikyouseido.mhlw.go.jp/znk-web/juminkanja/S2430/initialize?prefCd=15&kikanCd=JOSNX00014&kikanKbn=4", "url2": null, "内容": "ｓａｙｕ助産院【4:助産院】新潟県燕市吉田日之出町２－７" }, "geometry": { "type": "Point", "coordinates": [ 138.878994, 37.685863 ] } },
{ "type": "Feature", "properties": { "ID": "154JOTGX00005", "正式名称": "よこさわ助産院", "機関区分": 4, "都道府県コード": 15, "市区町村コード": 216, "所在地": "新潟県糸魚川市上刈４－２２－１", "緯度": 37.032355, "経度": 137.855528, "url": "https://www.iryou.teikyouseido.mhlw.go.jp/znk-web/juminkanja/S2430/initialize?prefCd=15&kikanCd=JOTGX00005&kikanKbn=4", "url2": null, "内容": "よこさわ助産院【4:助産院】新潟県糸魚川市上刈４－２２－１" }, "geometry": { "type": "Point", "coordinates": [ 137.855528, 37.032355 ] } },
{ "type": "Feature", "properties": { "ID": "154JOUNX00001", "正式名称": "瀧澤助産院", "機関区分": 4, "都道府県コード": 15, "市区町村コード": 225, "所在地": "新潟県魚沼市七日市６３９－１３", "緯度": 37.234984, "経度": 138.976803, "url": "https://www.iryou.teikyouseido.mhlw.go.jp/znk-web/juminkanja/S2430/initialize?prefCd=15&kikanCd=JOUNX00001&kikanKbn=4", "url2": null, "内容": "瀧澤助産院【4:助産院】新潟県魚沼市七日市６３９－１３" }, "geometry": { "type": "Point", "coordinates": [ 138.976803, 37.234984 ] } },
{ "type": "Feature", "properties": { "ID": "154ONTX00004", "正式名称": "三本木助産院", "機関区分": 4, "都道府県コード": 15, "市区町村コード": 218, "所在地": "新潟県五泉市三本木２丁目３番４３号", "緯度": 37.753875, "経度": 139.174611, "url": "https://www.iryou.teikyouseido.mhlw.go.jp/znk-web/juminkanja/S2430/initialize?prefCd=15&kikanCd=ONTX00004&kikanKbn=4", "url2": null, "内容": "三本木助産院【4:助産院】新潟県五泉市三本木２丁目３番４３号" }, "geometry": { "type": "Point", "coordinates": [ 139.174611, 37.753875 ] } }
]
}
