{
"type": "FeatureCollection",
"name": "geo_15_特定施設入居者生活介護（軽費老人ホーム）",
"crs": { "type": "name", "properties": { "name": "urn:ogc:def:crs:OGC:1.3:CRS84" } },
"features": [
{ "type": "Feature", "properties": { "内容": "ラゾス新潟東【特定施設入居者生活介護（軽費老人ホーム）】新潟県新潟市東区中野山４丁目１６番１３号", "url": "https://www.kaigokensaku.mhlw.go.jp/15/index.php?action_kouhyou_detail_004_kani=true&JigyosyoCd=1570116465-00&ServiceCd=332&Type=search", "url2": "https://lazos-home.jp/niigata-e/" }, "geometry": { "type": "Point", "coordinates": [ 139.1032076, 37.9036587 ] } },
{ "type": "Feature", "properties": { "内容": "特定施設入居者生活介護　リバーサイド輝【特定施設入居者生活介護（軽費老人ホーム）】新潟県新潟市江南区三百地2312-1ケアハウス　リバーサイド輝", "url": "https://www.kaigokensaku.mhlw.go.jp/15/index.php?action_kouhyou_detail_004_kani=true&JigyosyoCd=1570114320-00&ServiceCd=332&Type=search", "url2": "http；//www.jyouyoukai.or.jp" }, "geometry": { "type": "Point", "coordinates": [ 139.147693, 37.8981829 ] } },
{ "type": "Feature", "properties": { "内容": "特定施設入居者生活介護　サンパレス輝【特定施設入居者生活介護（軽費老人ホーム）】新潟県新潟市江南区亀田中島4-6-28ケアハウス　サンパレス輝", "url": "https://www.kaigokensaku.mhlw.go.jp/15/index.php?action_kouhyou_detail_004_kani=true&JigyosyoCd=1570113892-00&ServiceCd=332&Type=search", "url2": "http://www.jyouyoukai.or.jp" }, "geometry": { "type": "Point", "coordinates": [ 139.10106564603268, 37.889248924318871 ] } },
{ "type": "Feature", "properties": { "内容": "ケアハウス白寿荘西【特定施設入居者生活介護（軽費老人ホーム）】新潟県新潟市西蒲区巻甲4363", "url": "https://www.kaigokensaku.mhlw.go.jp/15/index.php?action_kouhyou_detail_004_kani=true&JigyosyoCd=1570105617-00&ServiceCd=332&Type=search", "url2": "http://www.hakujyusou.jp" }, "geometry": { "type": "Point", "coordinates": [ 138.89223422991634, 37.754106283489811 ] } },
{ "type": "Feature", "properties": { "内容": "ケアハウス月輪館【特定施設入居者生活介護（軽費老人ホーム）】新発田市虎丸５２６", "url": "https://www.kaigokensaku.mhlw.go.jp/15/index.php?action_kouhyou_detail_004_kani=true&JigyosyoCd=1570600336-00&ServiceCd=332&Type=search", "url2": "https://www.shibatakai.jp" }, "geometry": { "type": "Point", "coordinates": [ 139.414688299999966, 37.9260763 ] } },
{ "type": "Feature", "properties": { "内容": "ケアハウス　コンフィ陽だまり苑【特定施設入居者生活介護（軽費老人ホーム）】新潟県新発田市諏訪町1丁目10番38号", "url": "https://www.kaigokensaku.mhlw.go.jp/15/index.php?action_kouhyou_detail_004_kani=true&JigyosyoCd=1570601219-00&ServiceCd=332&Type=search", "url2": "http://hidamarien.ne.jp/" }, "geometry": { "type": "Point", "coordinates": [ 139.333980900000029, 37.9434978 ] } },
{ "type": "Feature", "properties": { "内容": "ケアハウスあいれふ石塚【特定施設入居者生活介護（軽費老人ホーム）】新潟県妙高市石塚町2丁目7番27号", "url": "https://www.kaigokensaku.mhlw.go.jp/15/index.php?action_kouhyou_detail_004_kani=true&JigyosyoCd=1571600699-00&ServiceCd=332&Type=search", "url2": "https://airefu.or.jp" }, "geometry": { "type": "Point", "coordinates": [ 138.255301082278493, 37.037986160059823 ] } },
{ "type": "Feature", "properties": { "内容": "ケアハウス　やまなみ【特定施設入居者生活介護（軽費老人ホーム）】魚沼市原虫野425番地2", "url": "https://www.kaigokensaku.mhlw.go.jp/15/index.php?action_kouhyou_detail_004_kani=true&JigyosyoCd=1572300612-00&ServiceCd=332&Type=search", "url2": "https://www.uonofukushikai.or.jp/" }, "geometry": { "type": "Point", "coordinates": [ 138.9618815, 37.2141081 ] } },
{ "type": "Feature", "properties": { "内容": "軽費老人ホームケアハウス　リバーサイドみさと【特定施設入居者生活介護（軽費老人ホーム）】新潟県中魚沼郡津南町大字芦ケ崎乙355番地", "url": "https://www.kaigokensaku.mhlw.go.jp/15/index.php?action_kouhyou_detail_004_kani=true&JigyosyoCd=1575900186-00&ServiceCd=332&Type=search", "url2": "http://www.naebafukushikai.com" }, "geometry": { "type": "Point", "coordinates": [ 138.633442096889439, 37.004363318652665 ] } }
]
}
