{
"type": "FeatureCollection",
"name": "geo_15_地域密着型特定施設入居者生活介護（軽費老人ホーム）",
"crs": { "type": "name", "properties": { "name": "urn:ogc:def:crs:OGC:1.3:CRS84" } },
"features": [
{ "type": "Feature", "properties": { "内容": "ケアハウスひう【地域密着型特定施設入居者生活介護（軽費老人ホーム）】小千谷市大字ひ生乙１３８９－６", "url": "https://www.kaigokensaku.mhlw.go.jp/15/index.php?action_kouhyou_detail_004_kani=true&JigyosyoCd=1590800049-00&ServiceCd=362&Type=search", "url2": "https://warabien.jp" }, "geometry": { "type": "Point", "coordinates": [ 138.811225040597492, 37.303509498912845 ] } }
]
}
