{
"type": "FeatureCollection",
"name": "geo_15_1",
"crs": { "type": "name", "properties": { "name": "urn:ogc:def:crs:OGC:1.3:CRS84" } },
"features": [
{ "type": "Feature", "properties": { "ID": "151BYJTX00002", "正式名称": "独立行政法人国立病院機構　さいがた医療センター", "機関区分": 1, "都道府県コード": 15, "市区町村コード": 222, "所在地": "新潟県上越市大潟区犀潟４６８の１", "緯度": 37.209873, "経度": 138.308748, "url": "https://www.iryou.teikyouseido.mhlw.go.jp/znk-web/juminkanja/S2430/initialize?prefCd=15&kikanCd=BYJTX00002&kikanKbn=1", "url2": "https://saigata.hosp.go.jp/", "内容": "独立行政法人国立病院機構　さいがた医療センター【1:病院】【診療科目:内科_脳神経内科_消化器内科_整形外科_小児科_精神科_歯科_リハビリテーション科_放射線科】【一般病床数:162療養病床数:0精神病床数:215感染症病床数:0合計病床数:377】新潟県上越市大潟区犀潟４６８の１" }, "geometry": { "type": "Point", "coordinates": [ 138.308748, 37.209873 ] } },
{ "type": "Feature", "properties": { "ID": "151BYJTX00003", "正式名称": "新潟県立中央病院", "機関区分": 1, "都道府県コード": 15, "市区町村コード": 222, "所在地": "新潟県上越市新南町２０５番地", "緯度": 37.106805, "経度": 138.270535, "url": "https://www.iryou.teikyouseido.mhlw.go.jp/znk-web/juminkanja/S2430/initialize?prefCd=15&kikanCd=BYJTX00003&kikanKbn=1", "url2": "https://www.cent-hosp.pref.niigata.jp/", "内容": "新潟県立中央病院【1:病院】【診療科目:内科_脳神経内科_循環器内科_消化器内科_外科_脳神経外科_呼吸器外科_心臓血管外科_整形外科_形成外科_小児科_小児外科_産婦人科_眼科_耳鼻いんこう科_皮膚科_泌尿器科_精神科_歯科口腔外科_リハビリテーション科_放射線科_病理診断科_救急科_麻酔科】【一般病床数:524療養病床数:0精神病床数:0感染症病床数:6合計病床数:530】新潟県上越市新南町２０５番地" }, "geometry": { "type": "Point", "coordinates": [ 138.270535, 37.106805 ] } },
{ "type": "Feature", "properties": { "ID": "151BYJTX00004", "正式名称": "新潟県立柿崎病院", "機関区分": 1, "都道府県コード": 15, "市区町村コード": 222, "所在地": "新潟県上越市柿崎区柿崎６４１２ー１", "緯度": 37.277863, "経度": 138.393328, "url": "https://www.iryou.teikyouseido.mhlw.go.jp/znk-web/juminkanja/S2430/initialize?prefCd=15&kikanCd=BYJTX00004&kikanKbn=1", "url2": "http://kakizaki-hp.niigata.jp/", "内容": "新潟県立柿崎病院【1:病院】【診療科目:内科_脳神経内科_外科_脳神経外科_整形外科_婦人科_眼科_耳鼻いんこう科_皮膚科_リハビリテーション科】【一般病床数:55療養病床数:0精神病床数:0感染症病床数:0合計病床数:55】新潟県上越市柿崎区柿崎６４１２ー１" }, "geometry": { "type": "Point", "coordinates": [ 138.393328, 37.277863 ] } },
{ "type": "Feature", "properties": { "ID": "151BYJTX00005", "正式名称": "新潟県立妙高病院", "機関区分": 1, "都道府県コード": 15, "市区町村コード": 217, "所在地": "新潟県妙高市大字田口１４７－１", "緯度": 36.869571, "経度": 138.204835, "url": "https://www.iryou.teikyouseido.mhlw.go.jp/znk-web/juminkanja/S2430/initialize?prefCd=15&kikanCd=BYJTX00005&kikanKbn=1", "url2": "http://www.myoukou-hsp.gr.jp", "内容": "新潟県立妙高病院【1:病院】【診療科目:内科_脳神経内科_整形外科_小児科_眼科_耳鼻いんこう科_皮膚科_泌尿器科_精神科】【一般病床数:47療養病床数:0精神病床数:0感染症病床数:0合計病床数:47】新潟県妙高市大字田口１４７－１" }, "geometry": { "type": "Point", "coordinates": [ 138.204835, 36.869571 ] } },
{ "type": "Feature", "properties": { "ID": "151BYJTX00006", "正式名称": "上越地域医療センタ－病院", "機関区分": 1, "都道府県コード": 15, "市区町村コード": 222, "所在地": "新潟県上越市南高田町６番９号", "緯度": 37.09621, "経度": 138.247402, "url": "https://www.iryou.teikyouseido.mhlw.go.jp/znk-web/juminkanja/S2430/initialize?prefCd=15&kikanCd=BYJTX00006&kikanKbn=1", "url2": null, "内容": "上越地域医療センタ－病院【1:病院】【診療科目:内科_整形外科_婦人科_リハビリテーション科_麻酔科】【一般病床数:142療養病床数:55精神病床数:0感染症病床数:0合計病床数:197】新潟県上越市南高田町６番９号" }, "geometry": { "type": "Point", "coordinates": [ 138.247402, 37.09621 ] } },
{ "type": "Feature", "properties": { "ID": "151BYJTX00007", "正式名称": "新潟県厚生農業協同組合連合会　けいなん総合病院", "機関区分": 1, "都道府県コード": 15, "市区町村コード": 217, "所在地": "新潟県妙高市田町２丁目４番７号", "緯度": 37.021183, "経度": 138.252298, "url": "https://www.iryou.teikyouseido.mhlw.go.jp/znk-web/juminkanja/S2430/initialize?prefCd=15&kikanCd=BYJTX00007&kikanKbn=1", "url2": "http://www.keinansogo.jp/", "内容": "新潟県厚生農業協同組合連合会　けいなん総合病院【1:病院】【診療科目:内科_消化器内科_人工透析内科_内視鏡内科_外科_脳神経外科_整形外科_小児科_産婦人科_眼科_耳鼻いんこう科_皮膚科_泌尿器科_歯科口腔外科_リハビリテーション科】【一般病床数:120療養病床数:0精神病床数:0感染症病床数:0合計病床数:120】新潟県妙高市田町２丁目４番７号" }, "geometry": { "type": "Point", "coordinates": [ 138.252298, 37.021183 ] } },
{ "type": "Feature", "properties": { "ID": "151BYJTX00008", "正式名称": "新潟県厚生農業協同組合連合会　上越総合病院", "機関区分": 1, "都道府県コード": 15, "市区町村コード": 222, "所在地": "新潟県上越市大道福田６１６番地", "緯度": 37.149592, "経度": 138.250803, "url": "https://www.iryou.teikyouseido.mhlw.go.jp/znk-web/juminkanja/S2430/initialize?prefCd=15&kikanCd=BYJTX00008&kikanKbn=1", "url2": "https://joetsu-hp.jp/", "内容": "新潟県厚生農業協同組合連合会　上越総合病院【1:病院】【診療科目:内科_循環器内科_消化器内科_神経内科_外科_脳神経外科_呼吸器外科_心臓血管外科_整形外科_形成外科_小児科_産婦人科_眼科_耳鼻いんこう科_皮膚科_泌尿器科_歯科口腔外科_放射線治療科_救急科_麻酔科】【一般病床数:313療養病床数:0精神病床数:0感染症病床数:0合計病床数:313】新潟県上越市大道福田６１６番地" }, "geometry": { "type": "Point", "coordinates": [ 138.250803, 37.149592 ] } },
{ "type": "Feature", "properties": { "ID": "151BYJTX00009", "正式名称": "三交病院", "機関区分": 1, "都道府県コード": 15, "市区町村コード": 222, "所在地": "新潟県上越市大字塩屋３３７ー１", "緯度": 37.159106, "経度": 138.242426, "url": "https://www.iryou.teikyouseido.mhlw.go.jp/znk-web/juminkanja/S2430/initialize?prefCd=15&kikanCd=BYJTX00009&kikanKbn=1", "url2": "http://www.sanko-hospital.org/", "内容": "三交病院【1:病院】【診療科目:精神科_神経科_歯科】【一般病床数:0療養病床数:0精神病床数:144感染症病床数:0合計病床数:144】新潟県上越市大字塩屋３３７ー１" }, "geometry": { "type": "Point", "coordinates": [ 138.242426, 37.159106 ] } },
{ "type": "Feature", "properties": { "ID": "151BYJTX00010", "正式名称": "高田西城病院", "機関区分": 1, "都道府県コード": 15, "市区町村コード": 222, "所在地": "新潟県上越市西城町２丁目８番３０号", "緯度": 37.111011, "経度": 138.251269, "url": "https://www.iryou.teikyouseido.mhlw.go.jp/znk-web/juminkanja/S2430/initialize?prefCd=15&kikanCd=BYJTX00010&kikanKbn=1", "url2": "http://www.nishishiro-hp.or.jp", "内容": "高田西城病院【1:病院】【診療科目:内科_精神科_心療内科_老年精神科_歯科】【一般病床数:0療養病床数:0精神病床数:270感染症病床数:0合計病床数:270】新潟県上越市西城町２丁目８番３０号" }, "geometry": { "type": "Point", "coordinates": [ 138.251269, 37.111011 ] } },
{ "type": "Feature", "properties": { "ID": "151BYJTX00011", "正式名称": "川室記念病院", "機関区分": 1, "都道府県コード": 15, "市区町村コード": 222, "所在地": "新潟県上越市北新保７１番甲地", "緯度": 37.144475, "経度": 138.300244, "url": "https://www.iryou.teikyouseido.mhlw.go.jp/znk-web/juminkanja/S2430/initialize?prefCd=15&kikanCd=BYJTX00011&kikanKbn=1", "url2": "http://www.kawamuro.net", "内容": "川室記念病院【1:病院】【診療科目:精神科】【一般病床数:0療養病床数:0精神病床数:171感染症病床数:0合計病床数:171】新潟県上越市北新保７１番甲地" }, "geometry": { "type": "Point", "coordinates": [ 138.300244, 37.144475 ] } },
{ "type": "Feature", "properties": { "ID": "151BYJTX00012", "正式名称": "医療法人　知命堂病院", "機関区分": 1, "都道府県コード": 15, "市区町村コード": 222, "所在地": "新潟県上越市西城町３丁目６番３１号", "緯度": 37.114991, "経度": 138.247508, "url": "https://www.iryou.teikyouseido.mhlw.go.jp/znk-web/juminkanja/S2430/initialize?prefCd=15&kikanCd=BYJTX00012&kikanKbn=1", "url2": "http://www.chimeido.jp", "内容": "医療法人　知命堂病院【1:病院】【診療科目:内科_脳神経内科_循環器内科_外科_整形外科_泌尿器科】【一般病床数:97療養病床数:48精神病床数:0感染症病床数:0合計病床数:145】新潟県上越市西城町３丁目６番３１号" }, "geometry": { "type": "Point", "coordinates": [ 138.247508, 37.114991 ] } },
{ "type": "Feature", "properties": { "ID": "151BYKZX00001", "正式名称": "独立行政法人国立病院機構新潟病院", "機関区分": 1, "都道府県コード": 15, "市区町村コード": 205, "所在地": "新潟県柏崎市赤坂町３番５２号", "緯度": 37.358332, "経度": 138.537123, "url": "https://www.iryou.teikyouseido.mhlw.go.jp/znk-web/juminkanja/S2430/initialize?prefCd=15&kikanCd=BYKZX00001&kikanKbn=1", "url2": "https://niigata.hosp.go.jp/", "内容": "独立行政法人国立病院機構新潟病院【1:病院】【診療科目:内科_脳神経内科_外科_脳神経外科_整形外科_小児科_精神科_心療内科_歯科_リウマチ科_リハビリテーション科_放射線科】【一般病床数:350療養病床数:0精神病床数:0感染症病床数:0合計病床数:350】新潟県柏崎市赤坂町３番５２号" }, "geometry": { "type": "Point", "coordinates": [ 138.537123, 37.358332 ] } },
{ "type": "Feature", "properties": { "ID": "151BYKZX00002", "正式名称": "新潟県厚生農業協同組合連合会　柏崎総合医療センター", "機関区分": 1, "都道府県コード": 15, "市区町村コード": 205, "所在地": "新潟県柏崎市北半田２丁目１１番３号", "緯度": 37.362345, "経度": 138.577607, "url": "https://www.iryou.teikyouseido.mhlw.go.jp/znk-web/juminkanja/S2430/initialize?prefCd=15&kikanCd=BYKZX00002&kikanKbn=1", "url2": "http://www.kashiwazaki-ghmc.jp/", "内容": "新潟県厚生農業協同組合連合会　柏崎総合医療センター【1:病院】【診療科目:内科_血液内科_糖尿病・内分泌内科_呼吸器内科_循環器内科_消化器内科_腎臓内科_神経内科_外科_脳神経外科_心臓血管外科_整形外科_小児科_産婦人科_眼科_耳鼻いんこう科_皮膚科_泌尿器科_精神科_歯科_歯科口腔外科_リハビリテーション科_放射線科_麻酔科】【一般病床数:293療養病床数:0精神病床数:0感染症病床数:0合計病床数:293】新潟県柏崎市北半田２丁目１１番３号" }, "geometry": { "type": "Point", "coordinates": [ 138.577607, 37.362345 ] } },
{ "type": "Feature", "properties": { "ID": "151BYKZX00003", "正式名称": "医療法人公仁会　柏崎中央病院", "機関区分": 1, "都道府県コード": 15, "市区町村コード": 205, "所在地": "新潟県柏崎市駅前２丁目１番２５号", "緯度": 37.365971, "経度": 138.553162, "url": "https://www.iryou.teikyouseido.mhlw.go.jp/znk-web/juminkanja/S2430/initialize?prefCd=15&kikanCd=BYKZX00003&kikanKbn=1", "url2": "https://www.k-central.or.jp", "内容": "医療法人公仁会　柏崎中央病院【1:病院】【診療科目:内科_糖尿病・内分泌内科_循環器内科_消化器内科_整形外科_泌尿器科_リハビリテーション科】【一般病床数:54療養病床数:0精神病床数:0感染症病床数:0合計病床数:54】新潟県柏崎市駅前２丁目１番２５号" }, "geometry": { "type": "Point", "coordinates": [ 138.553162, 37.365971 ] } },
{ "type": "Feature", "properties": { "ID": "151BYKZX00004", "正式名称": "社会医療法人立川メディカルセンター　柏崎厚生病院", "機関区分": 1, "都道府県コード": 15, "市区町村コード": 205, "所在地": "新潟県柏崎市大字茨目字二ツ池２０７１－１", "緯度": 37.353425, "経度": 138.586957, "url": "https://www.iryou.teikyouseido.mhlw.go.jp/znk-web/juminkanja/S2430/initialize?prefCd=15&kikanCd=BYKZX00004&kikanKbn=1", "url2": "https://www.tatikawa.or.jp/kousei/", "内容": "社会医療法人立川メディカルセンター　柏崎厚生病院【1:病院】【診療科目:内科_精神科_歯科】【一般病床数:60療養病床数:0精神病床数:240感染症病床数:0合計病床数:300】新潟県柏崎市大字茨目字二ツ池２０７１－１" }, "geometry": { "type": "Point", "coordinates": [ 138.586957, 37.353425 ] } },
{ "type": "Feature", "properties": { "ID": "151BYKZX00005", "正式名称": "医療法人明生会　関病院", "機関区分": 1, "都道府県コード": 15, "市区町村コード": 205, "所在地": "新潟県柏崎市元城町１番４２号", "緯度": 37.350555, "経度": 138.555337, "url": "https://www.iryou.teikyouseido.mhlw.go.jp/znk-web/juminkanja/S2430/initialize?prefCd=15&kikanCd=BYKZX00005&kikanKbn=1", "url2": "https://meiseikai-mc.com/", "内容": "医療法人明生会　関病院【1:病院】【診療科目:精神科】【一般病床数:0療養病床数:0精神病床数:100感染症病床数:0合計病床数:100】新潟県柏崎市元城町１番４２号" }, "geometry": { "type": "Point", "coordinates": [ 138.555337, 37.350555 ] } },
{ "type": "Feature", "properties": { "ID": "151BYMNX00001", "正式名称": "新潟県地域医療推進機構魚沼基幹病院", "機関区分": 1, "都道府県コード": 15, "市区町村コード": 226, "所在地": "新潟県南魚沼市浦佐４１３２番地", "緯度": 37.171224, "経度": 138.936029, "url": "https://www.iryou.teikyouseido.mhlw.go.jp/znk-web/juminkanja/S2430/initialize?prefCd=15&kikanCd=BYMNX00001&kikanKbn=1", "url2": null, "内容": "新潟県地域医療推進機構魚沼基幹病院【1:病院】【診療科目:内科_感染症内科_血液内科_代謝・内分泌内科_脳神経内科_呼吸器内科_循環器内科_消化器内科_腎臓内科_外科_脳神経外科_呼吸器外科_心臓血管外科_消化器外科_乳腺外科_整形外科_小児科_産科_婦人科_眼科_耳鼻いんこう科_皮膚科_泌尿器科_精神科_矯正歯科_歯科口腔外科_リハビリテーション科_放射線治療科_救急科_麻酔科】【一般病床数:400療養病床数:0精神病床数:50感染症病床数:4合計病床数:454】新潟県南魚沼市浦佐４１３２番地" }, "geometry": { "type": "Point", "coordinates": [ 138.936029, 37.171224 ] } },
{ "type": "Feature", "properties": { "ID": "151BYMNX00002", "正式名称": "南魚沼市民病院", "機関区分": 1, "都道府県コード": 15, "市区町村コード": 226, "所在地": "新潟県南魚沼市六日町２６４３番地１", "緯度": 37.056951, "経度": 138.865463, "url": "https://www.iryou.teikyouseido.mhlw.go.jp/znk-web/juminkanja/S2430/initialize?prefCd=15&kikanCd=BYMNX00002&kikanKbn=1", "url2": "https://minamiuonumahp.jp/", "内容": "南魚沼市民病院【1:病院】【診療科目:内科_血液内科_脳神経内科_呼吸器内科_循環器内科_消化器内科_腎臓内科_ペインクリニック内科_緩和ケア内科_外科_心臓血管外科_消化器外科_肛門外科_整形外科_小児科_婦人科_眼科_耳鼻いんこう科_皮膚科_泌尿器科_精神科_歯科_歯科口腔外科_小児歯科_リウマチ科_リハビリテーション科_放射線科_麻酔科】【一般病床数:152療養病床数:0精神病床数:0感染症病床数:0合計病床数:152】新潟県南魚沼市六日町２６４３番地１" }, "geometry": { "type": "Point", "coordinates": [ 138.865463, 37.056951 ] } },
{ "type": "Feature", "properties": { "ID": "151BYMNX00004", "正式名称": "町立湯沢病院", "機関区分": 1, "都道府県コード": 15, "市区町村コード": 461, "所在地": "新潟県南魚沼郡湯沢町湯沢２８７７－１", "緯度": 36.938821, "経度": 138.813553, "url": "https://www.iryou.teikyouseido.mhlw.go.jp/znk-web/juminkanja/S2430/initialize?prefCd=15&kikanCd=BYMNX00004&kikanKbn=1", "url2": "https://yuzawa.jadecom.or.jp/", "内容": "町立湯沢病院【1:病院】【診療科目:内科_外科_整形外科_小児科_眼科_歯科】【一般病床数:40療養病床数:0精神病床数:0感染症病床数:0合計病床数:40】新潟県南魚沼郡湯沢町湯沢２８７７－１" }, "geometry": { "type": "Point", "coordinates": [ 138.813553, 36.938821 ] } },
{ "type": "Feature", "properties": { "ID": "151BYMNX00005", "正式名称": "齋藤記念病院", "機関区分": 1, "都道府県コード": 15, "市区町村コード": 226, "所在地": "新潟県南魚沼市欠之上４７８番地２", "緯度": 37.088134, "経度": 138.867762, "url": "https://www.iryou.teikyouseido.mhlw.go.jp/znk-web/juminkanja/S2430/initialize?prefCd=15&kikanCd=BYMNX00005&kikanKbn=1", "url2": "http://www.saito-memorial.com/", "内容": "齋藤記念病院【1:病院】【診療科目:内科_神経内科_外科_脳神経外科_消化器外科_乳腺外科_肛門外科_胸部外科_整形外科_リウマチ科_リハビリテーション科】【一般病床数:42療養病床数:56精神病床数:0感染症病床数:0合計病床数:98】新潟県南魚沼市欠之上４７８番地２" }, "geometry": { "type": "Point", "coordinates": [ 138.867762, 37.088134 ] } },
{ "type": "Feature", "properties": { "ID": "151BYMNX00006", "正式名称": "五日町病院", "機関区分": 1, "都道府県コード": 15, "市区町村コード": 226, "所在地": "新潟県南魚沼市五日町２３７５", "緯度": 37.125447, "経度": 138.903236, "url": "https://www.iryou.teikyouseido.mhlw.go.jp/znk-web/juminkanja/S2430/initialize?prefCd=15&kikanCd=BYMNX00006&kikanKbn=1", "url2": "https://itukamatihp.com/", "内容": "五日町病院【1:病院】【診療科目:内科_精神科_心療内科】【一般病床数:0療養病床数:0精神病床数:183感染症病床数:0合計病床数:183】新潟県南魚沼市五日町２３７５" }, "geometry": { "type": "Point", "coordinates": [ 138.903236, 37.125447 ] } },
{ "type": "Feature", "properties": { "ID": "151BYMRX00001", "正式名称": "新潟県立坂町病院", "機関区分": 1, "都道府県コード": 15, "市区町村コード": 212, "所在地": "新潟県村上市下鍜冶屋５８９番地", "緯度": 38.113296, "経度": 139.448668, "url": "https://www.iryou.teikyouseido.mhlw.go.jp/znk-web/juminkanja/S2430/initialize?prefCd=15&kikanCd=BYMRX00001&kikanKbn=1", "url2": "https://sakamachi-hospital.jp", "内容": "新潟県立坂町病院【1:病院】【診療科目:内科_外科_整形外科_小児科_眼科_耳鼻いんこう科_皮膚科_泌尿器科_歯科】【一般病床数:99療養病床数:0精神病床数:0感染症病床数:0合計病床数:99】新潟県村上市下鍜冶屋５８９番地" }, "geometry": { "type": "Point", "coordinates": [ 139.448668, 38.113296 ] } },
{ "type": "Feature", "properties": { "ID": "151BYMRX00002", "正式名称": "新潟県厚生農業協同組合連合会村上総合病院", "機関区分": 1, "都道府県コード": 15, "市区町村コード": 212, "所在地": "新潟県村上市緑町五丁目８番１号", "緯度": 38.218475, "経度": 139.461344, "url": "https://www.iryou.teikyouseido.mhlw.go.jp/znk-web/juminkanja/S2430/initialize?prefCd=15&kikanCd=BYMRX00002&kikanKbn=1", "url2": "https://www.mgh.jp/", "内容": "新潟県厚生農業協同組合連合会村上総合病院【1:病院】【診療科目:内科_代謝・内分泌内科_呼吸器内科_循環器内科_消化器内科_人工透析内科_外科_脳神経外科_整形外科_小児科_産婦人科_眼科_皮膚科_精神科_歯科口腔外科_リハビリテーション科_放射線科】【一般病床数:199療養病床数:0精神病床数:0感染症病床数:0合計病床数:199】新潟県村上市緑町五丁目８番１号" }, "geometry": { "type": "Point", "coordinates": [ 139.461344, 38.218475 ] } },
{ "type": "Feature", "properties": { "ID": "151BYMRX00003", "正式名称": "医療法人責善会村上はまなす病院", "機関区分": 1, "都道府県コード": 15, "市区町村コード": 212, "所在地": "新潟県村上市瀬波中町１２番１８号", "緯度": 38.227954, "経度": 139.452143, "url": "https://www.iryou.teikyouseido.mhlw.go.jp/znk-web/juminkanja/S2430/initialize?prefCd=15&kikanCd=BYMRX00003&kikanKbn=1", "url2": "https://sekizenkai.com/access", "内容": "医療法人責善会村上はまなす病院【1:病院】【診療科目:内科_精神科_神経科_歯科】【一般病床数:0療養病床数:0精神病床数:220感染症病床数:0合計病床数:220】新潟県村上市瀬波中町１２番１８号" }, "geometry": { "type": "Point", "coordinates": [ 139.452143, 38.227954 ] } },
{ "type": "Feature", "properties": { "ID": "151BYMRX00005", "正式名称": "医療法人　新光会（社団）　村上記念病院", "機関区分": 1, "都道府県コード": 15, "市区町村コード": 212, "所在地": "新潟県村上市松山２０４番地１", "緯度": 38.217708, "経度": 139.456942, "url": "https://www.iryou.teikyouseido.mhlw.go.jp/znk-web/juminkanja/S2430/initialize?prefCd=15&kikanCd=BYMRX00005&kikanKbn=1", "url2": "http://murakamikinen-hp.jp/", "内容": "医療法人　新光会（社団）　村上記念病院【1:病院】【診療科目:内科_人工透析内科_泌尿器科_リハビリテーション科】【一般病床数:0療養病床数:60精神病床数:0感染症病床数:0合計病床数:60】新潟県村上市松山２０４番地１" }, "geometry": { "type": "Point", "coordinates": [ 139.456942, 38.217708 ] } },
{ "type": "Feature", "properties": { "ID": "151BYMRX00006", "正式名称": "山北徳新会病院", "機関区分": 1, "都道府県コード": 15, "市区町村コード": 212, "所在地": "新潟県村上市勝木１３４０ー１", "緯度": 38.490321, "経度": 139.516478, "url": "https://www.iryou.teikyouseido.mhlw.go.jp/znk-web/juminkanja/S2430/initialize?prefCd=15&kikanCd=BYMRX00006&kikanKbn=1", "url2": null, "内容": "山北徳新会病院【1:病院】【診療科目:内科_糖尿病内科_循環器内科_外科_脳神経外科_整形外科_眼科_皮膚科_泌尿器科_歯科_歯科口腔外科_リハビリテーション科】【一般病床数:60療養病床数:0精神病床数:0感染症病床数:0合計病床数:60】新潟県村上市勝木１３４０ー１" }, "geometry": { "type": "Point", "coordinates": [ 139.516478, 38.490321 ] } },
{ "type": "Feature", "properties": { "ID": "151BYNCX00001", "正式名称": "社会医療法人新潟臨港保健会　新潟万代病院", "機関区分": 1, "都道府県コード": 15, "市区町村コード": 103, "所在地": "新潟県新潟市中央区八千代２丁目２番８号", "緯度": 37.914766, "経度": 139.052645, "url": "https://www.iryou.teikyouseido.mhlw.go.jp/znk-web/juminkanja/S2430/initialize?prefCd=15&kikanCd=BYNCX00001&kikanKbn=1", "url2": "https://ngt-rinkohc.jp/bandai/", "内容": "社会医療法人新潟臨港保健会　新潟万代病院【1:病院】【診療科目:内科_外科_整形外科_婦人科_リハビリテーション科】【一般病床数:52療養病床数:0精神病床数:0感染症病床数:0合計病床数:52】新潟県新潟市中央区八千代２丁目２番８号" }, "geometry": { "type": "Point", "coordinates": [ 139.052645, 37.914766 ] } },
{ "type": "Feature", "properties": { "ID": "151BYNCX00002", "正式名称": "独立行政法人国立病院機構西新潟中央病院", "機関区分": 1, "都道府県コード": 15, "市区町村コード": 107, "所在地": "新潟県新潟市西区真砂１丁目１４番１号", "緯度": 37.88997, "経度": 138.986372, "url": "https://www.iryou.teikyouseido.mhlw.go.jp/znk-web/juminkanja/S2430/initialize?prefCd=15&kikanCd=BYNCX00002&kikanKbn=1", "url2": "http://nishiniigata.hosp.go.jp", "内容": "独立行政法人国立病院機構西新潟中央病院【1:病院】【診療科目:内科_脳神経内科_呼吸器内科_脳神経外科_呼吸器外科_整形外科_小児科_精神科_歯科_リハビリテーション科_放射線科_麻酔科】【一般病床数:370療養病床数:0精神病床数:0感染症病床数:0合計病床数:400】新潟県新潟市西区真砂１丁目１４番１号" }, "geometry": { "type": "Point", "coordinates": [ 138.986372, 37.88997 ] } },
{ "type": "Feature", "properties": { "ID": "151BYNCX00003", "正式名称": "新潟大学医歯学総合病院", "機関区分": 1, "都道府県コード": 15, "市区町村コード": 103, "所在地": "新潟県新潟市中央区旭町通１番町７５４番地", "緯度": 37.919179, "経度": 139.035545, "url": "https://www.iryou.teikyouseido.mhlw.go.jp/znk-web/juminkanja/S2430/initialize?prefCd=15&kikanCd=BYNCX00003&kikanKbn=1", "url2": "https://www.nuh.niigata-u.ac.jp/", "内容": "新潟大学医歯学総合病院【1:病院】【診療科目:内科_感染症内科_血液内科_代謝内科_内分泌内科_脳神経内科_呼吸器内科_循環器内科_消化器内科_腎臓内科_肝臓内科_腫瘍内科_脳神経外科_呼吸器外科_心臓血管外科_消化器外科_乳腺・内分泌外科_頭頸部外科_整形外科_形成外科_美容外科_小児科_小児外科_産婦人科_眼科_耳鼻いんこう科_皮膚科_泌尿器科_精神科_心療内科_歯科_矯正歯科_歯科口腔外科_小児歯科_リハビリテーション科_放射線診断科_放射線治療科_病理診断科_救急科_麻酔科】【一般病床数:763療養病床数:0精神病床数:64感染症病床数:0合計病床数:827】新潟県新潟市中央区旭町通１番町７５４番地" }, "geometry": { "type": "Point", "coordinates": [ 139.035545, 37.919179 ] } },
{ "type": "Feature", "properties": { "ID": "151BYNCX00004", "正式名称": "新潟県はまぐみ小児療育センター", "機関区分": 1, "都道府県コード": 15, "市区町村コード": 103, "所在地": "新潟県新潟市中央区水道町１丁目５９３２番地", "緯度": 37.919928, "経度": 139.027058, "url": "https://www.iryou.teikyouseido.mhlw.go.jp/znk-web/juminkanja/S2430/initialize?prefCd=15&kikanCd=BYNCX00004&kikanKbn=1", "url2": "http://www.pref.niigata.lg.jp/hamagumi/index.html", "内容": "新潟県はまぐみ小児療育センター【1:病院】【診療科目:脳神経外科_整形外科_小児科_眼科_耳鼻いんこう科_歯科】【一般病床数:50療養病床数:0精神病床数:0感染症病床数:0合計病床数:50】新潟県新潟市中央区水道町１丁目５９３２番地" }, "geometry": { "type": "Point", "coordinates": [ 139.027058, 37.919928 ] } },
{ "type": "Feature", "properties": { "ID": "151BYNCX00006", "正式名称": "新潟市民病院", "機関区分": 1, "都道府県コード": 15, "市区町村コード": 103, "所在地": "新潟県新潟市中央区鐘木４６３番地７", "緯度": 37.875012, "経度": 139.04156, "url": "https://www.iryou.teikyouseido.mhlw.go.jp/znk-web/juminkanja/S2430/initialize?prefCd=15&kikanCd=BYNCX00006&kikanKbn=1", "url2": "https://www.hosp.niigata.niigata.jp", "内容": "新潟市民病院【1:病院】【診療科目:内科_感染症内科_血液内科_脳神経内科_呼吸器内科_循環器内科_消化器内科_腫瘍内科_緩和ケア内科_内分泌・代謝内科（改行）腎臓・リウマチ科_脳神経外科_呼吸器外科_心臓血管外科_消化器外科_乳腺外科_ペインクリニック外科_整形外科_形成外科_小児科_小児外科_新生児内科_産科_婦人科_眼科_耳鼻いんこう科_皮膚科_泌尿器科_精神科_歯科口腔外科_リハビリテーション科_放射線診断科_放射線治療科_病理診断科_救急科_麻酔科】【一般病床数:652療養病床数:0精神病床数:16感染症病床数:8合計病床数:676】新潟県新潟市中央区鐘木４６３番地７" }, "geometry": { "type": "Point", "coordinates": [ 139.04156, 37.875012 ] } },
{ "type": "Feature", "properties": { "ID": "151BYNCX00007", "正式名称": "社会福祉法人恩賜財団済生会支部新潟県済生会済生会新潟病院", "機関区分": 1, "都道府県コード": 15, "市区町村コード": 107, "所在地": "新潟県新潟市西区寺地２８０ー７", "緯度": 37.878713, "経度": 139.004928, "url": "https://www.iryou.teikyouseido.mhlw.go.jp/znk-web/juminkanja/S2430/initialize?prefCd=15&kikanCd=BYNCX00007&kikanKbn=1", "url2": "https://www.ngt.saiseikai.or.jp", "内容": "社会福祉法人恩賜財団済生会支部新潟県済生会済生会新潟病院【1:病院】【診療科目:内科_血液内科_代謝・内分泌内科_脳神経内科_呼吸器内科_循環器内科_消化器内科_腫瘍内科_外科_脳神経外科_呼吸器外科_心臓血管外科_消化器外科_乳腺・内分泌外科_整形外科_形成外科_小児科_産婦人科_眼科_耳鼻いんこう科_皮膚科_泌尿器科_精神科_歯科口腔外科_リハビリテーション科_放射線科_病理診断科_臨床検査科_救急科_麻酔科】【一般病床数:410療養病床数:0精神病床数:0感染症病床数:0合計病床数:410】新潟県新潟市西区寺地２８０ー７" }, "geometry": { "type": "Point", "coordinates": [ 139.004928, 37.878713 ] } },
{ "type": "Feature", "properties": { "ID": "151BYNCX00008", "正式名称": "豊栄病院", "機関区分": 1, "都道府県コード": 15, "市区町村コード": 101, "所在地": "新潟県新潟市北区石動１丁目１１番１号", "緯度": 37.922705, "経度": 139.213778, "url": "https://www.iryou.teikyouseido.mhlw.go.jp/znk-web/juminkanja/S2430/initialize?prefCd=15&kikanCd=BYNCX00008&kikanKbn=1", "url2": "https://www.toyosaka-hospital.jp/", "内容": "豊栄病院【1:病院】【診療科目:内科_循環器内科_神経内科_内視鏡内科_外科_整形外科_眼科_皮膚科_泌尿器科_精神科_心療内科_歯科】【一般病床数:199療養病床数:0精神病床数:0感染症病床数:0合計病床数:199】新潟県新潟市北区石動１丁目１１番１号" }, "geometry": { "type": "Point", "coordinates": [ 139.213778, 37.922705 ] } },
{ "type": "Feature", "properties": { "ID": "151BYNCX00009", "正式名称": "一般社団法人新潟県労働衛生医学協会附属　岩室リハビリテーション病院", "機関区分": 1, "都道府県コード": 15, "市区町村コード": 108, "所在地": "新潟県新潟市西蒲区岩室温泉７７２番地１", "緯度": 37.732503, "経度": 138.839071, "url": "https://www.iryou.teikyouseido.mhlw.go.jp/znk-web/juminkanja/S2430/initialize?prefCd=15&kikanCd=BYNCX00009&kikanKbn=1", "url2": "http://iwamurohp.jp/", "内容": "一般社団法人新潟県労働衛生医学協会附属　岩室リハビリテーション病院【1:病院】【診療科目:内科_整形外科_歯科_リハビリテーション科】【一般病床数:0療養病床数:95精神病床数:0感染症病床数:0合計病床数:95】新潟県新潟市西蒲区岩室温泉７７２番地１" }, "geometry": { "type": "Point", "coordinates": [ 138.839071, 37.732503 ] } },
{ "type": "Feature", "properties": { "ID": "151BYNCX00010", "正式名称": "医療法人恵生会南浜病院", "機関区分": 1, "都道府県コード": 15, "市区町村コード": 101, "所在地": "新潟県新潟市北区島見町４５４０番地", "緯度": 37.959399, "経度": 139.187208, "url": "https://www.iryou.teikyouseido.mhlw.go.jp/znk-web/juminkanja/S2430/initialize?prefCd=15&kikanCd=BYNCX00010&kikanKbn=1", "url2": "http://k-seikai.jp", "内容": "医療法人恵生会南浜病院【1:病院】【診療科目:精神科】【一般病床数:0療養病床数:0精神病床数:285感染症病床数:0合計病床数:285】新潟県新潟市北区島見町４５４０番地" }, "geometry": { "type": "Point", "coordinates": [ 139.187208, 37.959399 ] } },
{ "type": "Feature", "properties": { "ID": "151BYNCX00011", "正式名称": "医療法人青松会松浜病院", "機関区分": 1, "都道府県コード": 15, "市区町村コード": 101, "所在地": "新潟県新潟市北区松浜町３３９６番地", "緯度": 37.954448, "経度": 139.154738, "url": "https://www.iryou.teikyouseido.mhlw.go.jp/znk-web/juminkanja/S2430/initialize?prefCd=15&kikanCd=BYNCX00011&kikanKbn=1", "url2": "https://matsuhama-hp.or.jp/", "内容": "医療法人青松会松浜病院【1:病院】【診療科目:内科_精神科_心療内科_歯科】【一般病床数:0療養病床数:0精神病床数:350感染症病床数:0合計病床数:350】新潟県新潟市北区松浜町３３９６番地" }, "geometry": { "type": "Point", "coordinates": [ 139.154738, 37.954448 ] } },
{ "type": "Feature", "properties": { "ID": "151BYNCX00012", "正式名称": "河渡病院", "機関区分": 1, "都道府県コード": 15, "市区町村コード": 102, "所在地": "新潟県新潟市東区有楽１丁目１５番地１", "緯度": 37.938589, "経度": 139.10604, "url": "https://www.iryou.teikyouseido.mhlw.go.jp/znk-web/juminkanja/S2430/initialize?prefCd=15&kikanCd=BYNCX00012&kikanKbn=1", "url2": "http://www.kohdo-hp.or.jp/", "内容": "河渡病院【1:病院】【診療科目:内科_精神科_心療内科_歯科】【一般病床数:0療養病床数:0精神病床数:380感染症病床数:0合計病床数:380】新潟県新潟市東区有楽１丁目１５番地１" }, "geometry": { "type": "Point", "coordinates": [ 139.10604, 37.938589 ] } },
{ "type": "Feature", "properties": { "ID": "151BYNCX00013", "正式名称": "桑名病院", "機関区分": 1, "都道府県コード": 15, "市区町村コード": 102, "所在地": "新潟県新潟市東区河渡甲１４０番地", "緯度": 37.948913, "経度": 139.100375, "url": "https://www.iryou.teikyouseido.mhlw.go.jp/znk-web/juminkanja/S2430/initialize?prefCd=15&kikanCd=BYNCX00013&kikanKbn=1", "url2": "https://www.ngt-kuwana.or.jp/", "内容": "桑名病院【1:病院】【診療科目:内科_循環器内科_消化器内科_外科_脳神経外科_消化器外科_肛門外科_整形外科_リハビリテーション科_麻酔科】【一般病床数:140療養病床数:48精神病床数:0感染症病床数:0合計病床数:188】新潟県新潟市東区河渡甲１４０番地" }, "geometry": { "type": "Point", "coordinates": [ 139.100375, 37.948913 ] } },
{ "type": "Feature", "properties": { "ID": "151BYNCX00014", "正式名称": "新潟臨港病院", "機関区分": 1, "都道府県コード": 15, "市区町村コード": 102, "所在地": "新潟県新潟市東区桃山町１丁目１１４番地３", "緯度": 37.945711, "経度": 139.076217, "url": "https://www.iryou.teikyouseido.mhlw.go.jp/znk-web/juminkanja/S2430/initialize?prefCd=15&kikanCd=BYNCX00014&kikanKbn=1", "url2": "https://ngt-rinkohc.jp/rinko/", "内容": "新潟臨港病院【1:病院】【診療科目:内科_呼吸器内科_循環器内科_消化器内科_腎臓内科_神経内科_外科_脳神経外科_消化器外科_肛門外科_整形外科_産婦人科_眼科_皮膚科_泌尿器科_歯科口腔外科_アレルギー科_リウマチ科_リハビリテーション科_放射線科_麻酔科】【一般病床数:147療養病床数:49精神病床数:0感染症病床数:0合計病床数:196】新潟県新潟市東区桃山町１丁目１１４番地３" }, "geometry": { "type": "Point", "coordinates": [ 139.076217, 37.945711 ] } },
{ "type": "Feature", "properties": { "ID": "151BYNCX00015", "正式名称": "末広橋病院", "機関区分": 1, "都道府県コード": 15, "市区町村コード": 102, "所在地": "新潟県新潟市東区臨港町二丁目２５番地１", "緯度": 37.944763, "経度": 139.074548, "url": "https://www.iryou.teikyouseido.mhlw.go.jp/znk-web/juminkanja/S2430/initialize?prefCd=15&kikanCd=BYNCX00015&kikanKbn=1", "url2": "https://www.k-ai.or.jp", "内容": "末広橋病院【1:病院】【診療科目:内科_精神科】【一般病床数:0療養病床数:39精神病床数:156感染症病床数:0合計病床数:195】新潟県新潟市東区臨港町二丁目２５番地１" }, "geometry": { "type": "Point", "coordinates": [ 139.074548, 37.944763 ] } },
{ "type": "Feature", "properties": { "ID": "151BYNCX00016", "正式名称": "とやの中央病院", "機関区分": 1, "都道府県コード": 15, "市区町村コード": 103, "所在地": "新潟県新潟市中央区鳥屋野４５０番地３", "緯度": 37.886249, "経度": 139.034366, "url": "https://www.iryou.teikyouseido.mhlw.go.jp/znk-web/juminkanja/S2430/initialize?prefCd=15&kikanCd=BYNCX00016&kikanKbn=1", "url2": "https://www.jinseikai.jp/", "内容": "とやの中央病院【1:病院】【診療科目:内科_歯科_小児歯科_リハビリテーション科_放射線科】【一般病床数:0療養病床数:160精神病床数:0感染症病床数:0合計病床数:160】新潟県新潟市中央区鳥屋野４５０番地３" }, "geometry": { "type": "Point", "coordinates": [ 139.034366, 37.886249 ] } },
{ "type": "Feature", "properties": { "ID": "151BYNCX00017", "正式名称": "新潟南病院", "機関区分": 1, "都道府県コード": 15, "市区町村コード": 103, "所在地": "新潟県新潟市中央区鳥屋野２００７番地６", "緯度": 37.883489, "経度": 139.032506, "url": "https://www.iryou.teikyouseido.mhlw.go.jp/znk-web/juminkanja/S2430/initialize?prefCd=15&kikanCd=BYNCX00017&kikanKbn=1", "url2": "http://www.niigataminami-hp.com", "内容": "新潟南病院【1:病院】【診療科目:内科_感染症内科_血液内科_糖尿病内科_糖尿病・内分泌内科_呼吸器内科_循環器内科_消化器内科_神経内科_外科_心臓血管外科_肛門外科_整形外科_小児科_婦人科_眼科_皮膚科_泌尿器科_歯科_リハビリテーション科】【一般病床数:177療養病床数:0精神病床数:0感染症病床数:0合計病床数:177】新潟県新潟市中央区鳥屋野２００７番地６" }, "geometry": { "type": "Point", "coordinates": [ 139.032506, 37.883489 ] } },
{ "type": "Feature", "properties": { "ID": "151BYNCX00018", "正式名称": "東新潟病院", "機関区分": 1, "都道府県コード": 15, "市区町村コード": 103, "所在地": "新潟県新潟市中央区姥ケ山２７４番地１", "緯度": 37.884682, "経度": 139.079662, "url": "https://www.iryou.teikyouseido.mhlw.go.jp/znk-web/juminkanja/S2430/initialize?prefCd=15&kikanCd=BYNCX00018&kikanKbn=1", "url2": null, "内容": "東新潟病院【1:病院】【診療科目:内科_神経内科_外科_肛門外科_皮膚科_泌尿器科_歯科_リハビリテーション科】【一般病床数:0療養病床数:0精神病床数:0感染症病床数:0合計病床数:0】新潟県新潟市中央区姥ケ山２７４番地１" }, "geometry": { "type": "Point", "coordinates": [ 139.079662, 37.884682 ] } },
{ "type": "Feature", "properties": { "ID": "151BYNCX00019", "正式名称": "新潟中央病院", "機関区分": 1, "都道府県コード": 15, "市区町村コード": 103, "所在地": "新潟県新潟市中央区新光町１番地１８", "緯度": 37.904733, "経度": 139.025864, "url": "https://www.iryou.teikyouseido.mhlw.go.jp/znk-web/juminkanja/S2430/initialize?prefCd=15&kikanCd=BYNCX00019&kikanKbn=1", "url2": "https://www.nice-hp.or.jp", "内容": "新潟中央病院【1:病院】【診療科目:内科_脳神経外科_整形外科_形成外科_歯科_歯科口腔外科_リハビリテーション科】【一般病床数:262療養病床数:0精神病床数:0感染症病床数:0合計病床数:262】新潟県新潟市中央区新光町１番地１８" }, "geometry": { "type": "Point", "coordinates": [ 139.025864, 37.904733 ] } },
{ "type": "Feature", "properties": { "ID": "151BYNCX00020", "正式名称": "新潟信愛病院", "機関区分": 1, "都道府県コード": 15, "市区町村コード": 107, "所在地": "新潟県新潟市西区上新栄町１丁目１番１号", "緯度": 37.889073, "経度": 138.972364, "url": "https://www.iryou.teikyouseido.mhlw.go.jp/znk-web/juminkanja/S2430/initialize?prefCd=15&kikanCd=BYNCX00020&kikanKbn=1", "url2": "http://sin-ai.jp", "内容": "新潟信愛病院【1:病院】【診療科目:精神科_心療内科】【一般病床数:0療養病床数:0精神病床数:430感染症病床数:0合計病床数:430】新潟県新潟市西区上新栄町１丁目１番１号" }, "geometry": { "type": "Point", "coordinates": [ 138.972364, 37.889073 ] } },
{ "type": "Feature", "properties": { "ID": "151BYNCX00021", "正式名称": "佐潟公園病院", "機関区分": 1, "都道府県コード": 15, "市区町村コード": 107, "所在地": "新潟県新潟市西区赤塚５５８８番地", "緯度": 37.819857, "経度": 138.876387, "url": "https://www.iryou.teikyouseido.mhlw.go.jp/znk-web/juminkanja/S2430/initialize?prefCd=15&kikanCd=BYNCX00021&kikanKbn=1", "url2": "https://suimeikai.jp/", "内容": "佐潟公園病院【1:病院】【診療科目:内科_精神科_心療内科】【一般病床数:0療養病床数:0精神病床数:240感染症病床数:0合計病床数:240】新潟県新潟市西区赤塚５５８８番地" }, "geometry": { "type": "Point", "coordinates": [ 138.876387, 37.819857 ] } },
{ "type": "Feature", "properties": { "ID": "151BYNCX00022", "正式名称": "猫山宮尾病院", "機関区分": 1, "都道府県コード": 15, "市区町村コード": 103, "所在地": "新潟県新潟市中央区湖南１４番地７", "緯度": 37.876213, "経度": 139.039336, "url": "https://www.iryou.teikyouseido.mhlw.go.jp/znk-web/juminkanja/S2430/initialize?prefCd=15&kikanCd=BYNCX00022&kikanKbn=1", "url2": "https://www.nekoyama.jp/", "内容": "猫山宮尾病院【1:病院】【診療科目:内科_整形外科_リハビリテーション科】【一般病床数:66療養病床数:0精神病床数:0感染症病床数:0合計病床数:66】新潟県新潟市中央区湖南１４番地７" }, "geometry": { "type": "Point", "coordinates": [ 139.039336, 37.876213 ] } },
{ "type": "Feature", "properties": { "ID": "151BYNCX00023", "正式名称": "竹山病院", "機関区分": 1, "都道府県コード": 15, "市区町村コード": 103, "所在地": "新潟県新潟市中央区上大川前通六番１１８３番地", "緯度": 37.920958, "経度": 139.04726, "url": "https://www.iryou.teikyouseido.mhlw.go.jp/znk-web/juminkanja/S2430/initialize?prefCd=15&kikanCd=BYNCX00023&kikanKbn=1", "url2": "http://www.takeyama-hsp.com/index.html", "内容": "竹山病院【1:病院】【診療科目:内科_消化器内科_小児科_産科_婦人科_アレルギー科】【一般病床数:53療養病床数:0精神病床数:0感染症病床数:0合計病床数:53】新潟県新潟市中央区上大川前通六番１１８３番地" }, "geometry": { "type": "Point", "coordinates": [ 139.04726, 37.920958 ] } },
{ "type": "Feature", "properties": { "ID": "151BYNCX00024", "正式名称": "総合リハビリテーションセンター・みどり病院", "機関区分": 1, "都道府県コード": 15, "市区町村コード": 103, "所在地": "新潟県新潟市中央区神道寺２丁目５番１号", "緯度": 37.896818, "経度": 139.055129, "url": "https://www.iryou.teikyouseido.mhlw.go.jp/znk-web/juminkanja/S2430/initialize?prefCd=15&kikanCd=BYNCX00024&kikanKbn=1", "url2": "http://www.midori-gr.jp/", "内容": "総合リハビリテーションセンター・みどり病院【1:病院】【診療科目:内科_脳神経内科_呼吸器内科_循環器内科_消化器内科_整形外科_リハビリテーション科】【一般病床数:60療養病床数:201精神病床数:0感染症病床数:0合計病床数:261】新潟県新潟市中央区神道寺２丁目５番１号" }, "geometry": { "type": "Point", "coordinates": [ 139.055129, 37.896818 ] } },
{ "type": "Feature", "properties": { "ID": "151BYNCX00025", "正式名称": "聖園病院", "機関区分": 1, "都道府県コード": 15, "市区町村コード": 107, "所在地": "新潟県新潟市西区青山７丁目９番１０号", "緯度": 37.89826, "経度": 138.992187, "url": "https://www.iryou.teikyouseido.mhlw.go.jp/znk-web/juminkanja/S2430/initialize?prefCd=15&kikanCd=BYNCX00025&kikanKbn=1", "url2": "https://www.misono-hp.or.jp", "内容": "聖園病院【1:病院】【診療科目:内科_循環器内科_消化器内科_整形外科_リハビリテーション科】【一般病床数:0療養病床数:40精神病床数:0感染症病床数:0合計病床数:40】新潟県新潟市西区青山７丁目９番１０号" }, "geometry": { "type": "Point", "coordinates": [ 138.992187, 37.89826 ] } },
{ "type": "Feature", "properties": { "ID": "151BYNCX00026", "正式名称": "新潟県厚生農業協同組合連合会新潟医療センター", "機関区分": 1, "都道府県コード": 15, "市区町村コード": 107, "所在地": "新潟県新潟市西区小針３丁目２７番１１号", "緯度": 37.887556, "経度": 138.998428, "url": "https://www.iryou.teikyouseido.mhlw.go.jp/znk-web/juminkanja/S2430/initialize?prefCd=15&kikanCd=BYNCX00026&kikanKbn=1", "url2": "http;//www.niigata-medical.jp/", "内容": "新潟県厚生農業協同組合連合会新潟医療センター【1:病院】【診療科目:内科_糖尿病・内分泌内科_脳神経内科_呼吸器内科_循環器内科_消化器内科_腎臓内科_外科_脳神経外科_心臓血管外科_消化器外科_乳腺外科_整形外科_形成外科_小児科_産婦人科_眼科_耳鼻いんこう科_皮膚科_泌尿器科_精神科_心療内科_歯科_歯科口腔外科_小児歯科_リハビリテーション科_放射線科_病理診断科_救急科_麻酔科】【一般病床数:339療養病床数:0精神病床数:0感染症病床数:0合計病床数:339】新潟県新潟市西区小針３丁目２７番１１号" }, "geometry": { "type": "Point", "coordinates": [ 138.998428, 37.887556 ] } },
{ "type": "Feature", "properties": { "ID": "151BYNCX00027", "正式名称": "新潟脳外科病院", "機関区分": 1, "都道府県コード": 15, "市区町村コード": 107, "所在地": "新潟県新潟市西区山田３０５７番地", "緯度": 37.883984, "経度": 139.011306, "url": "https://www.iryou.teikyouseido.mhlw.go.jp/znk-web/juminkanja/S2430/initialize?prefCd=15&kikanCd=BYNCX00027&kikanKbn=1", "url2": "http//www.niigata-nogeka.or.jp", "内容": "新潟脳外科病院【1:病院】【診療科目:内科_神経内科_脳神経外科_リハビリテーション科_放射線治療科_麻酔科】【一般病床数:120療養病床数:58精神病床数:0感染症病床数:0合計病床数:178】新潟県新潟市西区山田３０５７番地" }, "geometry": { "type": "Point", "coordinates": [ 139.011306, 37.883984 ] } },
{ "type": "Feature", "properties": { "ID": "151BYNCX00028", "正式名称": "黒埼病院", "機関区分": 1, "都道府県コード": 15, "市区町村コード": 107, "所在地": "新潟県新潟市西区黒鳥２３３９番地１", "緯度": 37.841405, "経度": 138.986409, "url": "https://www.iryou.teikyouseido.mhlw.go.jp/znk-web/juminkanja/S2430/initialize?prefCd=15&kikanCd=BYNCX00028&kikanKbn=1", "url2": "https://www.kurosaki-hp.jp/", "内容": "黒埼病院【1:病院】【診療科目:内科】【一般病床数:0療養病床数:60精神病床数:0感染症病床数:0合計病床数:60】新潟県新潟市西区黒鳥２３３９番地１" }, "geometry": { "type": "Point", "coordinates": [ 138.986409, 37.841405 ] } },
{ "type": "Feature", "properties": { "ID": "151BYNCX00029", "正式名称": "新潟リハビリテーション病院", "機関区分": 1, "都道府県コード": 15, "市区町村コード": 101, "所在地": "新潟県新潟市北区木崎７６１番地", "緯度": 37.931151, "経度": 139.173707, "url": "https://www.iryou.teikyouseido.mhlw.go.jp/znk-web/juminkanja/S2430/initialize?prefCd=15&kikanCd=BYNCX00029&kikanKbn=1", "url2": null, "内容": "新潟リハビリテーション病院【1:病院】【診療科目:内科_神経内科_整形外科_歯科_歯科口腔外科_リハビリテーション科】【一般病床数:101療養病床数:57精神病床数:0感染症病床数:0合計病床数:158】新潟県新潟市北区木崎７６１番地" }, "geometry": { "type": "Point", "coordinates": [ 139.173707, 37.931151 ] } },
{ "type": "Feature", "properties": { "ID": "151BYNCX00030", "正式名称": "新津信愛病院", "機関区分": 1, "都道府県コード": 15, "市区町村コード": 105, "所在地": "新潟県新潟市秋葉区中村２７１番地", "緯度": 37.77917, "経度": 139.121932, "url": "https://www.iryou.teikyouseido.mhlw.go.jp/znk-web/juminkanja/S2430/initialize?prefCd=15&kikanCd=BYNCX00030&kikanKbn=1", "url2": "https://www.sin-ai.jp", "内容": "新津信愛病院【1:病院】【診療科目:精神科_心療内科】【一般病床数:0療養病床数:0精神病床数:160感染症病床数:0合計病床数:160】新潟県新潟市秋葉区中村２７１番地" }, "geometry": { "type": "Point", "coordinates": [ 139.121932, 37.77917 ] } },
{ "type": "Feature", "properties": { "ID": "151BYNCX00031", "正式名称": "下越病院", "機関区分": 1, "都道府県コード": 15, "市区町村コード": 105, "所在地": "新潟県新潟市秋葉区東金沢１４５９番地１", "緯度": 37.803325, "経度": 139.144521, "url": "https://www.iryou.teikyouseido.mhlw.go.jp/znk-web/juminkanja/S2430/initialize?prefCd=15&kikanCd=BYNCX00031&kikanKbn=1", "url2": "https://niigata-min.or.jp/kaetsu/", "内容": "下越病院【1:病院】【診療科目:内科_糖尿病内科_呼吸器内科_循環器内科_消化器内科_人工透析内科_神経内科_外科_心臓血管外科_整形外科_小児科_婦人科_皮膚科_泌尿器科_リウマチ科_リハビリテーション科_麻酔科】【一般病床数:261療養病床数:0精神病床数:0感染症病床数:0合計病床数:261】新潟県新潟市秋葉区東金沢１４５９番地１" }, "geometry": { "type": "Point", "coordinates": [ 139.144521, 37.803325 ] } },
{ "type": "Feature", "properties": { "ID": "151BYNCX00032", "正式名称": "亀田第一病院", "機関区分": 1, "都道府県コード": 15, "市区町村コード": 104, "所在地": "新潟県新潟市江南区西町２丁目５番２２号", "緯度": 37.874708, "経度": 139.104166, "url": "https://www.iryou.teikyouseido.mhlw.go.jp/znk-web/juminkanja/S2430/initialize?prefCd=15&kikanCd=BYNCX00032&kikanKbn=1", "url2": "https://www.ijn.or.jp", "内容": "亀田第一病院【1:病院】【診療科目:内科_糖尿病内科_脳神経内科_呼吸器内科_循環器内科_消化器内科_外科_脳神経外科_肛門外科_整形外科_形成外科_小児科_産婦人科_泌尿器科_リウマチ科_リハビリテーション科】【一般病床数:197療養病床数:0精神病床数:0感染症病床数:0合計病床数:197】新潟県新潟市江南区西町２丁目５番２２号" }, "geometry": { "type": "Point", "coordinates": [ 139.104166, 37.874708 ] } },
{ "type": "Feature", "properties": { "ID": "151BYNCX00033", "正式名称": "新津医療センター病院", "機関区分": 1, "都道府県コード": 15, "市区町村コード": 105, "所在地": "新潟県新潟市秋葉区古田６１０番地", "緯度": 37.790813, "経度": 139.102386, "url": "https://www.iryou.teikyouseido.mhlw.go.jp/znk-web/juminkanja/S2430/initialize?prefCd=15&kikanCd=BYNCX00033&kikanKbn=1", "url2": "https://www.niitsu-mch.jp", "内容": "新津医療センター病院【1:病院】【診療科目:内科_糖尿病内科_脳神経内科_呼吸器内科_循環器内科_消化器内科_腫瘍内科_外科_消化器外科_乳腺外科_肛門外科_整形外科_皮膚科_精神科_歯科_歯科口腔外科_リハビリテーション科_放射線科_麻酔科】【一般病床数:174療養病床数:0精神病床数:0感染症病床数:0合計病床数:174】新潟県新潟市秋葉区古田６１０番地" }, "geometry": { "type": "Point", "coordinates": [ 139.102386, 37.790813 ] } },
{ "type": "Feature", "properties": { "ID": "151BYNCX00034", "正式名称": "医療法人社団　白美会　白根大通病院", "機関区分": 1, "都道府県コード": 15, "市区町村コード": 106, "所在地": "新潟県新潟市南区大通黄金４丁目１４番地２", "緯度": 37.823055, "経度": 139.019674, "url": "https://www.iryou.teikyouseido.mhlw.go.jp/znk-web/juminkanja/S2430/initialize?prefCd=15&kikanCd=BYNCX00034&kikanKbn=1", "url2": "http://www.jojinkai.com/shirone/", "内容": "医療法人社団　白美会　白根大通病院【1:病院】【診療科目:内科_神経内科_疼痛緩和内科_外科_整形外科_リハビリテーション科】【一般病床数:105療養病床数:144精神病床数:0感染症病床数:0合計病床数:249】新潟県新潟市南区大通黄金４丁目１４番地２" }, "geometry": { "type": "Point", "coordinates": [ 139.019674, 37.823055 ] } },
{ "type": "Feature", "properties": { "ID": "151BYNCX00035", "正式名称": "白根緑ケ丘病院", "機関区分": 1, "都道府県コード": 15, "市区町村コード": 106, "所在地": "新潟県新潟市南区西白根４１番地", "緯度": 37.753387, "経度": 139.004422, "url": "https://www.iryou.teikyouseido.mhlw.go.jp/znk-web/juminkanja/S2430/initialize?prefCd=15&kikanCd=BYNCX00035&kikanKbn=1", "url2": "http://kei-seikai.or.jp/", "内容": "白根緑ケ丘病院【1:病院】【診療科目:脳神経内科_精神科】【一般病床数:0療養病床数:0精神病床数:275感染症病床数:0合計病床数:275】新潟県新潟市南区西白根４１番地" }, "geometry": { "type": "Point", "coordinates": [ 139.004422, 37.753387 ] } },
{ "type": "Feature", "properties": { "ID": "151BYNCX00036", "正式名称": "潟東けやき病院", "機関区分": 1, "都道府県コード": 15, "市区町村コード": 108, "所在地": "新潟県新潟市西蒲区国見４１７番地", "緯度": 37.754086, "経度": 138.952057, "url": "https://www.iryou.teikyouseido.mhlw.go.jp/znk-web/juminkanja/S2430/initialize?prefCd=15&kikanCd=BYNCX00036&kikanKbn=1", "url2": null, "内容": "潟東けやき病院【1:病院】【診療科目:内科_歯科_リハビリテーション科】【一般病床数:0療養病床数:100精神病床数:0感染症病床数:0合計病床数:100】新潟県新潟市西蒲区国見４１７番地" }, "geometry": { "type": "Point", "coordinates": [ 138.952057, 37.754086 ] } },
{ "type": "Feature", "properties": { "ID": "151BYNCX00037", "正式名称": "医療法人美郷会西蒲中央病院", "機関区分": 1, "都道府県コード": 15, "市区町村コード": 108, "所在地": "新潟県新潟市西蒲区旗屋７３１番地", "緯度": 37.790993, "経度": 138.924423, "url": "https://www.iryou.teikyouseido.mhlw.go.jp/znk-web/juminkanja/S2430/initialize?prefCd=15&kikanCd=BYNCX00037&kikanKbn=1", "url2": "http://www.misatokai.or.jp", "内容": "医療法人美郷会西蒲中央病院【1:病院】【診療科目:内科_呼吸器内科_循環器内科_消化器内科_神経内科_漢方内科_外科_脳神経外科_整形外科_眼科_泌尿器科_心療内科_アレルギー科_リハビリテーション科】【一般病床数:48療養病床数:118精神病床数:0感染症病床数:0合計病床数:166】新潟県新潟市西蒲区旗屋７３１番地" }, "geometry": { "type": "Point", "coordinates": [ 138.924423, 37.790993 ] } },
{ "type": "Feature", "properties": { "ID": "151BYNCX00038", "正式名称": "新潟西蒲メディカルセンター病院", "機関区分": 1, "都道府県コード": 15, "市区町村コード": 108, "所在地": "新潟県新潟市西蒲区巻甲４３６８", "緯度": 37.754252, "経度": 138.893853, "url": "https://www.iryou.teikyouseido.mhlw.go.jp/znk-web/juminkanja/S2430/initialize?prefCd=15&kikanCd=BYNCX00038&kikanKbn=1", "url2": "https://www.jojinkai.com/niigata/", "内容": "新潟西蒲メディカルセンター病院【1:病院】【診療科目:内科_外科_脳神経外科_リハビリテーション科】【一般病床数:41療養病床数:124精神病床数:0感染症病床数:0合計病床数:165】新潟県新潟市西蒲区巻甲４３６８" }, "geometry": { "type": "Point", "coordinates": [ 138.893853, 37.754252 ] } },
{ "type": "Feature", "properties": { "ID": "151BYNCX00039", "正式名称": "新潟医療生活協同組合木戸病院", "機関区分": 1, "都道府県コード": 15, "市区町村コード": 102, "所在地": "新潟県新潟市東区竹尾４丁目１３番３号", "緯度": 37.915423, "経度": 139.099229, "url": "https://www.iryou.teikyouseido.mhlw.go.jp/znk-web/juminkanja/S2430/initialize?prefCd=15&kikanCd=BYNCX00039&kikanKbn=1", "url2": "https://kido.iryo-coop.com/", "内容": "新潟医療生活協同組合木戸病院【1:病院】【診療科目:内科_内分泌内科_糖尿病・代謝内科_呼吸器内科_循環器内科_消化器内科_腎臓内科_神経内科_緩和ケア内科_外科_脳神経外科_消化器外科_ペインクリニック外科_整形外科_小児科_婦人科_眼科_耳鼻いんこう科_皮膚科_泌尿器科_歯科_歯科口腔外科_小児歯科_アレルギー科_リハビリテーション科_放射線科_麻酔科】【一般病床数:312療養病床数:0精神病床数:0感染症病床数:0合計病床数:312】新潟県新潟市東区竹尾４丁目１３番３号" }, "geometry": { "type": "Point", "coordinates": [ 139.099229, 37.915423 ] } },
{ "type": "Feature", "properties": { "ID": "151BYNCX00040", "正式名称": "新潟白根総合病院", "機関区分": 1, "都道府県コード": 15, "市区町村コード": 106, "所在地": "新潟県新潟市南区上下諏訪木７７０番地１", "緯度": 37.759973, "経度": 139.020591, "url": "https://www.iryou.teikyouseido.mhlw.go.jp/znk-web/juminkanja/S2430/initialize?prefCd=15&kikanCd=BYNCX00040&kikanKbn=1", "url2": "http://www.healthcoop-shirone.or.jp/", "内容": "新潟白根総合病院【1:病院】【診療科目:内科_脳神経内科_呼吸器内科_循環器内科_消化器内科_外科_整形外科_小児科_婦人科_眼科_皮膚科_泌尿器科_精神科_歯科_リハビリテーション科】【一般病床数:179療養病床数:0精神病床数:0感染症病床数:0合計病床数:179】新潟県新潟市南区上下諏訪木７７０番地１" }, "geometry": { "type": "Point", "coordinates": [ 139.020591, 37.759973 ] } },
{ "type": "Feature", "properties": { "ID": "151BYNCX00041", "正式名称": "社会福祉法人新潟市社会事業協会信楽園病院", "機関区分": 1, "都道府県コード": 15, "市区町村コード": 107, "所在地": "新潟県新潟市西区新通南３丁目３番１１号", "緯度": 37.857892, "経度": 138.956336, "url": "https://www.iryou.teikyouseido.mhlw.go.jp/znk-web/juminkanja/S2430/initialize?prefCd=15&kikanCd=BYNCX00041&kikanKbn=1", "url2": "https://www.shinrakuen.com", "内容": "社会福祉法人新潟市社会事業協会信楽園病院【1:病院】【診療科目:内科_感染症内科_血液内科_糖尿病・内分泌内科_脳神経内科_呼吸器内科_循環器内科_消化器内科_腎臓内科_外科_脳神経外科_消化器外科_乳腺・内分泌外科_整形外科_胸部・血管外科_眼科_皮膚科_歯科口腔外科_リハビリテーション科_放射線診断科_病理診断科_臨床検査科_麻酔科】【一般病床数:325療養病床数:0精神病床数:0感染症病床数:0合計病床数:325】新潟県新潟市西区新通南３丁目３番１１号" }, "geometry": { "type": "Point", "coordinates": [ 138.956336, 37.857892 ] } },
{ "type": "Feature", "properties": { "ID": "151BYNCX00042", "正式名称": "日本歯科大学新潟病院", "機関区分": 1, "都道府県コード": 15, "市区町村コード": 103, "所在地": "新潟県新潟市中央区浜浦町１丁目８番地", "緯度": 37.911548, "経度": 139.010406, "url": "https://www.iryou.teikyouseido.mhlw.go.jp/znk-web/juminkanja/S2430/initialize?prefCd=15&kikanCd=BYNCX00042&kikanKbn=1", "url2": "http://www.ngt.ndu.ac.jp", "内容": "日本歯科大学新潟病院【1:病院】【診療科目:内科_外科_耳鼻いんこう科_歯科_矯正歯科_歯科口腔外科_小児歯科】【一般病床数:92療養病床数:0精神病床数:0感染症病床数:0合計病床数:92】新潟県新潟市中央区浜浦町１丁目８番地" }, "geometry": { "type": "Point", "coordinates": [ 139.010406, 37.911548 ] } },
{ "type": "Feature", "properties": { "ID": "151BYNGX00001", "正式名称": "新潟県立精神医療センター", "機関区分": 1, "都道府県コード": 15, "市区町村コード": 202, "所在地": "新潟県長岡市寿２丁目４番１号", "緯度": 37.477867, "経度": 138.853289, "url": "https://www.iryou.teikyouseido.mhlw.go.jp/znk-web/juminkanja/S2430/initialize?prefCd=15&kikanCd=BYNGX00001&kikanKbn=1", "url2": "http://www.psyche-niigata.jp", "内容": "新潟県立精神医療センター【1:病院】【診療科目:内科_児童精神科_精神科_歯科】【一般病床数:0療養病床数:0精神病床数:400感染症病床数:0合計病床数:400】新潟県長岡市寿２丁目４番１号" }, "geometry": { "type": "Point", "coordinates": [ 138.853289, 37.477867 ] } },
{ "type": "Feature", "properties": { "ID": "151BYNGX00002", "正式名称": "長岡赤十字病院", "機関区分": 1, "都道府県コード": 15, "市区町村コード": 202, "所在地": "新潟県長岡市千秋２丁目２９７番地１", "緯度": 37.460357, "経度": 138.828366, "url": "https://www.iryou.teikyouseido.mhlw.go.jp/znk-web/juminkanja/S2430/initialize?prefCd=15&kikanCd=BYNGX00002&kikanKbn=1", "url2": "http://www.nagaoka.jrc.or.jp/", "内容": "長岡赤十字病院【1:病院】【診療科目:内科_循環器内科_消化器内科_神経内科_外科_脳神経外科_呼吸器外科_心臓血管外科_消化器外科_整形外科_形成外科_小児科_小児外科_産科_婦人科_眼科_耳鼻いんこう科_皮膚科_泌尿器科_精神科_歯科_歯科口腔外科_リウマチ科_リハビリテーション科_放射線科_病理診断科_救急科_麻酔科】【一般病床数:548療養病床数:0精神病床数:0感染症病床数:6合計病床数:554】新潟県長岡市千秋２丁目２９７番地１" }, "geometry": { "type": "Point", "coordinates": [ 138.828366, 37.460357 ] } },
{ "type": "Feature", "properties": { "ID": "151BYNGX00003", "正式名称": "新潟県厚生農業協同組合連合会　長岡中央綜合病院", "機関区分": 1, "都道府県コード": 15, "市区町村コード": 202, "所在地": "新潟県長岡市川崎町２０４１番地", "緯度": 37.451486, "経度": 138.879397, "url": "https://www.iryou.teikyouseido.mhlw.go.jp/znk-web/juminkanja/S2430/initialize?prefCd=15&kikanCd=BYNGX00003&kikanKbn=1", "url2": "http://www.nagachu.jp", "内容": "新潟県厚生農業協同組合連合会　長岡中央綜合病院【1:病院】【診療科目:内科_血液内科_呼吸器内科_循環器内科_消化器内科_腎臓内科_神経内科_腫瘍内科_外科_脳神経外科_呼吸器外科_心臓血管外科_消化器外科_頭頸部外科_整形外科_形成外科_脊椎脊髄外科_小児科_産婦人科_眼科_耳鼻いんこう科_皮膚科_泌尿器科_精神科_心療内科_歯科口腔外科_リウマチ科_リハビリテーション科_放射線科_放射線治療科_病理診断科_臨床検査科_救急科_麻酔科】【一般病床数:500療養病床数:0精神病床数:0感染症病床数:0合計病床数:500】新潟県長岡市川崎町２０４１番地" }, "geometry": { "type": "Point", "coordinates": [ 138.879397, 37.451486 ] } },
{ "type": "Feature", "properties": { "ID": "151BYNGX00004", "正式名称": "三島病院", "機関区分": 1, "都道府県コード": 15, "市区町村コード": 202, "所在地": "新潟県長岡市藤川１７１３番地の８", "緯度": 37.509924, "経度": 138.78535, "url": "https://www.iryou.teikyouseido.mhlw.go.jp/znk-web/juminkanja/S2430/initialize?prefCd=15&kikanCd=BYNGX00004&kikanKbn=1", "url2": "http://www.mishima-hospital.or.jp/", "内容": "三島病院【1:病院】【診療科目:内科_神経内科_精神科_歯科】【一般病床数:59療養病床数:0精神病床数:271感染症病床数:0合計病床数:330】新潟県長岡市藤川１７１３番地の８" }, "geometry": { "type": "Point", "coordinates": [ 138.78535, 37.509924 ] } },
{ "type": "Feature", "properties": { "ID": "151BYNGX00005", "正式名称": "長岡保養園", "機関区分": 1, "都道府県コード": 15, "市区町村コード": 202, "所在地": "新潟県長岡市町田町５７５番地", "緯度": 37.417256, "経度": 138.861614, "url": "https://www.iryou.teikyouseido.mhlw.go.jp/znk-web/juminkanja/S2430/initialize?prefCd=15&kikanCd=BYNGX00005&kikanKbn=1", "url2": "https://www.i-shiseikai.or.jp", "内容": "長岡保養園【1:病院】【診療科目:内科_神経内科_精神科_歯科_リハビリテーション科】【一般病床数:0療養病床数:100精神病床数:48感染症病床数:0合計病床数:148】新潟県長岡市町田町５７５番地" }, "geometry": { "type": "Point", "coordinates": [ 138.861614, 37.417256 ] } },
{ "type": "Feature", "properties": { "ID": "151BYNGX00006", "正式名称": "吉田病院", "機関区分": 1, "都道府県コード": 15, "市区町村コード": 202, "所在地": "新潟県長岡市長町１丁目１６６８番地", "緯度": 37.453224, "経度": 138.854603, "url": "https://www.iryou.teikyouseido.mhlw.go.jp/znk-web/juminkanja/S2430/initialize?prefCd=15&kikanCd=BYNGX00006&kikanKbn=1", "url2": "http://www.yoshida-h.or.jp/index.html", "内容": "吉田病院【1:病院】【診療科目:内科_循環器内科_消化器内科_外科_大腸・肛門外科_ペインクリニック外科_整形外科_耳鼻いんこう科_リウマチ科_リハビリテーション科_麻酔科】【一般病床数:48療養病床数:77精神病床数:0感染症病床数:0合計病床数:125】新潟県長岡市長町１丁目１６６８番地" }, "geometry": { "type": "Point", "coordinates": [ 138.854603, 37.453224 ] } },
{ "type": "Feature", "properties": { "ID": "151BYNGX00007", "正式名称": "立川綜合病院", "機関区分": 1, "都道府県コード": 15, "市区町村コード": 202, "所在地": "新潟県長岡市旭岡１丁目２４番地", "緯度": 37.422942, "経度": 138.858206, "url": "https://www.iryou.teikyouseido.mhlw.go.jp/znk-web/juminkanja/S2430/initialize?prefCd=15&kikanCd=BYNGX00007&kikanKbn=1", "url2": "https://www.tatikawa.or.jp", "内容": "立川綜合病院【1:病院】【診療科目:内科_呼吸器内科_循環器内科_消化器内科_神経内科_緩和ケア内科_外科_脳神経外科_呼吸器外科_心臓血管外科_消化器外科_整形外科_形成外科_小児科_産婦人科_眼科_耳鼻いんこう科_皮膚科_泌尿器科_精神科_歯科口腔外科_リハビリテーション科_放射線科_放射線診断科_放射線治療科_病理診断科_麻酔科】【一般病床数:431療養病床数:0精神病床数:0感染症病床数:0合計病床数:431】新潟県長岡市旭岡１丁目２４番地" }, "geometry": { "type": "Point", "coordinates": [ 138.858206, 37.422942 ] } },
{ "type": "Feature", "properties": { "ID": "151BYNGX00008", "正式名称": "田宮病院", "機関区分": 1, "都道府県コード": 15, "市区町村コード": 202, "所在地": "新潟県長岡市深沢町２３００番地", "緯度": 37.425681, "経度": 138.771718, "url": "https://www.iryou.teikyouseido.mhlw.go.jp/znk-web/juminkanja/S2430/initialize?prefCd=15&kikanCd=BYNGX00008&kikanKbn=1", "url2": "http://www.sutokukai.or.jp/tamiya-hp/", "内容": "田宮病院【1:病院】【診療科目:内科_脳神経内科_婦人科_眼科_耳鼻いんこう科_皮膚科_泌尿器科_精神科_歯科】【一般病床数:0療養病床数:0精神病床数:419感染症病床数:0合計病床数:419】新潟県長岡市深沢町２３００番地" }, "geometry": { "type": "Point", "coordinates": [ 138.771718, 37.425681 ] } },
{ "type": "Feature", "properties": { "ID": "151BYNGX00009", "正式名称": "長岡西病院", "機関区分": 1, "都道府県コード": 15, "市区町村コード": 202, "所在地": "新潟県長岡市三ツ郷屋町３７１番地１", "緯度": 37.449917, "経度": 138.815917, "url": "https://www.iryou.teikyouseido.mhlw.go.jp/znk-web/juminkanja/S2430/initialize?prefCd=15&kikanCd=BYNGX00009&kikanKbn=1", "url2": "http://www.sutokukai.or.jp/nagaokanishi-hp/", "内容": "長岡西病院【1:病院】【診療科目:内科_神経内科_外科_整形外科_婦人科_眼科_皮膚科_泌尿器科_精神科_心療内科_歯科_リハビリテーション科_放射線診断科_麻酔科】【一般病床数:74療養病床数:166精神病床数:0感染症病床数:0合計病床数:240】新潟県長岡市三ツ郷屋町３７１番地１" }, "geometry": { "type": "Point", "coordinates": [ 138.815917, 37.449917 ] } },
{ "type": "Feature", "properties": { "ID": "151BYNGX00010", "正式名称": "悠遊健康村病院", "機関区分": 1, "都道府県コード": 15, "市区町村コード": 202, "所在地": "新潟県長岡市大字日越３３７番地", "緯度": 37.436718, "経度": 138.780974, "url": "https://www.iryou.teikyouseido.mhlw.go.jp/znk-web/juminkanja/S2430/initialize?prefCd=15&kikanCd=BYNGX00010&kikanKbn=1", "url2": "http://www.tatikawa.or.jp", "内容": "悠遊健康村病院【1:病院】【診療科目:内科_呼吸器内科_循環器内科_神経内科_脳神経外科_整形外科_形成外科_小児科_精神科_リウマチ科_リハビリテーション科】【一般病床数:151療養病床数:149精神病床数:0感染症病床数:0合計病床数:300】新潟県長岡市大字日越３３７番地" }, "geometry": { "type": "Point", "coordinates": [ 138.780974, 37.436718 ] } },
{ "type": "Feature", "properties": { "ID": "151BYNGX00011", "正式名称": "長岡療育園", "機関区分": 1, "都道府県コード": 15, "市区町村コード": 202, "所在地": "新潟県長岡市深沢町字高寺２２７８番地８", "緯度": 37.425719, "経度": 138.773231, "url": "https://www.iryou.teikyouseido.mhlw.go.jp/znk-web/juminkanja/S2430/initialize?prefCd=15&kikanCd=BYNGX00011&kikanKbn=1", "url2": "https://nagaryo.or.jp/", "内容": "長岡療育園【1:病院】【診療科目:内科_小児科】【一般病床数:165療養病床数:0精神病床数:0感染症病床数:0合計病床数:165】新潟県長岡市深沢町字高寺２２７８番地８" }, "geometry": { "type": "Point", "coordinates": [ 138.773231, 37.425719 ] } },
{ "type": "Feature", "properties": { "ID": "151BYNGX00012", "正式名称": "見附市立病院", "機関区分": 1, "都道府県コード": 15, "市区町村コード": 211, "所在地": "新潟県見附市学校町２丁目１３番５０号", "緯度": 37.534123, "経度": 138.920079, "url": "https://www.iryou.teikyouseido.mhlw.go.jp/znk-web/juminkanja/S2430/initialize?prefCd=15&kikanCd=BYNGX00012&kikanKbn=1", "url2": "https://www.city.mitsuke.niigata.jp/site/hospital/", "内容": "見附市立病院【1:病院】【診療科目:内科_神経内科_外科_脳神経外科_整形外科_形成外科_小児科_放射線科】【一般病床数:94療養病床数:0精神病床数:0感染症病床数:0合計病床数:94】新潟県見附市学校町２丁目１３番５０号" }, "geometry": { "type": "Point", "coordinates": [ 138.920079, 37.534123 ] } },
{ "type": "Feature", "properties": { "ID": "151BYNGX00013", "正式名称": "新潟県厚生農業協同組合連合会　小千谷総合病院", "機関区分": 1, "都道府県コード": 15, "市区町村コード": 208, "所在地": "新潟県小千谷市大字平沢新田１１１番地", "緯度": 37.321551, "経度": 138.792999, "url": "https://www.iryou.teikyouseido.mhlw.go.jp/znk-web/juminkanja/S2430/initialize?prefCd=15&kikanCd=BYNGX00013&kikanKbn=1", "url2": "https://ojiya-ghp.jp/", "内容": "新潟県厚生農業協同組合連合会　小千谷総合病院【1:病院】【診療科目:内科_循環器内科_消化器内科_神経内科_外科_脳神経外科_呼吸器外科_心臓血管外科_整形外科_小児科_産婦人科_眼科_耳鼻いんこう科_皮膚科_泌尿器科_心療内科_リハビリテーション科_放射線科_麻酔科】【一般病床数:199療養病床数:0精神病床数:0感染症病床数:0合計病床数:199】新潟県小千谷市大字平沢新田１１１番地" }, "geometry": { "type": "Point", "coordinates": [ 138.792999, 37.321551 ] } },
{ "type": "Feature", "properties": { "ID": "151BYNGX00014", "正式名称": "小千谷さくら病院", "機関区分": 1, "都道府県コード": 15, "市区町村コード": 208, "所在地": "新潟県小千谷市小粟田２７３２番地", "緯度": 37.34224, "経度": 138.79735, "url": "https://www.iryou.teikyouseido.mhlw.go.jp/znk-web/juminkanja/S2430/initialize?prefCd=15&kikanCd=BYNGX00014&kikanKbn=1", "url2": "https://www.sakurahp.com", "内容": "小千谷さくら病院【1:病院】【診療科目:内科_脳神経内科_リハビリテーション科】【一般病床数:120療養病床数:50精神病床数:0感染症病床数:0合計病床数:170】新潟県小千谷市小粟田２７３２番地" }, "geometry": { "type": "Point", "coordinates": [ 138.79735, 37.34224 ] } },
{ "type": "Feature", "properties": { "ID": "151BYNTX00001", "正式名称": "新潟県立津川病院", "機関区分": 1, "都道府県コード": 15, "市区町村コード": 385, "所在地": "新潟県東蒲原郡阿賀町津川２００番地", "緯度": 37.678848, "経度": 139.463075, "url": "https://www.iryou.teikyouseido.mhlw.go.jp/znk-web/juminkanja/S2430/initialize?prefCd=15&kikanCd=BYNTX00001&kikanKbn=1", "url2": "https://tsugawa-hospital.sakura.ne.jp/index.html", "内容": "新潟県立津川病院【1:病院】【診療科目:内科_脳神経内科_外科_脳神経外科_整形外科_小児科_婦人科_眼科_耳鼻いんこう科_皮膚科_泌尿器科_心療内科_リハビリテーション科_麻酔科】【一般病床数:42療養病床数:0精神病床数:0感染症病床数:0合計病床数:42】新潟県東蒲原郡阿賀町津川２００番地" }, "geometry": { "type": "Point", "coordinates": [ 139.463075, 37.678848 ] } },
{ "type": "Feature", "properties": { "ID": "151BYNTX00002", "正式名称": "南部郷厚生病院", "機関区分": 1, "都道府県コード": 15, "市区町村コード": 218, "所在地": "新潟県五泉市愛宕甲２９２５番地２", "緯度": 37.69481, "経度": 139.188298, "url": "https://www.iryou.teikyouseido.mhlw.go.jp/znk-web/juminkanja/S2430/initialize?prefCd=15&kikanCd=BYNTX00002&kikanKbn=1", "url2": "https://sinjinkai.or.jp", "内容": "南部郷厚生病院【1:病院】【診療科目:内科_腎臓内科_人工透析内科_神経内科_緩和ケア内科_皮膚科】【一般病床数:70療養病床数:50精神病床数:0感染症病床数:0合計病床数:120】新潟県五泉市愛宕甲２９２５番地２" }, "geometry": { "type": "Point", "coordinates": [ 139.188298, 37.69481 ] } },
{ "type": "Feature", "properties": { "ID": "151BYNTX00003", "正式名称": "五泉中央病院", "機関区分": 1, "都道府県コード": 15, "市区町村コード": 218, "所在地": "新潟県五泉市太田４８９番地１", "緯度": 37.745776, "経度": 139.182669, "url": "https://www.iryou.teikyouseido.mhlw.go.jp/znk-web/juminkanja/S2430/initialize?prefCd=15&kikanCd=BYNTX00003&kikanKbn=1", "url2": "https://www.sinjinkai.or.jp/gosenchuo/", "内容": "五泉中央病院【1:病院】【診療科目:内科_内分泌内科_呼吸器内科_循環器内科_消化器内科_腎臓内科_外科_脳神経外科_胸部外科_整形外科_小児科_眼科_耳鼻いんこう科_泌尿器科_リハビリテーション科_病理診断科_麻酔科】【一般病床数:160療養病床数:39精神病床数:0感染症病床数:0合計病床数:199】新潟県五泉市太田４８９番地１" }, "geometry": { "type": "Point", "coordinates": [ 139.182669, 37.745776 ] } },
{ "type": "Feature", "properties": { "ID": "151BYSDX00001", "正式名称": "佐渡市立両津病院", "機関区分": 1, "都道府県コード": 15, "市区町村コード": 224, "所在地": "新潟県佐渡市浜田１７７番地１", "緯度": 38.088864, "経度": 138.43036, "url": "https://www.iryou.teikyouseido.mhlw.go.jp/znk-web/juminkanja/S2430/initialize?prefCd=15&kikanCd=BYSDX00001&kikanKbn=1", "url2": "https://www.city.sado.niigata.jp/site/ryotsu-hosp/", "内容": "佐渡市立両津病院【1:病院】【診療科目:内科_外科_整形外科_小児科_産婦人科_耳鼻いんこう科_矯正歯科_歯科口腔外科】【一般病床数:99療養病床数:0精神病床数:0感染症病床数:0合計病床数:99】新潟県佐渡市浜田１７７番地１" }, "geometry": { "type": "Point", "coordinates": [ 138.43036, 38.088864 ] } },
{ "type": "Feature", "properties": { "ID": "151BYSDX00002", "正式名称": "新潟県厚生農業協同組合連合会佐渡総合病院", "機関区分": 1, "都道府県コード": 15, "市区町村コード": 224, "所在地": "新潟県佐渡市千種１６１番地", "緯度": 38.019617, "経度": 138.366706, "url": "https://www.iryou.teikyouseido.mhlw.go.jp/znk-web/juminkanja/S2430/initialize?prefCd=15&kikanCd=BYSDX00002&kikanKbn=1", "url2": "https://sadosogo-hp.jp/", "内容": "新潟県厚生農業協同組合連合会佐渡総合病院【1:病院】【診療科目:内科_呼吸器内科_循環器内科_消化器内科_神経内科_外科_脳神経外科_呼吸器外科_心臓血管外科_整形外科_形成外科_小児科_小児外科_産婦人科_眼科_耳鼻いんこう科_皮膚科_泌尿器科_精神科_歯科_歯科口腔外科_リハビリテーション科_放射線科_放射線治療科_麻酔科】【一般病床数:290療養病床数:0精神病床数:60感染症病床数:4合計病床数:354】新潟県佐渡市千種１６１番地" }, "geometry": { "type": "Point", "coordinates": [ 138.366706, 38.019617 ] } },
{ "type": "Feature", "properties": { "ID": "151BYSHX00001", "正式名称": "新潟県立新発田病院", "機関区分": 1, "都道府県コード": 15, "市区町村コード": 206, "所在地": "新潟県新発田市本町１丁目２番８号", "緯度": 37.946565, "経度": 139.333974, "url": "https://www.iryou.teikyouseido.mhlw.go.jp/znk-web/juminkanja/S2430/initialize?prefCd=15&kikanCd=BYSHX00001&kikanKbn=1", "url2": "http://www.sbthp.jp/", "内容": "新潟県立新発田病院【1:病院】【診療科目:内科_脳神経内科_循環器内科_外科_脳神経外科_呼吸器外科_心臓血管外科_消化器外科_乳腺外科_整形外科_形成外科_小児科_産婦人科_眼科_耳鼻いんこう科_皮膚科_泌尿器科_精神科_歯科口腔外科_リウマチ科_リハビリテーション科_放射線科_病理診断科_救急科_麻酔科】【一般病床数:470療養病床数:0精神病床数:45感染症病床数:4合計病床数:519】新潟県新発田市本町１丁目２番８号" }, "geometry": { "type": "Point", "coordinates": [ 139.333974, 37.946565 ] } },
{ "type": "Feature", "properties": { "ID": "151BYSHX00003", "正式名称": "あがの市民病院", "機関区分": 1, "都道府県コード": 15, "市区町村コード": 223, "所在地": "新潟県阿賀野市岡山町１３－２３", "緯度": 37.832795, "経度": 139.221167, "url": "https://www.iryou.teikyouseido.mhlw.go.jp/znk-web/juminkanja/S2430/initialize?prefCd=15&kikanCd=BYSHX00003&kikanKbn=1", "url2": "https://www.aganocity-hp.jp/hospital/aganoshimin/", "内容": "あがの市民病院【1:病院】【診療科目:内科_神経内科_外科_脳神経外科_心臓血管外科_整形外科_小児科_産婦人科_眼科_耳鼻いんこう科_皮膚科_泌尿器科_歯科口腔外科_リハビリテーション科_放射線科_麻酔科】【一般病床数:196療養病床数:0精神病床数:0感染症病床数:0合計病床数:196】新潟県阿賀野市岡山町１３－２３" }, "geometry": { "type": "Point", "coordinates": [ 139.221167, 37.832795 ] } },
{ "type": "Feature", "properties": { "ID": "151BYSHX00004", "正式名称": "医療法人社団　有心会　有田病院", "機関区分": 1, "都道府県コード": 15, "市区町村コード": 206, "所在地": "新潟県新発田市金谷１９７番地", "緯度": 37.944011, "経度": 139.365907, "url": "https://www.iryou.teikyouseido.mhlw.go.jp/znk-web/juminkanja/S2430/initialize?prefCd=15&kikanCd=BYSHX00004&kikanKbn=1", "url2": "https:/yushinkai.info", "内容": "医療法人社団　有心会　有田病院【1:病院】【診療科目:内科_精神科_神経科_心療内科】【一般病床数:0療養病床数:0精神病床数:211感染症病床数:0合計病床数:211】新潟県新発田市金谷１９７番地" }, "geometry": { "type": "Point", "coordinates": [ 139.365907, 37.944011 ] } },
{ "type": "Feature", "properties": { "ID": "151BYSHX00005", "正式名称": "脳神経センター阿賀野病院", "機関区分": 1, "都道府県コード": 15, "市区町村コード": 223, "所在地": "新潟県阿賀野市保田６３１７番地１５", "緯度": 37.780006, "経度": 139.272117, "url": "https://www.iryou.teikyouseido.mhlw.go.jp/znk-web/juminkanja/S2430/initialize?prefCd=15&kikanCd=BYSHX00005&kikanKbn=1", "url2": "https://www.agano.or.jp", "内容": "脳神経センター阿賀野病院【1:病院】【診療科目:内科_脳神経内科_リハビリテーション科】【一般病床数:44療養病床数:93精神病床数:0感染症病床数:0合計病床数:137】新潟県阿賀野市保田６３１７番地１５" }, "geometry": { "type": "Point", "coordinates": [ 139.272117, 37.780006 ] } },
{ "type": "Feature", "properties": { "ID": "151BYSHX00006", "正式名称": "黒川病院", "機関区分": 1, "都道府県コード": 15, "市区町村コード": 227, "所在地": "新潟県胎内市下館字大開１５２２番地", "緯度": 38.078136, "経度": 139.44955, "url": "https://www.iryou.teikyouseido.mhlw.go.jp/znk-web/juminkanja/S2430/initialize?prefCd=15&kikanCd=BYSHX00006&kikanKbn=1", "url2": "http://www.hakujitsukai.com/", "内容": "黒川病院【1:病院】【診療科目:内科_皮膚科_精神科_歯科】【一般病床数:0療養病床数:0精神病床数:263感染症病床数:0合計病床数:263】新潟県胎内市下館字大開１５２２番地" }, "geometry": { "type": "Point", "coordinates": [ 139.44955, 38.078136 ] } },
{ "type": "Feature", "properties": { "ID": "151BYSHX00007", "正式名称": "Ｍ＆Ｂコラボレーション北越病院", "機関区分": 1, "都道府県コード": 15, "市区町村コード": 206, "所在地": "新潟県新発田市緑町２丁目２０番１９号", "緯度": 37.962, "経度": 139.331467, "url": "https://www.iryou.teikyouseido.mhlw.go.jp/znk-web/juminkanja/S2430/initialize?prefCd=15&kikanCd=BYSHX00007&kikanKbn=1", "url2": "http://www.mbc.or.jp/hokuetu/", "内容": "Ｍ＆Ｂコラボレーション北越病院【1:病院】【診療科目:内科_呼吸器内科_循環器内科_消化器内科_外科_脳神経外科_整形外科_リハビリテーション科】【一般病床数:55療養病床数:0精神病床数:0感染症病床数:0合計病床数:55】新潟県新発田市緑町２丁目２０番１９号" }, "geometry": { "type": "Point", "coordinates": [ 139.331467, 37.962 ] } },
{ "type": "Feature", "properties": { "ID": "151BYSHX00008", "正式名称": "医療法人社団竹内会竹内病院", "機関区分": 1, "都道府県コード": 15, "市区町村コード": 206, "所在地": "新潟県新発田市中央町４－６－６", "緯度": 37.952403, "経度": 139.328064, "url": "https://www.iryou.teikyouseido.mhlw.go.jp/znk-web/juminkanja/S2430/initialize?prefCd=15&kikanCd=BYSHX00008&kikanKbn=1", "url2": "http://takeuchikai.net/hospital/", "内容": "医療法人社団竹内会竹内病院【1:病院】【診療科目:内科_呼吸器内科_神経内科_心療内科_リハビリテーション科_放射線科】【一般病床数:30療養病床数:0精神病床数:0感染症病床数:0合計病床数:30】新潟県新発田市中央町４－６－６" }, "geometry": { "type": "Point", "coordinates": [ 139.328064, 37.952403 ] } },
{ "type": "Feature", "properties": { "ID": "151BYSHX00009", "正式名称": "医療法人　愛広会　新発田リハビリテーション病院", "機関区分": 1, "都道府県コード": 15, "市区町村コード": 206, "所在地": "新潟県新発田市荒町甲１６１１番地８", "緯度": 37.935748, "経度": 139.321812, "url": "https://www.iryou.teikyouseido.mhlw.go.jp/znk-web/juminkanja/S2430/initialize?prefCd=15&kikanCd=BYSHX00009&kikanKbn=1", "url2": "https://www.shibata-reha.jp", "内容": "医療法人　愛広会　新発田リハビリテーション病院【1:病院】【診療科目:内科_循環器内科_漢方内科_リハビリテーション科】【一般病床数:60療養病床数:180精神病床数:0感染症病床数:0合計病床数:240】新潟県新発田市荒町甲１６１１番地８" }, "geometry": { "type": "Point", "coordinates": [ 139.321812, 37.935748 ] } },
{ "type": "Feature", "properties": { "ID": "151BYSHX00010", "正式名称": "中条中央病院", "機関区分": 1, "都道府県コード": 15, "市区町村コード": 227, "所在地": "新潟県胎内市西本町１２－１", "緯度": 38.051939, "経度": 139.395413, "url": "https://www.iryou.teikyouseido.mhlw.go.jp/znk-web/juminkanja/S2430/initialize?prefCd=15&kikanCd=BYSHX00010&kikanKbn=1", "url2": "http://kyouseikai-hosp.com", "内容": "中条中央病院【1:病院】【診療科目:内科_外科_整形外科_小児科_眼科_皮膚科_歯科口腔外科_リハビリテーション科】【一般病床数:90療養病床数:0精神病床数:0感染症病床数:0合計病床数:90】新潟県胎内市西本町１２－１" }, "geometry": { "type": "Point", "coordinates": [ 139.395413, 38.051939 ] } },
{ "type": "Feature", "properties": { "ID": "151BYSHX00011", "正式名称": "新潟手の外科研究所病院", "機関区分": 1, "都道府県コード": 15, "市区町村コード": 307, "所在地": "新潟県北蒲原郡聖籠町諏訪山９９７番地", "緯度": 37.971748, "経度": 139.279563, "url": "https://www.iryou.teikyouseido.mhlw.go.jp/znk-web/juminkanja/S2430/initialize?prefCd=15&kikanCd=BYSHX00011&kikanKbn=1", "url2": "https://www.tenogeka.com/", "内容": "新潟手の外科研究所病院【1:病院】【診療科目:整形外科】【一般病床数:50療養病床数:0精神病床数:0感染症病床数:0合計病床数:50】新潟県北蒲原郡聖籠町諏訪山９９７番地" }, "geometry": { "type": "Point", "coordinates": [ 139.279563, 37.971748 ] } },
{ "type": "Feature", "properties": { "ID": "151BYSHX00012", "正式名称": "新潟聖籠病院", "機関区分": 1, "都道府県コード": 15, "市区町村コード": 307, "所在地": "新潟県北蒲原郡聖籠町蓮野５９６８番２", "緯度": 37.972925, "経度": 139.253636, "url": "https://www.iryou.teikyouseido.mhlw.go.jp/znk-web/juminkanja/S2430/initialize?prefCd=15&kikanCd=BYSHX00012&kikanKbn=1", "url2": "http://www.aoikai.jp/niigataseirou/", "内容": "新潟聖籠病院【1:病院】【診療科目:内科_腎臓内科_外科_脳神経外科_整形外科_眼科_リハビリテーション科】【一般病床数:60療養病床数:180精神病床数:0感染症病床数:0合計病床数:240】新潟県北蒲原郡聖籠町蓮野５９６８番２" }, "geometry": { "type": "Point", "coordinates": [ 139.253636, 37.972925 ] } },
{ "type": "Feature", "properties": { "ID": "151BYSNX00001", "正式名称": "新潟県立加茂病院", "機関区分": 1, "都道府県コード": 15, "市区町村コード": 209, "所在地": "新潟県加茂市青海町１丁目９番１号", "緯度": 37.665085, "経度": 139.055735, "url": "https://www.iryou.teikyouseido.mhlw.go.jp/znk-web/juminkanja/S2430/initialize?prefCd=15&kikanCd=BYSNX00001&kikanKbn=1", "url2": "http://www.kamo-hospital.kamo.niigata.jp/index.html", "内容": "新潟県立加茂病院【1:病院】【診療科目:内科_脳神経内科_緩和ケア内科_外科_脳神経外科_呼吸器外科_心臓血管外科_整形外科_小児科_産婦人科_眼科_耳鼻いんこう科_皮膚科_泌尿器科_リハビリテーション科_放射線科】【一般病床数:156療養病床数:12精神病床数:0感染症病床数:0合計病床数:168】新潟県加茂市青海町１丁目９番１号" }, "geometry": { "type": "Point", "coordinates": [ 139.055735, 37.665085 ] } },
{ "type": "Feature", "properties": { "ID": "151BYSNX00002", "正式名称": "新潟県済生会三条病院", "機関区分": 1, "都道府県コード": 15, "市区町村コード": 204, "所在地": "新潟県三条市大野畑６番１８号", "緯度": 37.626585, "経度": 138.939826, "url": "https://www.iryou.teikyouseido.mhlw.go.jp/znk-web/juminkanja/S2430/initialize?prefCd=15&kikanCd=BYSNX00002&kikanKbn=1", "url2": "https://www.saisanhp.com", "内容": "新潟県済生会三条病院【1:病院】【診療科目:内科_緩和ケア内科_乳腺外科_整形外科_小児科_婦人科_眼科_皮膚科_泌尿器科_歯科口腔外科_リハビリテーション科】【一般病床数:120療養病床数:0精神病床数:0感染症病床数:0合計病床数:120】新潟県三条市大野畑６番１８号" }, "geometry": { "type": "Point", "coordinates": [ 138.939826, 37.626585 ] } },
{ "type": "Feature", "properties": { "ID": "151BYSNX00004", "正式名称": "医療法人恵愛会　大島病院", "機関区分": 1, "都道府県コード": 15, "市区町村コード": 204, "所在地": "新潟県三条市大島５１０３", "緯度": 37.653732, "経度": 138.951342, "url": "https://www.iryou.teikyouseido.mhlw.go.jp/znk-web/juminkanja/S2430/initialize?prefCd=15&kikanCd=BYSNX00004&kikanKbn=1", "url2": "https://ojima-hp.or.jp/", "内容": "医療法人恵愛会　大島病院【1:病院】【診療科目:脳神経内科_精神科】【一般病床数:0療養病床数:0精神病床数:240感染症病床数:0合計病床数:240】新潟県三条市大島５１０３" }, "geometry": { "type": "Point", "coordinates": [ 138.951342, 37.653732 ] } },
{ "type": "Feature", "properties": { "ID": "151BYSNX00005", "正式名称": "三之町病院", "機関区分": 1, "都道府県コード": 15, "市区町村コード": 204, "所在地": "新潟県三条市本町５丁目２番３０号", "緯度": 37.630322, "経度": 138.951011, "url": "https://www.iryou.teikyouseido.mhlw.go.jp/znk-web/juminkanja/S2430/initialize?prefCd=15&kikanCd=BYSNX00005&kikanKbn=1", "url2": "http://www.sannocho.or.jp", "内容": "三之町病院【1:病院】【診療科目:内科_脳神経内科_外科_脳神経外科_ペインクリニック外科_整形外科_眼科_耳鼻いんこう科_泌尿器科_歯科_歯科口腔外科_リハビリテーション科_放射線科】【一般病床数:210療養病床数:0精神病床数:0感染症病床数:0合計病床数:210】新潟県三条市本町５丁目２番３０号" }, "geometry": { "type": "Point", "coordinates": [ 138.951011, 37.630322 ] } },
{ "type": "Feature", "properties": { "ID": "151BYSNX00006", "正式名称": "富永草野病院", "機関区分": 1, "都道府県コード": 15, "市区町村コード": 204, "所在地": "新潟県三条市興野２－２－２５", "緯度": 37.632563, "経度": 138.970947, "url": "https://www.iryou.teikyouseido.mhlw.go.jp/znk-web/juminkanja/S2430/initialize?prefCd=15&kikanCd=BYSNX00006&kikanKbn=1", "url2": "https://www.shihatsudo.or.jp/kusano_hospital/", "内容": "富永草野病院【1:病院】【診療科目:内科_整形外科_形成外科_泌尿器科_リウマチ科_リハビリテーション科_麻酔科】【一般病床数:100療養病床数:0精神病床数:0感染症病床数:0合計病床数:100】新潟県三条市興野２－２－２５" }, "geometry": { "type": "Point", "coordinates": [ 138.970947, 37.632563 ] } },
{ "type": "Feature", "properties": { "ID": "151BYSNX00007", "正式名称": "三条東病院", "機関区分": 1, "都道府県コード": 15, "市区町村コード": 204, "所在地": "新潟県三条市北入蔵２丁目１７番２７号", "緯度": 37.632056, "経度": 138.985244, "url": "https://www.iryou.teikyouseido.mhlw.go.jp/znk-web/juminkanja/S2430/initialize?prefCd=15&kikanCd=BYSNX00007&kikanKbn=1", "url2": "https://www.tachibanakoyokai.or.jp", "内容": "三条東病院【1:病院】【診療科目:内科_消化器内科_皮膚科_リハビリテーション科】【一般病床数:0療養病床数:60精神病床数:0感染症病床数:0合計病床数:60】新潟県三条市北入蔵２丁目１７番２７号" }, "geometry": { "type": "Point", "coordinates": [ 138.985244, 37.632056 ] } },
{ "type": "Feature", "properties": { "ID": "151BYSNX00008", "正式名称": "かもしか病院", "機関区分": 1, "都道府県コード": 15, "市区町村コード": 204, "所在地": "新潟県三条市南五百川８０番地", "緯度": 37.537426, "経度": 139.126787, "url": "https://www.iryou.teikyouseido.mhlw.go.jp/znk-web/juminkanja/S2430/initialize?prefCd=15&kikanCd=BYSNX00008&kikanKbn=1", "url2": "http://www.shitada.jp/", "内容": "かもしか病院【1:病院】【診療科目:内科_精神科】【一般病床数:0療養病床数:120精神病床数:0感染症病床数:0合計病床数:120】新潟県三条市南五百川８０番地" }, "geometry": { "type": "Point", "coordinates": [ 139.126787, 37.537426 ] } },
{ "type": "Feature", "properties": { "ID": "151BYSNX00010", "正式名称": "新潟県立吉田病院", "機関区分": 1, "都道府県コード": 15, "市区町村コード": 213, "所在地": "新潟県燕市吉田大保町３２番１４号", "緯度": 37.687278, "経度": 138.884976, "url": "https://www.iryou.teikyouseido.mhlw.go.jp/znk-web/juminkanja/S2430/initialize?prefCd=15&kikanCd=BYSNX00010&kikanKbn=1", "url2": "https://yoshida-hp.jp/", "内容": "新潟県立吉田病院【1:病院】【診療科目:内科_消化器内科_人工透析内科_外科_消化器外科_乳腺外科_肛門外科_整形外科_小児科_産婦人科_眼科_耳鼻いんこう科_皮膚科_泌尿器科_精神科_歯科口腔外科_リハビリテーション科_放射線科_麻酔科】【一般病床数:110療養病床数:0精神病床数:0感染症病床数:0合計病床数:110】新潟県燕市吉田大保町３２番１４号" }, "geometry": { "type": "Point", "coordinates": [ 138.884976, 37.687278 ] } },
{ "type": "Feature", "properties": { "ID": "151BYSNX00011", "正式名称": "社会福祉法人恩賜財団済生会新潟県央基幹病院", "機関区分": 1, "都道府県コード": 15, "市区町村コード": 204, "所在地": "新潟県三条市上須頃５００１番地１", "緯度": 37.642876, "経度": 138.9331, "url": "https://www.iryou.teikyouseido.mhlw.go.jp/znk-web/juminkanja/S2430/initialize?prefCd=15&kikanCd=BYSNX00011&kikanKbn=1", "url2": "https://www.kenoh.saiseikai.or.jp/", "内容": "社会福祉法人恩賜財団済生会新潟県央基幹病院【1:病院】【診療科目:感染症内科_血液内科_代謝・内分泌内科_脳神経内科_呼吸器内科_循環器内科_消化器内科_腎臓内科_外科_脳神経外科_呼吸器外科_心臓血管外科_消化器外科_乳腺外科_整形外科_形成外科_小児科_産婦人科_眼科_耳鼻いんこう科_皮膚科_泌尿器科_精神科_歯科口腔外科_リハビリテーション科_放射線診断科_放射線治療科_病理診断科_救急科_麻酔科】【一般病床数:396療養病床数:0精神病床数:0感染症病床数:4合計病床数:400】新潟県三条市上須頃５００１番地１" }, "geometry": { "type": "Point", "coordinates": [ 138.9331, 37.642876 ] } },
{ "type": "Feature", "properties": { "ID": "151BYTGX00001", "正式名称": "糸魚川総合病院", "機関区分": 1, "都道府県コード": 15, "市区町村コード": 216, "所在地": "新潟県糸魚川市大字竹ヶ花４５７番地１", "緯度": 37.048998, "経度": 137.888515, "url": "https://www.iryou.teikyouseido.mhlw.go.jp/znk-web/juminkanja/S2430/initialize?prefCd=15&kikanCd=BYTGX00001&kikanKbn=1", "url2": "https://www.itoigawa-hp.jp/", "内容": "糸魚川総合病院【1:病院】【診療科目:内科_循環器内科_消化器内科_外科_脳外科_心臓血管外科_消化器外科_整形外科_小児科_産婦人科_眼科_耳鼻いんこう科_皮膚科_泌尿器科_歯科_リハビリテーション科_放射線科_麻酔科】【一般病床数:199療養病床数:0精神病床数:0感染症病床数:0合計病床数:199】新潟県糸魚川市大字竹ヶ花４５７番地１" }, "geometry": { "type": "Point", "coordinates": [ 137.888515, 37.048998 ] } },
{ "type": "Feature", "properties": { "ID": "151BYTGX00002", "正式名称": "アグリよしだ病院", "機関区分": 1, "都道府県コード": 15, "市区町村コード": 216, "所在地": "新潟県糸魚川市横町５丁目９番１２号", "緯度": 37.043078, "経度": 137.847649, "url": "https://www.iryou.teikyouseido.mhlw.go.jp/znk-web/juminkanja/S2430/initialize?prefCd=15&kikanCd=BYTGX00002&kikanKbn=1", "url2": "http://www.ichieikai.jp", "内容": "アグリよしだ病院【1:病院】【診療科目:内科_心臓外科_整形外科_リハビリテーション科】【一般病床数:60療養病床数:0精神病床数:0感染症病床数:0合計病床数:60】新潟県糸魚川市横町５丁目９番１２号" }, "geometry": { "type": "Point", "coordinates": [ 137.847649, 37.043078 ] } },
{ "type": "Feature", "properties": { "ID": "151BYTKX00001", "正式名称": "新潟県立十日町病院", "機関区分": 1, "都道府県コード": 15, "市区町村コード": 210, "所在地": "新潟県十日町市高田町三丁目南３２－９", "緯度": 37.130631, "経度": 138.751953, "url": "https://www.iryou.teikyouseido.mhlw.go.jp/znk-web/juminkanja/S2430/initialize?prefCd=15&kikanCd=BYTKX00001&kikanKbn=1", "url2": "http://www.tokamachi-hosp-niigata.jp/", "内容": "新潟県立十日町病院【1:病院】【診療科目:内科_脳神経内科_外科_脳神経外科_消化器外科_整形外科_小児科_産婦人科_眼科_耳鼻いんこう科_皮膚科_泌尿器科_歯科口腔外科_リハビリテーション科_放射線科_麻酔科】【一般病床数:275療養病床数:0精神病床数:0感染症病床数:0合計病床数:275】新潟県十日町市高田町三丁目南３２－９" }, "geometry": { "type": "Point", "coordinates": [ 138.751953, 37.130631 ] } },
{ "type": "Feature", "properties": { "ID": "151BYTKX00002", "正式名称": "新潟県立松代病院", "機関区分": 1, "都道府県コード": 15, "市区町村コード": 210, "所在地": "新潟県十日町市松代３５９２番地２", "緯度": 37.13503, "経度": 138.614965, "url": "https://www.iryou.teikyouseido.mhlw.go.jp/znk-web/juminkanja/S2430/initialize?prefCd=15&kikanCd=BYTKX00002&kikanKbn=1", "url2": "http://www.matsudai-hp.server-shared.com/", "内容": "新潟県立松代病院【1:病院】【診療科目:内科_整形外科_眼科_泌尿器科_精神科】【一般病床数:40療養病床数:0精神病床数:0感染症病床数:0合計病床数:40】新潟県十日町市松代３５９２番地２" }, "geometry": { "type": "Point", "coordinates": [ 138.614965, 37.13503 ] } },
{ "type": "Feature", "properties": { "ID": "151BYTKX00003", "正式名称": "町立津南病院", "機関区分": 1, "都道府県コード": 15, "市区町村コード": 482, "所在地": "新潟県中魚沼郡津南町大字下船渡丁２６８２番地", "緯度": 37.015652, "経度": 138.648437, "url": "https://www.iryou.teikyouseido.mhlw.go.jp/znk-web/juminkanja/S2430/initialize?prefCd=15&kikanCd=BYTKX00003&kikanKbn=1", "url2": "https://tsunan-hospital.jp", "内容": "町立津南病院【1:病院】【診療科目:内科_外科_整形外科_小児科_眼科_耳鼻いんこう科_泌尿器科_精神科】【一般病床数:40療養病床数:19精神病床数:0感染症病床数:0合計病床数:59】新潟県中魚沼郡津南町大字下船渡丁２６８２番地" }, "geometry": { "type": "Point", "coordinates": [ 138.648437, 37.015652 ] } },
{ "type": "Feature", "properties": { "ID": "151BYUNX00001", "正式名称": "国民健康保険魚沼市立小出病院", "機関区分": 1, "都道府県コード": 15, "市区町村コード": 225, "所在地": "新潟県魚沼市日渡新田３４番地", "緯度": 37.237095, "経度": 138.959254, "url": "https://www.iryou.teikyouseido.mhlw.go.jp/znk-web/juminkanja/S2430/initialize?prefCd=15&kikanCd=BYUNX00001&kikanKbn=1", "url2": "https://www.uonuma-medical.jp/koide/", "内容": "国民健康保険魚沼市立小出病院【1:病院】【診療科目:内科_脳神経内科_脳神経外科_整形外科_小児科_婦人科_皮膚科_泌尿器科_リハビリテーション科】【一般病床数:90療養病床数:44精神病床数:0感染症病床数:0合計病床数:134】新潟県魚沼市日渡新田３４番地" }, "geometry": { "type": "Point", "coordinates": [ 138.959254, 37.237095 ] } },
{ "type": "Feature", "properties": { "ID": "151BYUNX00002", "正式名称": "ほんだ病院", "機関区分": 1, "都道府県コード": 15, "市区町村コード": 225, "所在地": "新潟県魚沼市原虫野４３３番地３", "緯度": 37.213807, "経度": 138.963622, "url": "https://www.iryou.teikyouseido.mhlw.go.jp/znk-web/juminkanja/S2430/initialize?prefCd=15&kikanCd=BYUNX00002&kikanKbn=1", "url2": "https://www.uonokai.or.jp/honda-hp/", "内容": "ほんだ病院【1:病院】【診療科目:内科_精神科_神経科】【一般病床数:0療養病床数:0精神病床数:100感染症病床数:0合計病床数:100】新潟県魚沼市原虫野４３３番地３" }, "geometry": { "type": "Point", "coordinates": [ 138.963622, 37.213807 ] } },
{ "type": "Feature", "properties": { "ID": "151SINCX00250", "正式名称": "新潟健康管理診療所", "機関区分": 1, "都道府県コード": 15, "市区町村コード": 103, "所在地": "新潟県新潟市中央区新光町１１番地１", "緯度": 37.899375, "経度": 139.021481, "url": "https://www.iryou.teikyouseido.mhlw.go.jp/znk-web/juminkanja/S2430/initialize?prefCd=15&kikanCd=SINCX00250&kikanKbn=1", "url2": "https://www.n-kenko.or.jp/index.html", "内容": "新潟健康管理診療所【1:病院】【診療科目:内科】【一般病床数:0療養病床数:0精神病床数:0感染症病床数:0合計病床数:0】新潟県新潟市中央区新光町１１番地１" }, "geometry": { "type": "Point", "coordinates": [ 139.021481, 37.899375 ] } },
{ "type": "Feature", "properties": { "ID": "151SINCX00351", "正式名称": "くらしま内科クリニック", "機関区分": 1, "都道府県コード": 15, "市区町村コード": 104, "所在地": "新潟県新潟市江南区楚川甲１８０", "緯度": 37.859331, "経度": 139.032942, "url": "https://www.iryou.teikyouseido.mhlw.go.jp/znk-web/juminkanja/S2430/initialize?prefCd=15&kikanCd=SINCX00351&kikanKbn=1", "url2": "https://www.kura-naika.com", "内容": "くらしま内科クリニック【1:病院】【診療科目:内科_アレルギー科】【一般病床数:0療養病床数:0精神病床数:0感染症病床数:0合計病床数:0】新潟県新潟市江南区楚川甲１８０" }, "geometry": { "type": "Point", "coordinates": [ 139.032942, 37.859331 ] } }
]
}
