{
"type": "FeatureCollection",
"name": "geo_15_看護小規模多機能型居宅介護（複合型サービス）",
"crs": { "type": "name", "properties": { "name": "urn:ogc:def:crs:OGC:1.3:CRS84" } },
"features": [
{ "type": "Feature", "properties": { "内容": "看護小規模多機能型居宅介護ケアプラザかやま【看護小規模多機能型居宅介護（複合型サービス）】新潟県新潟市北区嘉山６丁目６番９号", "url": "https://www.kaigokensaku.mhlw.go.jp/15/index.php?action_kouhyou_detail_004_kani=true&JigyosyoCd=1590101067-00&ServiceCd=&Type=search", "url2": null }, "geometry": { "type": "Point", "coordinates": [ 139.219574700000067, 37.9101717 ] } },
{ "type": "Feature", "properties": { "内容": "看護小規模多機能型居宅介護　ケアプラザかやまサテライト【看護小規模多機能型居宅介護（複合型サービス）】新潟県新潟市北区嘉山2169番地1", "url": "https://www.kaigokensaku.mhlw.go.jp/15/index.php?action_kouhyou_detail_004_kani=true&JigyosyoCd=1590102032-00&ServiceCd=&Type=search", "url2": null }, "geometry": { "type": "Point", "coordinates": [ 139.223505499999987, 37.9157335 ] } },
{ "type": "Feature", "properties": { "内容": "ナーシングケアとよさか【看護小規模多機能型居宅介護（複合型サービス）】新潟県新潟市北区白新町２丁目１３番１０号", "url": "https://www.kaigokensaku.mhlw.go.jp/15/index.php?action_kouhyou_detail_004_kani=true&JigyosyoCd=1590102388-00&ServiceCd=&Type=search", "url2": "https://aiko.or.jp/" }, "geometry": { "type": "Point", "coordinates": [ 139.21521820000001, 37.9187145 ] } },
{ "type": "Feature", "properties": { "内容": "なじみの家きなせや大迎【看護小規模多機能型居宅介護（複合型サービス）】新潟県新潟市北区大迎745番地1", "url": "https://www.kaigokensaku.mhlw.go.jp/15/index.php?action_kouhyou_detail_004_kani=true&JigyosyoCd=1590101828-00&ServiceCd=&Type=search", "url2": "https://www.jyouyoukai.or.jp/" }, "geometry": { "type": "Point", "coordinates": [ 139.172807447113001, 37.88204147384279 ] } },
{ "type": "Feature", "properties": { "内容": "看護小規模多機能　つしまの郷【看護小規模多機能型居宅介護（複合型サービス）】新潟県新潟市東区津島屋7丁目1番地1", "url": "https://www.kaigokensaku.mhlw.go.jp/15/index.php?action_kouhyou_detail_004_kani=true&JigyosyoCd=1590101851-00&ServiceCd=&Type=search", "url2": "https://saikake.com" }, "geometry": { "type": "Point", "coordinates": [ 139.123372227647451, 37.93930150147861 ] } },
{ "type": "Feature", "properties": { "内容": "なじみの家きなせや関屋【看護小規模多機能型居宅介護（複合型サービス）】新潟県新潟市中央区関屋大川前2丁目7番12号", "url": "https://www.kaigokensaku.mhlw.go.jp/15/index.php?action_kouhyou_detail_004_kani=true&JigyosyoCd=1590101158-00&ServiceCd=&Type=search", "url2": "https://www.jyouyoukai.or.jp/" }, "geometry": { "type": "Point", "coordinates": [ 139.015197899999947, 37.9053124 ] } },
{ "type": "Feature", "properties": { "内容": "なじみの家　きなせや柳島【看護小規模多機能型居宅介護（複合型サービス）】新潟県新潟市中央区柳島町４丁目３６番地３", "url": "https://www.kaigokensaku.mhlw.go.jp/15/index.php?action_kouhyou_detail_004_kani=true&JigyosyoCd=1590101166-00&ServiceCd=&Type=search", "url2": "https://www.jyouyoukai.or.jp/" }, "geometry": { "type": "Point", "coordinates": [ 139.058696724319361, 37.934015749678323 ] } },
{ "type": "Feature", "properties": { "内容": "ケアステーションるぴなす【看護小規模多機能型居宅介護（複合型サービス）】新潟県新潟市中央区高志２丁目２０番１０号", "url": "https://www.kaigokensaku.mhlw.go.jp/15/index.php?action_kouhyou_detail_004_kani=true&JigyosyoCd=1590101059-00&ServiceCd=&Type=search", "url2": "http://smc-kanwa.jp/lupinus/" }, "geometry": { "type": "Point", "coordinates": [ 139.076707357672149, 37.898664329718805 ] } },
{ "type": "Feature", "properties": { "内容": "なじみの家きなせや亀田中島【看護小規模多機能型居宅介護（複合型サービス）】新潟県新潟市江南区亀田中島4丁目6番26号", "url": "https://www.kaigokensaku.mhlw.go.jp/15/index.php?action_kouhyou_detail_004_kani=true&JigyosyoCd=1590102024-00&ServiceCd=&Type=search", "url2": "https://www.jyouyoukai.or.jp/" }, "geometry": { "type": "Point", "coordinates": [ 139.1008062, 37.889319300000011 ] } },
{ "type": "Feature", "properties": { "内容": "かんたき　ゆいまーる【看護小規模多機能型居宅介護（複合型サービス）】新潟県新潟市江南区亀田向陽３－１５－１３在宅総合ケアセンターゆいまーる亀田向陽", "url": "https://www.kaigokensaku.mhlw.go.jp/15/index.php?action_kouhyou_detail_004_kani=true&JigyosyoCd=1590101729-00&ServiceCd=&Type=search", "url2": "http://anjel-plus.jp/" }, "geometry": { "type": "Point", "coordinates": [ 139.107580323278853, 37.88134069079647 ] } },
{ "type": "Feature", "properties": { "内容": "はあとふるあたご　看護小規模多機能ホームあきは【看護小規模多機能型居宅介護（複合型サービス）】新潟県新潟市秋葉区荻野町2番10号", "url": "https://www.kaigokensaku.mhlw.go.jp/15/index.php?action_kouhyou_detail_004_kani=true&JigyosyoCd=1590101778-00&ServiceCd=&Type=search", "url2": "https://heartfull.jp" }, "geometry": { "type": "Point", "coordinates": [ 139.10711630000003, 37.8293128 ] } },
{ "type": "Feature", "properties": { "内容": "看護小規模多機能ホーム　第二白根能登の里【看護小規模多機能型居宅介護（複合型サービス）】新潟県新潟市南区能登2-6-39", "url": "https://www.kaigokensaku.mhlw.go.jp/15/index.php?action_kouhyou_detail_004_kani=true&JigyosyoCd=1590102180-00&ServiceCd=&Type=search", "url2": null }, "geometry": { "type": "Point", "coordinates": [ 139.015191, 37.7683132 ] } },
{ "type": "Feature", "properties": { "内容": "はあとふるあたご看護小規模多機能ホームてらお【看護小規模多機能型居宅介護（複合型サービス）】新潟県新潟市西区寺尾1番7号複合施設てらお", "url": "https://www.kaigokensaku.mhlw.go.jp/15/index.php?action_kouhyou_detail_004_kani=true&JigyosyoCd=1590102305-00&ServiceCd=&Type=search", "url2": "https://www.heartfull.jp" }, "geometry": { "type": "Point", "coordinates": [ 138.9821508, 37.8831501 ] } },
{ "type": "Feature", "properties": { "内容": "看護小規模多機能ホームさかい【看護小規模多機能型居宅介護（複合型サービス）】新潟県新潟市西区坂井1450番地1", "url": "https://www.kaigokensaku.mhlw.go.jp/15/index.php?action_kouhyou_detail_004_kani=true&JigyosyoCd=1590102446-00&ServiceCd=&Type=search", "url2": "https://www.atago.or.jp/" }, "geometry": { "type": "Point", "coordinates": [ 138.956450208073392, 37.86154998185431 ] } },
{ "type": "Feature", "properties": { "内容": "守庵良寛　看護小規模多機能型居宅介護　内野西【看護小規模多機能型居宅介護（複合型サービス）】新潟県新潟市西区内野西２丁目１０番３０号", "url": "https://www.kaigokensaku.mhlw.go.jp/15/index.php?action_kouhyou_detail_004_kani=true&JigyosyoCd=1590102214-00&ServiceCd=&Type=search", "url2": "http://niigata-fukushi.com/" }, "geometry": { "type": "Point", "coordinates": [ 138.934358586508182, 37.852843510103213 ] } },
{ "type": "Feature", "properties": { "内容": "看護小規模多機能ホーム春日和寺地【看護小規模多機能型居宅介護（複合型サービス）】新潟県新潟市西区寺地676番地1", "url": "https://www.kaigokensaku.mhlw.go.jp/15/index.php?action_kouhyou_detail_004_kani=true&JigyosyoCd=1590102644-00&ServiceCd=&Type=search", "url2": "https://worldstay.jp/" }, "geometry": { "type": "Point", "coordinates": [ 139.010552448136366, 37.889061552972471 ] } },
{ "type": "Feature", "properties": { "内容": "看護小規模多機能型居宅介護大島【看護小規模多機能型居宅介護（複合型サービス）】新潟県長岡市大島町字谷内甲１１６１番地サポートセンター大島", "url": "https://www.kaigokensaku.mhlw.go.jp/15/index.php?action_kouhyou_detail_004_kani=true&JigyosyoCd=1590200570-00&ServiceCd=&Type=search", "url2": "http://www.kobushien.com" }, "geometry": { "type": "Point", "coordinates": [ 138.816715790399172, 37.448101852401919 ] } },
{ "type": "Feature", "properties": { "内容": "看多機かえりえ長岡【看護小規模多機能型居宅介護（複合型サービス）】新潟県長岡市中島7-1-7", "url": "https://www.kaigokensaku.mhlw.go.jp/15/index.php?action_kouhyou_detail_004_kani=true&JigyosyoCd=1590200794-00&ServiceCd=&Type=search", "url2": "https://search.yasashiite.com/detail/kantaki_nagaoka/" }, "geometry": { "type": "Point", "coordinates": [ 138.851297699999975, 37.4573938 ] } },
{ "type": "Feature", "properties": { "内容": "あさひナーシングセンター【看護小規模多機能型居宅介護（複合型サービス）】三条市西裏館３丁目６番５４号", "url": "https://www.kaigokensaku.mhlw.go.jp/15/index.php?action_kouhyou_detail_004_kani=true&JigyosyoCd=1590400196-00&ServiceCd=&Type=search", "url2": "http://asahikyousei.jp/" }, "geometry": { "type": "Point", "coordinates": [ 138.960288398286451, 37.64402911588715 ] } },
{ "type": "Feature", "properties": { "内容": "看護小規模多機能型居宅介護ロージイ・コート【看護小規模多機能型居宅介護（複合型サービス）】新潟県柏崎市三和町6番15号", "url": "https://www.kaigokensaku.mhlw.go.jp/15/index.php?action_kouhyou_detail_004_kani=true&JigyosyoCd=1590500292-00&ServiceCd=&Type=search", "url2": "http://www.a-sset.com" }, "geometry": { "type": "Point", "coordinates": [ 138.580707746915493, 37.36712948831439 ] } },
{ "type": "Feature", "properties": { "内容": "看護小規模多機能ホーム　村上まごころの里【看護小規模多機能型居宅介護（複合型サービス）】新潟県　村上市　大津　3689番地2", "url": "https://www.kaigokensaku.mhlw.go.jp/15/index.php?action_kouhyou_detail_004_kani=true&JigyosyoCd=1591200231-00&ServiceCd=&Type=search", "url2": "http://www.m-wel.jp/" }, "geometry": { "type": "Point", "coordinates": [ 139.4344661, 38.1312227 ] } },
{ "type": "Feature", "properties": { "内容": "看護小規模多機能型居宅介護事業所ゆっくり【看護小規模多機能型居宅介護（複合型サービス）】新潟県村上市松山２０１－１看護小規模多機能型居宅介護事業所　ゆっくり", "url": "https://www.kaigokensaku.mhlw.go.jp/15/index.php?action_kouhyou_detail_004_kani=true&JigyosyoCd=1591200207-00&ServiceCd=&Type=search", "url2": "http://www．shinkohkai.jp/yukkuri/" }, "geometry": { "type": "Point", "coordinates": [ 139.457144624050926, 38.217214515061521 ] } },
{ "type": "Feature", "properties": { "内容": "看護小規模多機能型居宅介護寺町あたごの里【看護小規模多機能型居宅介護（複合型サービス）】新潟県上越市寺町２丁目８番１０－５号", "url": "https://www.kaigokensaku.mhlw.go.jp/15/index.php?action_kouhyou_detail_004_kani=true&JigyosyoCd=1590300677-00&ServiceCd=&Type=search", "url2": "https://www.joetsu-atago.or.jp/" }, "geometry": { "type": "Point", "coordinates": [ 138.2388298, 37.110645 ] } },
{ "type": "Feature", "properties": { "内容": "看護小規模多機能ホーム春日和すわ【看護小規模多機能型居宅介護（複合型サービス）】新潟県魚沼市諏訪町1-12MeCS上村ビル　2階", "url": "https://www.kaigokensaku.mhlw.go.jp/15/index.php?action_kouhyou_detail_004_kani=true&JigyosyoCd=1592300238-00&ServiceCd=&Type=search", "url2": "https://worldstay.jp/" }, "geometry": { "type": "Point", "coordinates": [ 138.960084137434421, 37.232493568643122 ] } },
{ "type": "Feature", "properties": { "内容": "看護小規模多機能ライフィニティ石打【看護小規模多機能型居宅介護（複合型サービス）】新潟県南魚沼市上一日市９４番地", "url": "https://www.kaigokensaku.mhlw.go.jp/15/index.php?action_kouhyou_detail_004_kani=true&JigyosyoCd=1592400244-00&ServiceCd=&Type=search", "url2": "https://lifinity.jp/ishiuchi/" }, "geometry": { "type": "Point", "coordinates": [ 138.813167061397905, 36.995481895239266 ] } }
]
}
