{
"type": "FeatureCollection",
"name": "geo_15_小規模多機能型居宅介護",
"crs": { "type": "name", "properties": { "name": "urn:ogc:def:crs:OGC:1.3:CRS84" } },
"features": [
{ "type": "Feature", "properties": { "内容": "リビングサポート　おやま【小規模多機能型居宅介護】新潟県新潟市北区木崎1811番地3", "url2": "https://www.kaigokensaku.mhlw.go.jp/15/index.php?action_kouhyou_detail_004_kani=true&JigyosyoCd=1590100440-00&ServiceCd=730&Type=search" }, "geometry": { "type": "Point", "coordinates": [ 139.172989599999937, 37.9322299 ] } },
{ "type": "Feature", "properties": { "内容": "リビングサポートはやどおり【小規模多機能型居宅介護】新潟県新潟市北区早通93-3", "url2": "https://www.kaigokensaku.mhlw.go.jp/15/index.php?action_kouhyou_detail_004_kani=true&JigyosyoCd=1590101216-00&ServiceCd=730&Type=search" }, "geometry": { "type": "Point", "coordinates": [ 139.1783673, 37.9237504 ] } },
{ "type": "Feature", "properties": { "内容": "シマミール和み【小規模多機能型居宅介護】新潟県新潟市北区島見町２０３４番地", "url2": "https://www.kaigokensaku.mhlw.go.jp/15/index.php?action_kouhyou_detail_004_kani=true&JigyosyoCd=1590100960-00&ServiceCd=730&Type=search" }, "geometry": { "type": "Point", "coordinates": [ 139.19661259999998, 37.9718068 ] } },
{ "type": "Feature", "properties": { "内容": "ケアプラザひしのみ【小規模多機能型居宅介護】新潟県新潟市北区嘉山6-6-10", "url2": "https://www.kaigokensaku.mhlw.go.jp/15/index.php?action_kouhyou_detail_004_kani=true&JigyosyoCd=1590100614-00&ServiceCd=730&Type=search" }, "geometry": { "type": "Point", "coordinates": [ 139.2193886, 37.9100689 ] } },
{ "type": "Feature", "properties": { "内容": "なじみの家　きなせや松浜【小規模多機能型居宅介護】新潟県新潟市北区松浜１丁目２番１６", "url2": "https://www.kaigokensaku.mhlw.go.jp/15/index.php?action_kouhyou_detail_004_kani=true&JigyosyoCd=1590100259-00&ServiceCd=730&Type=search" }, "geometry": { "type": "Point", "coordinates": [ 139.144307700000013, 37.9522586 ] } },
{ "type": "Feature", "properties": { "内容": "ささえ愛あわやま【小規模多機能型居宅介護】新潟県新潟市東区粟山1-9-1", "url2": "https://www.kaigokensaku.mhlw.go.jp/15/index.php?action_kouhyou_detail_004_kani=true&JigyosyoCd=1590100036-00&ServiceCd=730&Type=search" }, "geometry": { "type": "Point", "coordinates": [ 139.099953300000038, 37.899801500000017 ] } },
{ "type": "Feature", "properties": { "内容": "小規模多機能型居宅介護事業所　ささえ愛下山【小規模多機能型居宅介護】新潟県新潟市東区太平4丁目18番地7", "url2": "https://www.kaigokensaku.mhlw.go.jp/15/index.php?action_kouhyou_detail_004_kani=true&JigyosyoCd=1590100705-00&ServiceCd=730&Type=search" }, "geometry": { "type": "Point", "coordinates": [ 139.111764273016291, 37.941944091691305 ] } },
{ "type": "Feature", "properties": { "内容": "ささえ愛いしやま【小規模多機能型居宅介護】新潟県新潟市東区粟山2丁目9番11号", "url2": "https://www.kaigokensaku.mhlw.go.jp/15/index.php?action_kouhyou_detail_004_kani=true&JigyosyoCd=1590101224-00&ServiceCd=730&Type=search" }, "geometry": { "type": "Point", "coordinates": [ 139.099423054177805, 37.895401655565365 ] } },
{ "type": "Feature", "properties": { "内容": "小規模多機能型居宅介護　つどいの家ななふく【小規模多機能型居宅介護】新潟県新潟市東区海老ヶ瀬３００２番地", "url2": "https://www.kaigokensaku.mhlw.go.jp/15/index.php?action_kouhyou_detail_004_kani=true&JigyosyoCd=1590101083-00&ServiceCd=730&Type=search" }, "geometry": { "type": "Point", "coordinates": [ 139.123552717127268, 37.932785733544229 ] } },
{ "type": "Feature", "properties": { "内容": "小規模多機能ホーム　花かいどう【小規模多機能型居宅介護】新潟県新潟市東区空港西２丁目１番８号", "url2": "https://www.kaigokensaku.mhlw.go.jp/15/index.php?action_kouhyou_detail_004_kani=true&JigyosyoCd=1590100978-00&ServiceCd=730&Type=search" }, "geometry": { "type": "Point", "coordinates": [ 139.096003500000052, 37.947019400000016 ] } },
{ "type": "Feature", "properties": { "内容": "なじみの家きなせや山ノ下【小規模多機能型居宅介護】新潟県新潟市東区古川町7-21", "url2": "https://www.kaigokensaku.mhlw.go.jp/15/index.php?action_kouhyou_detail_004_kani=true&JigyosyoCd=1590100267-00&ServiceCd=730&Type=search" }, "geometry": { "type": "Point", "coordinates": [ 139.07445830000006, 37.9371248 ] } },
{ "type": "Feature", "properties": { "内容": "はあとふるあたご小規模多機能ホームゆたか【小規模多機能型居宅介護】新潟県新潟市東区豊2丁目7番44号", "url2": "https://www.kaigokensaku.mhlw.go.jp/15/index.php?action_kouhyou_detail_004_kani=true&JigyosyoCd=1590102107-00&ServiceCd=730&Type=search" }, "geometry": { "type": "Point", "coordinates": [ 139.1134567, 37.925284 ] } },
{ "type": "Feature", "properties": { "内容": "小規模多機能ホームふもとの奏【小規模多機能型居宅介護】新潟県新潟市東区中山８丁目１９番１１号", "url2": "https://www.kaigokensaku.mhlw.go.jp/15/index.php?action_kouhyou_detail_004_kani=true&JigyosyoCd=1590101463-00&ServiceCd=730&Type=search" }, "geometry": { "type": "Point", "coordinates": [ 139.090806, 37.9152943 ] } },
{ "type": "Feature", "properties": { "内容": "小規模多機能ホームきゃすと海老ケ瀬【小規模多機能型居宅介護】新潟県新潟市東区海老ケ瀬新町3番93号", "url2": "https://www.kaigokensaku.mhlw.go.jp/15/index.php?action_kouhyou_detail_004_kani=true&JigyosyoCd=1590102081-00&ServiceCd=730&Type=search" }, "geometry": { "type": "Point", "coordinates": [ 139.1201428, 37.9264705 ] } },
{ "type": "Feature", "properties": { "内容": "ささえ愛おうみ【小規模多機能型居宅介護】新潟県新潟市中央区近江３丁目５番２号", "url2": "https://www.kaigokensaku.mhlw.go.jp/15/index.php?action_kouhyou_detail_004_kani=true&JigyosyoCd=1590101539-00&ServiceCd=730&Type=search" }, "geometry": { "type": "Point", "coordinates": [ 139.045375656683291, 37.901611366747325 ] } },
{ "type": "Feature", "properties": { "内容": "やすらぎの郷ひめさゆり【小規模多機能型居宅介護】新潟市中央区白山浦新町通42", "url2": "https://www.kaigokensaku.mhlw.go.jp/15/index.php?action_kouhyou_detail_004_kani=true&JigyosyoCd=1590102347-00&ServiceCd=730&Type=search" }, "geometry": { "type": "Point", "coordinates": [ 139.026451400000013, 37.9123805 ] } },
{ "type": "Feature", "properties": { "内容": "めぐみの郷ひめさゆり【小規模多機能型居宅介護】新潟県新潟市中央区関屋恵町１２番５号13", "url2": "https://www.kaigokensaku.mhlw.go.jp/15/index.php?action_kouhyou_detail_004_kani=true&JigyosyoCd=1590102396-00&ServiceCd=730&Type=search" }, "geometry": { "type": "Point", "coordinates": [ 139.011555433729541, 37.903275821434384 ] } },
{ "type": "Feature", "properties": { "内容": "なじみの家きなせや姥ケ山【小規模多機能型居宅介護】新潟県新潟市中央区姥ケ山2丁目14番22号なじみの家きなせや姥ケ山", "url2": "https://www.kaigokensaku.mhlw.go.jp/15/index.php?action_kouhyou_detail_004_kani=true&JigyosyoCd=1590102586-00&ServiceCd=730&Type=search" }, "geometry": { "type": "Point", "coordinates": [ 139.075530450787369, 37.885396753345674 ] } },
{ "type": "Feature", "properties": { "内容": "はあとふるあたご小規模多機能ホーム日和庵【小規模多機能型居宅介護】新潟市中央区窪田町2丁目111－2", "url2": "https://www.kaigokensaku.mhlw.go.jp/15/index.php?action_kouhyou_detail_004_kani=true&JigyosyoCd=1590100739-00&ServiceCd=730&Type=search" }, "geometry": { "type": "Point", "coordinates": [ 139.054629400000067, 37.9396179 ] } },
{ "type": "Feature", "properties": { "内容": "小規模多機能型居宅介護マロニエ【小規模多機能型居宅介護】新潟県新潟市中央区本馬越2丁目15番34号", "url2": "https://www.kaigokensaku.mhlw.go.jp/15/index.php?action_kouhyou_detail_004_kani=true&JigyosyoCd=1590101364-00&ServiceCd=730&Type=search" }, "geometry": { "type": "Point", "coordinates": [ 139.0777683, 37.9121041 ] } },
{ "type": "Feature", "properties": { "内容": "ニチイケアセンター紫竹【小規模多機能型居宅介護】新潟県新潟市中央区紫竹１丁目28-13", "url2": "https://www.kaigokensaku.mhlw.go.jp/15/index.php?action_kouhyou_detail_004_kani=true&JigyosyoCd=1590101109-00&ServiceCd=730&Type=search" }, "geometry": { "type": "Point", "coordinates": [ 139.079077407934648, 37.911237460608447 ] } },
{ "type": "Feature", "properties": { "内容": "デイホーム沼垂【小規模多機能型居宅介護】新潟県新潟市中央区沼垂東6丁目1番9号", "url2": "https://www.kaigokensaku.mhlw.go.jp/15/index.php?action_kouhyou_detail_004_kani=true&JigyosyoCd=1590101398-00&ServiceCd=730&Type=search" }, "geometry": { "type": "Point", "coordinates": [ 139.070131899999978, 37.9227843 ] } },
{ "type": "Feature", "properties": { "内容": "ALPHASさわやか苑　鳥屋野多機能ケアセンター【小規模多機能型居宅介護】新潟県新潟市中央区小張木３丁目６番３号", "url2": "https://www.kaigokensaku.mhlw.go.jp/15/index.php?action_kouhyou_detail_004_kani=true&JigyosyoCd=1590100382-00&ServiceCd=730&Type=search" }, "geometry": { "type": "Point", "coordinates": [ 139.043310170401782, 37.884589291766851 ] } },
{ "type": "Feature", "properties": { "内容": "なじみの家きなせや天神尾【小規模多機能型居宅介護】新潟県新潟市中央区天神尾１－１６－４", "url2": "https://www.kaigokensaku.mhlw.go.jp/15/index.php?action_kouhyou_detail_004_kani=true&JigyosyoCd=1590100135-00&ServiceCd=730&Type=search" }, "geometry": { "type": "Point", "coordinates": [ 139.05426460000001, 37.9082603 ] } },
{ "type": "Feature", "properties": { "内容": "守庵良寛　小規模多機能型居宅介護　姥ケ山【小規模多機能型居宅介護】新潟県新潟市中央区姥ケ山１７１０番地３守庵良寛の里姥ケ山", "url2": "https://www.kaigokensaku.mhlw.go.jp/15/index.php?action_kouhyou_detail_004_kani=true&JigyosyoCd=1590102594-00&ServiceCd=730&Type=search" }, "geometry": { "type": "Point", "coordinates": [ 139.084225984377895, 37.889134761413459 ] } },
{ "type": "Feature", "properties": { "内容": "ささえ愛わりの【小規模多機能型居宅介護】新潟県新潟市江南区割野４０２８", "url2": "https://www.kaigokensaku.mhlw.go.jp/15/index.php?action_kouhyou_detail_004_kani=true&JigyosyoCd=1590100457-00&ServiceCd=730&Type=search" }, "geometry": { "type": "Point", "coordinates": [ 139.09367270000007, 37.8376949 ] } },
{ "type": "Feature", "properties": { "内容": "はあとふるあたご小規模多機能ホーム慶寿苑【小規模多機能型居宅介護】新潟市江南区俵柳177番地1", "url2": "https://www.kaigokensaku.mhlw.go.jp/15/index.php?action_kouhyou_detail_004_kani=true&JigyosyoCd=1590102420-00&ServiceCd=730&Type=search" }, "geometry": { "type": "Point", "coordinates": [ 139.026780870083627, 37.86157682775417 ] } },
{ "type": "Feature", "properties": { "内容": "ＳＯＭＰＯケア　新潟横越　小規模多機能【小規模多機能型居宅介護】新潟県新潟市江南区横越川根町4-1-10", "url2": "https://www.kaigokensaku.mhlw.go.jp/15/index.php?action_kouhyou_detail_004_kani=true&JigyosyoCd=1590101760-00&ServiceCd=730&Type=search" }, "geometry": { "type": "Point", "coordinates": [ 139.135112899999967, 37.8582853 ] } },
{ "type": "Feature", "properties": { "内容": "ささえ愛きたかみ【小規模多機能型居宅介護】新潟県新潟市秋葉区北上２丁目１３番７号", "url2": "https://www.kaigokensaku.mhlw.go.jp/15/index.php?action_kouhyou_detail_004_kani=true&JigyosyoCd=1590100309-00&ServiceCd=730&Type=search" }, "geometry": { "type": "Point", "coordinates": [ 139.120438299999932, 37.8134063 ] } },
{ "type": "Feature", "properties": { "内容": "さぽ～とハウス　さつきの【小規模多機能型居宅介護】新潟県新潟市秋葉区さつき野４丁目１５番３９号", "url2": "https://www.kaigokensaku.mhlw.go.jp/15/index.php?action_kouhyou_detail_004_kani=true&JigyosyoCd=1590100937-00&ServiceCd=730&Type=search" }, "geometry": { "type": "Point", "coordinates": [ 139.1168027, 37.80916770000001 ] } },
{ "type": "Feature", "properties": { "内容": "なじみの家きなせや荻川【小規模多機能型居宅介護】新潟県新潟市秋葉区荻野町１－３８", "url2": "https://www.kaigokensaku.mhlw.go.jp/15/index.php?action_kouhyou_detail_004_kani=true&JigyosyoCd=1590100283-00&ServiceCd=730&Type=search" }, "geometry": { "type": "Point", "coordinates": [ 139.1097466, 37.8296962 ] } },
{ "type": "Feature", "properties": { "内容": "さぽ～とハウス　こでまり【小規模多機能型居宅介護】新潟県新潟市秋葉区荻島3丁目20番24号", "url2": "https://www.kaigokensaku.mhlw.go.jp/15/index.php?action_kouhyou_detail_004_kani=true&JigyosyoCd=1590100143-00&ServiceCd=730&Type=search" }, "geometry": { "type": "Point", "coordinates": [ 139.114621506745948, 37.834145898514237 ] } },
{ "type": "Feature", "properties": { "内容": "小規模多機能型居宅介護事業所　よってけ亭【小規模多機能型居宅介護】新潟県新潟市秋葉区滝谷町４番１９号", "url2": "https://www.kaigokensaku.mhlw.go.jp/15/index.php?action_kouhyou_detail_004_kani=true&JigyosyoCd=1590100184-00&ServiceCd=730&Type=search" }, "geometry": { "type": "Point", "coordinates": [ 139.143630181614782, 37.788680107259196 ] } },
{ "type": "Feature", "properties": { "内容": "小規模多機能型居宅介護事業所　こもれび亭【小規模多機能型居宅介護】新潟県新潟市秋葉区大鹿５１４番地１", "url2": "https://www.kaigokensaku.mhlw.go.jp/15/index.php?action_kouhyou_detail_004_kani=true&JigyosyoCd=1590100556-00&ServiceCd=730&Type=search" }, "geometry": { "type": "Point", "coordinates": [ 139.0982712, 37.7958158 ] } },
{ "type": "Feature", "properties": { "内容": "さぽ～とハウス　ひなぎく【小規模多機能型居宅介護】新潟県新潟市秋葉区七日町８２６－１", "url2": "https://www.kaigokensaku.mhlw.go.jp/15/index.php?action_kouhyou_detail_004_kani=true&JigyosyoCd=1590100630-00&ServiceCd=730&Type=search" }, "geometry": { "type": "Point", "coordinates": [ 139.144952699999976, 37.8222837 ] } },
{ "type": "Feature", "properties": { "内容": "はあとふるあたご小規模多機能ホームおぎかわ【小規模多機能型居宅介護】新潟市秋葉区車場897番地1はあとふるあたご複合施設おぎかわ", "url2": "https://www.kaigokensaku.mhlw.go.jp/15/index.php?action_kouhyou_detail_004_kani=true&JigyosyoCd=1590102198-00&ServiceCd=730&Type=search" }, "geometry": { "type": "Point", "coordinates": [ 139.099799799999971, 37.8347161 ] } },
{ "type": "Feature", "properties": { "内容": "小規模多機能ホーム　長寿の館・わかば園【小規模多機能型居宅介護】新潟県新潟市秋葉区小須戸106番地１", "url2": "https://www.kaigokensaku.mhlw.go.jp/15/index.php?action_kouhyou_detail_004_kani=true&JigyosyoCd=1590102255-00&ServiceCd=730&Type=search" }, "geometry": { "type": "Point", "coordinates": [ 139.0707098, 37.754820100000018 ] } },
{ "type": "Feature", "properties": { "内容": "小規模多機能ホームハピネスこすど【小規模多機能型居宅介護】新潟県新潟市秋葉区小須戸3886番地1", "url2": "https://www.kaigokensaku.mhlw.go.jp/15/index.php?action_kouhyou_detail_004_kani=true&JigyosyoCd=1590102610-00&ServiceCd=730&Type=search" }, "geometry": { "type": "Point", "coordinates": [ 139.068258500000013, 37.762121 ] } },
{ "type": "Feature", "properties": { "内容": "小規模多機能ホーム白根能登の里【小規模多機能型居宅介護】新潟県新潟市南区能登２丁目６番４２号", "url2": "https://www.kaigokensaku.mhlw.go.jp/15/index.php?action_kouhyou_detail_004_kani=true&JigyosyoCd=1590101331-00&ServiceCd=730&Type=search" }, "geometry": { "type": "Point", "coordinates": [ 139.015738691106435, 37.768123820592265 ] } },
{ "type": "Feature", "properties": { "内容": "なじみの家　きなせや白根【小規模多機能型居宅介護】新潟県新潟市南区白根１２２７－１", "url2": "https://www.kaigokensaku.mhlw.go.jp/15/index.php?action_kouhyou_detail_004_kani=true&JigyosyoCd=1590100275-00&ServiceCd=730&Type=search" }, "geometry": { "type": "Point", "coordinates": [ 139.018835600000017, 37.7648958 ] } },
{ "type": "Feature", "properties": { "内容": "小規模多機能ホームうすい【小規模多機能型居宅介護】新潟県新潟市南区臼井1435番3", "url2": "https://www.kaigokensaku.mhlw.go.jp/15/index.php?action_kouhyou_detail_004_kani=true&JigyosyoCd=1590100465-00&ServiceCd=730&Type=search" }, "geometry": { "type": "Point", "coordinates": [ 139.056519671163983, 37.785461832925925 ] } },
{ "type": "Feature", "properties": { "内容": "小規模多機能型居宅介護事業所いきいき味方【小規模多機能型居宅介護】新潟県新潟市南区味方89番地3", "url2": "https://www.kaigokensaku.mhlw.go.jp/15/index.php?action_kouhyou_detail_004_kani=true&JigyosyoCd=1590100903-00&ServiceCd=730&Type=search" }, "geometry": { "type": "Point", "coordinates": [ 139.008275430688542, 37.773534201807571 ] } },
{ "type": "Feature", "properties": { "内容": "ゆうばえの家【小規模多機能型居宅介護】新潟県新潟市西区内野上新町11878番地1", "url2": "https://www.kaigokensaku.mhlw.go.jp/15/index.php?action_kouhyou_detail_004_kani=true&JigyosyoCd=1590101273-00&ServiceCd=730&Type=search" }, "geometry": { "type": "Point", "coordinates": [ 138.912377964109623, 37.849463361593273 ] } },
{ "type": "Feature", "properties": { "内容": "なじみの家　きなせや内野【小規模多機能型居宅介護】新潟県新潟市西区内野町320番地2", "url2": "https://www.kaigokensaku.mhlw.go.jp/15/index.php?action_kouhyou_detail_004_kani=true&JigyosyoCd=1590100812-00&ServiceCd=730&Type=search" }, "geometry": { "type": "Point", "coordinates": [ 138.939661399999977, 37.860276 ] } },
{ "type": "Feature", "properties": { "内容": "なじみの家きなせや坂井砂山【小規模多機能型居宅介護】新潟県新潟市西区坂井砂山２－１３－１７", "url2": "https://www.kaigokensaku.mhlw.go.jp/15/index.php?action_kouhyou_detail_004_kani=true&JigyosyoCd=1590100127-00&ServiceCd=730&Type=search" }, "geometry": { "type": "Point", "coordinates": [ 138.959522671163995, 37.872516625752176 ] } },
{ "type": "Feature", "properties": { "内容": "小規模多機能ケアホーム　小新しらとりの家【小規模多機能型居宅介護】新潟県新潟市西区小新1080番地34", "url2": "https://www.kaigokensaku.mhlw.go.jp/15/index.php?action_kouhyou_detail_004_kani=true&JigyosyoCd=1590101497-00&ServiceCd=730&Type=search" }, "geometry": { "type": "Point", "coordinates": [ 138.996086404801872, 37.87745119034409 ] } },
{ "type": "Feature", "properties": { "内容": "なじみの家　きなせや小新【小規模多機能型居宅介護】新潟県新潟市西区小新西2-1-20", "url2": "https://www.kaigokensaku.mhlw.go.jp/15/index.php?action_kouhyou_detail_004_kani=true&JigyosyoCd=1590100994-00&ServiceCd=730&Type=search" }, "geometry": { "type": "Point", "coordinates": [ 138.9931987, 37.8778373 ] } },
{ "type": "Feature", "properties": { "内容": "なじみの家　きなせや黒埼【小規模多機能型居宅介護】新潟県新潟市西区善久521番地1", "url2": "https://www.kaigokensaku.mhlw.go.jp/15/index.php?action_kouhyou_detail_004_kani=true&JigyosyoCd=1590100804-00&ServiceCd=730&Type=search" }, "geometry": { "type": "Point", "coordinates": [ 139.0145066, 37.8568435 ] } },
{ "type": "Feature", "properties": { "内容": "小規模多機能型居宅介護事業所　笑い愛くろさき【小規模多機能型居宅介護】新潟県新潟市西区板井604番地", "url2": "https://www.kaigokensaku.mhlw.go.jp/15/index.php?action_kouhyou_detail_004_kani=true&JigyosyoCd=1590101240-00&ServiceCd=730&Type=search" }, "geometry": { "type": "Point", "coordinates": [ 138.99947443391693, 37.823489176418363 ] } },
{ "type": "Feature", "properties": { "内容": "小規模多機能ホーム桜井の里・あかつかの家【小規模多機能型居宅介護】新潟県新潟市西区赤塚2759番地", "url2": "https://www.kaigokensaku.mhlw.go.jp/15/index.php?action_kouhyou_detail_004_kani=true&JigyosyoCd=1590101679-00&ServiceCd=730&Type=search" }, "geometry": { "type": "Point", "coordinates": [ 138.8855873, 37.8144684 ] } },
{ "type": "Feature", "properties": { "内容": "はあとふるあたご小規模多機能ホーム坂井東【小規模多機能型居宅介護】新潟県新潟市西区坂井東6-23-18", "url2": "https://www.kaigokensaku.mhlw.go.jp/15/index.php?action_kouhyou_detail_004_kani=true&JigyosyoCd=1590101315-00&ServiceCd=730&Type=search" }, "geometry": { "type": "Point", "coordinates": [ 138.967445322271828, 37.869361446624481 ] } },
{ "type": "Feature", "properties": { "内容": "小規模多機能ホームはまゆう小新南【小規模多機能型居宅介護】新潟県新潟市西区小新南1丁目4番29号", "url2": "https://www.kaigokensaku.mhlw.go.jp/15/index.php?action_kouhyou_detail_004_kani=true&JigyosyoCd=1590101232-00&ServiceCd=730&Type=search" }, "geometry": { "type": "Point", "coordinates": [ 138.991754023942576, 37.870273132534599 ] } },
{ "type": "Feature", "properties": { "内容": "小規模多機能型居宅介護事業所あい・いからしの郷はなみずき【小規模多機能型居宅介護】新潟県新潟市西区上新栄町三丁目４番７７号高齢者総合生活支援施設あい・いからしの郷", "url2": "https://www.kaigokensaku.mhlw.go.jp/15/index.php?action_kouhyou_detail_004_kani=true&JigyosyoCd=1590101745-00&ServiceCd=730&Type=search" }, "geometry": { "type": "Point", "coordinates": [ 138.966016388807247, 37.884886357135755 ] } },
{ "type": "Feature", "properties": { "内容": "小規模多機能ホーム　ハピネス【小規模多機能型居宅介護】新潟県新潟市西区五十嵐一の町7354番地2", "url2": "https://www.kaigokensaku.mhlw.go.jp/15/index.php?action_kouhyou_detail_004_kani=true&JigyosyoCd=1590101125-00&ServiceCd=730&Type=search" }, "geometry": { "type": "Point", "coordinates": [ 138.946125623877407, 37.873848320759933 ] } },
{ "type": "Feature", "properties": { "内容": "小規模多機能型居宅介護事業所　愛楽結いずい【小規模多機能型居宅介護】新潟県新潟市西蒲区井随444番地", "url2": "https://www.kaigokensaku.mhlw.go.jp/15/index.php?action_kouhyou_detail_004_kani=true&JigyosyoCd=1590100150-00&ServiceCd=730&Type=search" }, "geometry": { "type": "Point", "coordinates": [ 138.975977, 37.7668462 ] } },
{ "type": "Feature", "properties": { "内容": "小規模多機能型居宅介護事業所　ふれあい花見【小規模多機能型居宅介護】新潟県新潟市西蒲区大潟276番1", "url2": "https://www.kaigokensaku.mhlw.go.jp/15/index.php?action_kouhyou_detail_004_kani=true&JigyosyoCd=1590100374-00&ServiceCd=730&Type=search" }, "geometry": { "type": "Point", "coordinates": [ 138.9459395, 37.8122345 ] } },
{ "type": "Feature", "properties": { "内容": "小規模多機能型居宅介護事業所　縁結びの館・岩田家【小規模多機能型居宅介護】新潟県新潟市西蒲区馬堀５８８７番地１", "url2": "https://www.kaigokensaku.mhlw.go.jp/15/index.php?action_kouhyou_detail_004_kani=true&JigyosyoCd=1590100580-00&ServiceCd=730&Type=search" }, "geometry": { "type": "Point", "coordinates": [ 138.919716357672058, 37.74594747306211 ] } },
{ "type": "Feature", "properties": { "内容": "小規模多機能型居宅介護事業所　七浦の里【小規模多機能型居宅介護】新潟県新潟市西蒲区越前浜6838番地1小規模多機能型居宅介護事業所　七浦の里", "url2": "https://www.kaigokensaku.mhlw.go.jp/15/index.php?action_kouhyou_detail_004_kani=true&JigyosyoCd=1590100721-00&ServiceCd=730&Type=search" }, "geometry": { "type": "Point", "coordinates": [ 138.843865599999958, 37.814949 ] } },
{ "type": "Feature", "properties": { "内容": "小規模多機能型居宅介護事業所　漆山久兵衛さぁ～家【小規模多機能型居宅介護】新潟県新潟市西蒲区漆山２７４７番地１", "url2": "https://www.kaigokensaku.mhlw.go.jp/15/index.php?action_kouhyou_detail_004_kani=true&JigyosyoCd=1590100416-00&ServiceCd=730&Type=search" }, "geometry": { "type": "Point", "coordinates": [ 138.925033100000064, 37.7471307 ] } },
{ "type": "Feature", "properties": { "内容": "小規模多機能型居宅介護事業所　かくれんぼ【小規模多機能型居宅介護】新潟県新潟市西蒲区西中723-1", "url2": "https://www.kaigokensaku.mhlw.go.jp/15/index.php?action_kouhyou_detail_004_kani=true&JigyosyoCd=1590100820-00&ServiceCd=730&Type=search" }, "geometry": { "type": "Point", "coordinates": [ 138.866390599999932, 37.7256895 ] } },
{ "type": "Feature", "properties": { "内容": "小規模多機能型居宅介護事業所　彩り　まき【小規模多機能型居宅介護】新潟県新潟市西蒲区巻甲4450-1", "url2": "https://www.kaigokensaku.mhlw.go.jp/15/index.php?action_kouhyou_detail_004_kani=true&JigyosyoCd=1590101943-00&ServiceCd=730&Type=search" }, "geometry": { "type": "Point", "coordinates": [ 138.8947114, 37.7543666 ] } },
{ "type": "Feature", "properties": { "内容": "小規模多機能型居宅介護プラット笹崎【小規模多機能型居宅介護】新潟県長岡市笹崎2－1－20", "url2": "https://www.kaigokensaku.mhlw.go.jp/15/index.php?action_kouhyou_detail_004_kani=true&JigyosyoCd=1590200059-00&ServiceCd=730&Type=search" }, "geometry": { "type": "Point", "coordinates": [ 138.848895209925786, 37.427460600208775 ] } },
{ "type": "Feature", "properties": { "内容": "ALPHASさわやか苑長倉多機能ケアセンター【小規模多機能型居宅介護】長岡市長倉４丁目１１０番", "url2": "https://www.kaigokensaku.mhlw.go.jp/15/index.php?action_kouhyou_detail_004_kani=true&JigyosyoCd=1590200125-00&ServiceCd=730&Type=search" }, "geometry": { "type": "Point", "coordinates": [ 138.86910869999997, 37.4380274 ] } },
{ "type": "Feature", "properties": { "内容": "小規模多機能型居宅介護美沢【小規模多機能型居宅介護】新潟県長岡市美沢4丁目211番地6サポートセンター美沢", "url2": "https://www.kaigokensaku.mhlw.go.jp/15/index.php?action_kouhyou_detail_004_kani=true&JigyosyoCd=1590200026-00&ServiceCd=730&Type=search" }, "geometry": { "type": "Point", "coordinates": [ 138.863764700000047, 37.443274 ] } },
{ "type": "Feature", "properties": { "内容": "小規模多機能型居宅介護　あおぞら館【小規模多機能型居宅介護】新潟県長岡市浦5041-4", "url2": "https://www.kaigokensaku.mhlw.go.jp/15/index.php?action_kouhyou_detail_004_kani=true&JigyosyoCd=1590200406-00&ServiceCd=730&Type=search" }, "geometry": { "type": "Point", "coordinates": [ 138.799993500000028, 37.3883734 ] } },
{ "type": "Feature", "properties": { "内容": "ささえ愛まえかわ【小規模多機能型居宅介護】新潟県長岡市上前島3丁目275-1", "url2": "https://www.kaigokensaku.mhlw.go.jp/15/index.php?action_kouhyou_detail_004_kani=true&JigyosyoCd=1590200737-00&ServiceCd=730&Type=search" }, "geometry": { "type": "Point", "coordinates": [ 138.825512227233304, 37.40214577747593 ] } },
{ "type": "Feature", "properties": { "内容": "小規模多機能型居宅介護アネックス関原【小規模多機能型居宅介護】新潟県長岡市関原南１丁目４３８５番地", "url2": "https://www.kaigokensaku.mhlw.go.jp/15/index.php?action_kouhyou_detail_004_kani=true&JigyosyoCd=1590200190-00&ServiceCd=730&Type=search" }, "geometry": { "type": "Point", "coordinates": [ 138.775810200000024, 37.4504801 ] } },
{ "type": "Feature", "properties": { "内容": "小規模多機能型居宅介護摂田屋【小規模多機能型居宅介護】新潟県長岡市摂田屋5丁目9番地6", "url2": "https://www.kaigokensaku.mhlw.go.jp/15/index.php?action_kouhyou_detail_004_kani=true&JigyosyoCd=1590200356-00&ServiceCd=730&Type=search" }, "geometry": { "type": "Point", "coordinates": [ 138.837868599999979, 37.4167403 ] } },
{ "type": "Feature", "properties": { "内容": "小規模多機能型居宅介護川崎【小規模多機能型居宅介護】新潟県長岡市川崎6丁目1286番地サポートセンター川崎", "url2": "https://www.kaigokensaku.mhlw.go.jp/15/index.php?action_kouhyou_detail_004_kani=true&JigyosyoCd=1590200471-00&ServiceCd=730&Type=search" }, "geometry": { "type": "Point", "coordinates": [ 138.87342979999994, 37.4563169 ] } },
{ "type": "Feature", "properties": { "内容": "小規模多機能型居宅介護千秋【小規模多機能型居宅介護】新潟県長岡市千秋２丁目２２１番地１４", "url2": "https://www.kaigokensaku.mhlw.go.jp/15/index.php?action_kouhyou_detail_004_kani=true&JigyosyoCd=1590200141-00&ServiceCd=730&Type=search" }, "geometry": { "type": "Point", "coordinates": [ 138.827126600000042, 37.4562883 ] } },
{ "type": "Feature", "properties": { "内容": "小規模多機能型居宅介護深沢【小規模多機能型居宅介護】新潟県長岡市深沢町2278番地8", "url2": "https://www.kaigokensaku.mhlw.go.jp/15/index.php?action_kouhyou_detail_004_kani=true&JigyosyoCd=1590200695-00&ServiceCd=730&Type=search" }, "geometry": { "type": "Point", "coordinates": [ 138.772750200000019, 37.4249467 ] } },
{ "type": "Feature", "properties": { "内容": "小規模多機能型居宅介護千手【小規模多機能型居宅介護】新潟県長岡市千手3-1-14", "url2": "https://www.kaigokensaku.mhlw.go.jp/15/index.php?action_kouhyou_detail_004_kani=true&JigyosyoCd=1590200307-00&ServiceCd=730&Type=search" }, "geometry": { "type": "Point", "coordinates": [ 138.844958600000041, 37.4439292 ] } },
{ "type": "Feature", "properties": { "内容": "サテライト型小規模多機能型居宅介護三和【小規模多機能型居宅介護】新潟県長岡市三和３丁目１３８番地２", "url2": "https://www.kaigokensaku.mhlw.go.jp/15/index.php?action_kouhyou_detail_004_kani=true&JigyosyoCd=1590200349-00&ServiceCd=730&Type=search" }, "geometry": { "type": "Point", "coordinates": [ 138.8368961, 37.432422 ] } },
{ "type": "Feature", "properties": { "内容": "ALPHASさわやか苑長岡藤沢多機能ケアセンター【小規模多機能型居宅介護】長岡市藤沢１丁目９－１０", "url2": "https://www.kaigokensaku.mhlw.go.jp/15/index.php?action_kouhyou_detail_004_kani=true&JigyosyoCd=1590200562-00&ServiceCd=730&Type=search" }, "geometry": { "type": "Point", "coordinates": [ 138.838513400000011, 37.474592 ] } },
{ "type": "Feature", "properties": { "内容": "小規模多機能型居宅介護　プラット高町【小規模多機能型居宅介護】新潟県長岡市高町2-59-294", "url2": "https://www.kaigokensaku.mhlw.go.jp/15/index.php?action_kouhyou_detail_004_kani=true&JigyosyoCd=1590200786-00&ServiceCd=730&Type=search" }, "geometry": { "type": "Point", "coordinates": [ 138.8653228, 37.417383 ] } },
{ "type": "Feature", "properties": { "内容": "あっとホーム和楽【小規模多機能型居宅介護】新潟県三条市若宮新田３９２番地", "url2": "https://www.kaigokensaku.mhlw.go.jp/15/index.php?action_kouhyou_detail_004_kani=true&JigyosyoCd=1590400048-00&ServiceCd=730&Type=search" }, "geometry": { "type": "Point", "coordinates": [ 138.927457900000036, 37.5931888 ] } },
{ "type": "Feature", "properties": { "内容": "ライフケアくつろぎ【小規模多機能型居宅介護】新潟県三条市田島二丁目２２番２８号", "url2": "https://www.kaigokensaku.mhlw.go.jp/15/index.php?action_kouhyou_detail_004_kani=true&JigyosyoCd=1590400014-00&ServiceCd=730&Type=search" }, "geometry": { "type": "Point", "coordinates": [ 138.971852399999989, 37.6240894 ] } },
{ "type": "Feature", "properties": { "内容": "なでしこ嵐南【小規模多機能型居宅介護】三条市南四日町３－７－３８－５", "url2": "https://www.kaigokensaku.mhlw.go.jp/15/index.php?action_kouhyou_detail_004_kani=true&JigyosyoCd=1590400030-00&ServiceCd=730&Type=search" }, "geometry": { "type": "Point", "coordinates": [ 138.955745799999931, 37.6157203 ] } },
{ "type": "Feature", "properties": { "内容": "ALPHASさわやか苑三条東多機能ケアセンター【小規模多機能型居宅介護】新潟県三条市北入蔵2-7-14", "url2": "https://www.kaigokensaku.mhlw.go.jp/15/index.php?action_kouhyou_detail_004_kani=true&JigyosyoCd=1590400162-00&ServiceCd=730&Type=search" }, "geometry": { "type": "Point", "coordinates": [ 138.985495300000025, 37.6356854 ] } },
{ "type": "Feature", "properties": { "内容": "小規模多機能ホーム　みなせ【小規模多機能型居宅介護】新潟県柏崎市米山台4丁目12番42号", "url2": "https://www.kaigokensaku.mhlw.go.jp/15/index.php?action_kouhyou_detail_004_kani=true&JigyosyoCd=1590500169-00&ServiceCd=730&Type=search" }, "geometry": { "type": "Point", "coordinates": [ 138.538622609787012, 37.351651343750291 ] } },
{ "type": "Feature", "properties": { "内容": "愛の家小規模多機能型居宅介護柏崎野田【小規模多機能型居宅介護】新潟県柏崎市野田775番地1", "url2": "https://www.kaigokensaku.mhlw.go.jp/15/index.php?action_kouhyou_detail_004_kani=true&JigyosyoCd=1590500326-00&ServiceCd=730&Type=search" }, "geometry": { "type": "Point", "coordinates": [ 138.5668177, 37.277486600000039 ] } },
{ "type": "Feature", "properties": { "内容": "ニチイケアセンター柏崎　ニチイのやわらぎ【小規模多機能型居宅介護】新潟県柏崎市西港３番２０号", "url2": "https://www.kaigokensaku.mhlw.go.jp/15/index.php?action_kouhyou_detail_004_kani=true&JigyosyoCd=1590500060-00&ServiceCd=730&Type=search" }, "geometry": { "type": "Point", "coordinates": [ 138.548190200000022, 37.3707303 ] } },
{ "type": "Feature", "properties": { "内容": "多機能ケアセンターさわやか苑柏崎春日【小規模多機能型居宅介護】新潟県柏崎市春日１丁目２－５１", "url2": "https://www.kaigokensaku.mhlw.go.jp/15/index.php?action_kouhyou_detail_004_kani=true&JigyosyoCd=1590500045-00&ServiceCd=730&Type=search" }, "geometry": { "type": "Point", "coordinates": [ 138.569421, 37.3790743 ] } },
{ "type": "Feature", "properties": { "内容": "小規模多機能ホームはやまの里【小規模多機能型居宅介護】新潟県柏崎市西山町大崎1593番地1特別養護老人ホームはやまの里／小規模多機能ホームはやまの里", "url2": "https://www.kaigokensaku.mhlw.go.jp/15/index.php?action_kouhyou_detail_004_kani=true&JigyosyoCd=1590500177-00&ServiceCd=730&Type=search" }, "geometry": { "type": "Point", "coordinates": [ 138.643591685503196, 37.501635673212434 ] } },
{ "type": "Feature", "properties": { "内容": "SOMPOケア　柏崎松波　小規模多機能【小規模多機能型居宅介護】新潟県柏崎市松波2丁目4番20号", "url2": "https://www.kaigokensaku.mhlw.go.jp/15/index.php?action_kouhyou_detail_004_kani=true&JigyosyoCd=1590500284-00&ServiceCd=730&Type=search" }, "geometry": { "type": "Point", "coordinates": [ 138.573959100000025, 37.391244900000032 ] } },
{ "type": "Feature", "properties": { "内容": "小規模多機能ホーム　ももの木かしわざき【小規模多機能型居宅介護】新潟県柏崎市元城町1-46", "url2": "https://www.kaigokensaku.mhlw.go.jp/15/index.php?action_kouhyou_detail_004_kani=true&JigyosyoCd=1590500029-00&ServiceCd=730&Type=search" }, "geometry": { "type": "Point", "coordinates": [ 138.554484199999933, 37.3502996 ] } },
{ "type": "Feature", "properties": { "内容": "小規模ホームまつみ【小規模多機能型居宅介護】新潟県柏崎市松美1丁目5番10号", "url2": "https://www.kaigokensaku.mhlw.go.jp/15/index.php?action_kouhyou_detail_004_kani=true&JigyosyoCd=1590500201-00&ServiceCd=730&Type=search" }, "geometry": { "type": "Point", "coordinates": [ 138.575048199999969, 37.3740695 ] } },
{ "type": "Feature", "properties": { "内容": "みなと桜寿【小規模多機能型居宅介護】柏崎市番神１－２－６", "url2": "https://www.kaigokensaku.mhlw.go.jp/15/index.php?action_kouhyou_detail_004_kani=true&JigyosyoCd=1590500094-00&ServiceCd=730&Type=search" }, "geometry": { "type": "Point", "coordinates": [ 138.5366219, 37.3640141 ] } },
{ "type": "Feature", "properties": { "内容": "小規模多機能ホーム　ひなた【小規模多機能型居宅介護】新潟県柏崎市大字加納5884", "url2": "https://www.kaigokensaku.mhlw.go.jp/15/index.php?action_kouhyou_detail_004_kani=true&JigyosyoCd=1590500243-00&ServiceCd=730&Type=search" }, "geometry": { "type": "Point", "coordinates": [ 138.620272883012603, 37.332423776306513 ] } },
{ "type": "Feature", "properties": { "内容": "小規模多機能ホーム　やまゆり【小規模多機能型居宅介護】新潟県柏崎市三和町７番３７号", "url2": "https://www.kaigokensaku.mhlw.go.jp/15/index.php?action_kouhyou_detail_004_kani=true&JigyosyoCd=1590500110-00&ServiceCd=730&Type=search" }, "geometry": { "type": "Point", "coordinates": [ 138.581300599999963, 37.3655792 ] } },
{ "type": "Feature", "properties": { "内容": "ささえ愛ゆう【小規模多機能型居宅介護】新潟県新発田市藤塚浜4073-3", "url2": "https://www.kaigokensaku.mhlw.go.jp/15/index.php?action_kouhyou_detail_004_kani=true&JigyosyoCd=1590600084-00&ServiceCd=730&Type=search" }, "geometry": { "type": "Point", "coordinates": [ 139.305896800000028, 38.0340268 ] } },
{ "type": "Feature", "properties": { "内容": "小規模多機能ホームとようら【小規模多機能型居宅介護】新潟県新発田市荒町甲1611番地12", "url2": "https://www.kaigokensaku.mhlw.go.jp/15/index.php?action_kouhyou_detail_004_kani=true&JigyosyoCd=1590600118-00&ServiceCd=730&Type=search" }, "geometry": { "type": "Point", "coordinates": [ 139.322751599999947, 37.9370983 ] } },
{ "type": "Feature", "properties": { "内容": "ほっとしばたケアセンター【小規模多機能型居宅介護】新潟県新発田市豊町３丁目５番１８号", "url2": "https://www.kaigokensaku.mhlw.go.jp/15/index.php?action_kouhyou_detail_004_kani=true&JigyosyoCd=1590600043-00&ServiceCd=730&Type=search" }, "geometry": { "type": "Point", "coordinates": [ 139.341239291471084, 37.936853935087022 ] } },
{ "type": "Feature", "properties": { "内容": "ＳＯＭＰＯケア新発田小規模多機能【小規模多機能型居宅介護】新発田市住吉町4-14-33", "url2": "https://www.kaigokensaku.mhlw.go.jp/15/index.php?action_kouhyou_detail_004_kani=true&JigyosyoCd=1590600191-00&ServiceCd=730&Type=search" }, "geometry": { "type": "Point", "coordinates": [ 139.314122099999963, 37.9431609 ] } },
{ "type": "Feature", "properties": { "内容": "小規模多機能型居宅介護支援事業所　　くるま乃【小規模多機能型居宅介護】新潟県新発田市大友１７－１", "url2": "https://www.kaigokensaku.mhlw.go.jp/15/index.php?action_kouhyou_detail_004_kani=true&JigyosyoCd=1590600167-00&ServiceCd=730&Type=search" }, "geometry": { "type": "Point", "coordinates": [ 139.386962400000016, 37.9089121 ] } },
{ "type": "Feature", "properties": { "内容": "小規模多機能型居宅介護事業所ひよしの家【小規模多機能型居宅介護】新潟県小千谷市日吉1-6-22", "url2": "https://www.kaigokensaku.mhlw.go.jp/15/index.php?action_kouhyou_detail_004_kani=true&JigyosyoCd=1590800114-00&ServiceCd=730&Type=search" }, "geometry": { "type": "Point", "coordinates": [ 138.798149599999988, 37.3048369 ] } },
{ "type": "Feature", "properties": { "内容": "小規模多機能型居宅介護事業所ひうの家【小規模多機能型居宅介護】小千谷市大字ひ生乙１３８９－１", "url2": "https://www.kaigokensaku.mhlw.go.jp/15/index.php?action_kouhyou_detail_004_kani=true&JigyosyoCd=1590800031-00&ServiceCd=730&Type=search" }, "geometry": { "type": "Point", "coordinates": [ 138.811230405015522, 37.303240674080577 ] } },
{ "type": "Feature", "properties": { "内容": "ケアセンターとこしえかのん【小規模多機能型居宅介護】新潟県十日町市荒屋ホ16-1", "url2": "https://www.kaigokensaku.mhlw.go.jp/15/index.php?action_kouhyou_detail_004_kani=true&JigyosyoCd=1591000102-00&ServiceCd=730&Type=search" }, "geometry": { "type": "Point", "coordinates": [ 138.688076724853516, 37.0500570077484 ] } },
{ "type": "Feature", "properties": { "内容": "小規模多機能型居宅介護事業所三好園四ツ宮【小規模多機能型居宅介護】新潟県十日町市本町6の1丁目320番地９", "url2": "https://www.kaigokensaku.mhlw.go.jp/15/index.php?action_kouhyou_detail_004_kani=true&JigyosyoCd=1591000029-00&ServiceCd=730&Type=search" }, "geometry": { "type": "Point", "coordinates": [ 138.76308169999993, 37.1367727 ] } },
{ "type": "Feature", "properties": { "内容": "小規模多機能ホームうえの【小規模多機能型居宅介護】新潟県十日町市上野甲８２番地１", "url2": "https://www.kaigokensaku.mhlw.go.jp/15/index.php?action_kouhyou_detail_004_kani=true&JigyosyoCd=1591000110-00&ServiceCd=730&Type=search" }, "geometry": { "type": "Point", "coordinates": [ 138.745849667181318, 37.175328820608655 ] } },
{ "type": "Feature", "properties": { "内容": "とこしえりあん【小規模多機能型居宅介護】新潟県十日町市妻有町西3丁目1番地17", "url2": "https://www.kaigokensaku.mhlw.go.jp/15/index.php?action_kouhyou_detail_004_kani=true&JigyosyoCd=1591000136-00&ServiceCd=730&Type=search" }, "geometry": { "type": "Point", "coordinates": [ 138.750319280340591, 37.121751564105423 ] } },
{ "type": "Feature", "properties": { "内容": "ゆいテラスやまや【小規模多機能型居宅介護】新潟県十日町市山谷650番地１", "url2": "https://www.kaigokensaku.mhlw.go.jp/15/index.php?action_kouhyou_detail_004_kani=true&JigyosyoCd=1591000144-00&ServiceCd=730&Type=search" }, "geometry": { "type": "Point", "coordinates": [ 138.726330600000011, 37.1479027 ] } },
{ "type": "Feature", "properties": { "内容": "ケアガーデン新幸【小規模多機能型居宅介護】見附市新幸町7番18号ケアガーデン新幸", "url2": "https://www.kaigokensaku.mhlw.go.jp/15/index.php?action_kouhyou_detail_004_kani=true&JigyosyoCd=1591100035-00&ServiceCd=730&Type=search" }, "geometry": { "type": "Point", "coordinates": [ 138.892549, 37.5401191 ] } },
{ "type": "Feature", "properties": { "内容": "小規模多機能ふるまい村【小規模多機能型居宅介護】新潟県見附市新幸町7-11ふるまい村　高齢者複合介護施設　生活サポーターふるまい", "url2": "https://www.kaigokensaku.mhlw.go.jp/15/index.php?action_kouhyou_detail_004_kani=true&JigyosyoCd=1591100126-00&ServiceCd=730&Type=search" }, "geometry": { "type": "Point", "coordinates": [ 138.893231600000036, 37.5395952 ] } },
{ "type": "Feature", "properties": { "内容": "多機能ケアセンターさわやか苑見附柳橋【小規模多機能型居宅介護】見附市柳橋町295番地2", "url2": "https://www.kaigokensaku.mhlw.go.jp/15/index.php?action_kouhyou_detail_004_kani=true&JigyosyoCd=1591100118-00&ServiceCd=730&Type=search" }, "geometry": { "type": "Point", "coordinates": [ 138.898853799999983, 37.5428579 ] } },
{ "type": "Feature", "properties": { "内容": "小規模多機能型居宅介護　ライフほうない【小規模多機能型居宅介護】新潟県村上市下鍜冶屋７３４番地１", "url2": "https://www.kaigokensaku.mhlw.go.jp/15/index.php?action_kouhyou_detail_004_kani=true&JigyosyoCd=1591200108-00&ServiceCd=730&Type=search" }, "geometry": { "type": "Point", "coordinates": [ 139.455894387171924, 38.110875879575445 ] } },
{ "type": "Feature", "properties": { "内容": "株式会社慎鍋【小規模多機能型居宅介護】新潟県村上市山居町2丁目5番44号", "url2": "https://www.kaigokensaku.mhlw.go.jp/15/index.php?action_kouhyou_detail_004_kani=true&JigyosyoCd=1591200124-00&ServiceCd=730&Type=search" }, "geometry": { "type": "Point", "coordinates": [ 139.466686799999934, 38.2150272 ] } },
{ "type": "Feature", "properties": { "内容": "かがやき【小規模多機能型居宅介護】新潟県村上市下鍜冶屋575番地29", "url2": "https://www.kaigokensaku.mhlw.go.jp/15/index.php?action_kouhyou_detail_004_kani=true&JigyosyoCd=1591200256-00&ServiceCd=730&Type=search" }, "geometry": { "type": "Point", "coordinates": [ 139.447542199999958, 38.1123845 ] } },
{ "type": "Feature", "properties": { "内容": "小規模多機能センターみなみよしだ【小規模多機能型居宅介護】新潟県燕市吉田西太田２６４番地５", "url2": "https://www.kaigokensaku.mhlw.go.jp/15/index.php?action_kouhyou_detail_004_kani=true&JigyosyoCd=1591300023-00&ServiceCd=730&Type=search" }, "geometry": { "type": "Point", "coordinates": [ 138.869756100000018, 37.6721155 ] } },
{ "type": "Feature", "properties": { "内容": "小規模多機能センターさわらび【小規模多機能型居宅介護】新潟県燕市佐渡山4130-1", "url2": "https://www.kaigokensaku.mhlw.go.jp/15/index.php?action_kouhyou_detail_004_kani=true&JigyosyoCd=1591300015-00&ServiceCd=730&Type=search" }, "geometry": { "type": "Point", "coordinates": [ 138.91319139999996, 37.7107371 ] } },
{ "type": "Feature", "properties": { "内容": "小規模多機能センターあさひ【小規模多機能型居宅介護】新潟県燕市吉田旭町1丁目6-23", "url2": "https://www.kaigokensaku.mhlw.go.jp/15/index.php?action_kouhyou_detail_004_kani=true&JigyosyoCd=1591300106-00&ServiceCd=730&Type=search" }, "geometry": { "type": "Point", "coordinates": [ 138.875641099999939, 37.687761 ] } },
{ "type": "Feature", "properties": { "内容": "小規模多機能型居宅介護白山町【小規模多機能型居宅介護】燕市白山町3-26-17ふれあいステーション白山町", "url2": "https://www.kaigokensaku.mhlw.go.jp/15/index.php?action_kouhyou_detail_004_kani=true&JigyosyoCd=1591300114-00&ServiceCd=730&Type=search" }, "geometry": { "type": "Point", "coordinates": [ 138.9216361, 37.6691239 ] } },
{ "type": "Feature", "properties": { "内容": "小規模多機能ホームこいけの家【小規模多機能型居宅介護】新潟県燕市柳山1973番地1", "url2": "https://www.kaigokensaku.mhlw.go.jp/15/index.php?action_kouhyou_detail_004_kani=true&JigyosyoCd=1591300320-00&ServiceCd=730&Type=search" }, "geometry": { "type": "Point", "coordinates": [ 138.9051818, 37.6369759 ] } },
{ "type": "Feature", "properties": { "内容": "小規模多機能ホーム　はな広場・よこたの家【小規模多機能型居宅介護】新潟県燕市横田９９４８番地１", "url2": "https://www.kaigokensaku.mhlw.go.jp/15/index.php?action_kouhyou_detail_004_kani=true&JigyosyoCd=1591300072-00&ServiceCd=730&Type=search" }, "geometry": { "type": "Point", "coordinates": [ 138.888089499999978, 37.6321718 ] } },
{ "type": "Feature", "properties": { "内容": "小規模多機能センターひまわり【小規模多機能型居宅介護】新潟県燕市吉田大保町25番15号", "url2": "https://www.kaigokensaku.mhlw.go.jp/15/index.php?action_kouhyou_detail_004_kani=true&JigyosyoCd=1591300304-00&ServiceCd=730&Type=search" }, "geometry": { "type": "Point", "coordinates": [ 138.8830658, 37.6891569 ] } },
{ "type": "Feature", "properties": { "内容": "小規模多機能ホーム　つどいの家【小規模多機能型居宅介護】新潟県燕市分水桜町3丁目3番16号地域生活支援施設つどい", "url2": "https://www.kaigokensaku.mhlw.go.jp/15/index.php?action_kouhyou_detail_004_kani=true&JigyosyoCd=1591300171-00&ServiceCd=730&Type=search" }, "geometry": { "type": "Point", "coordinates": [ 138.839527399999952, 37.6261461 ] } },
{ "type": "Feature", "properties": { "内容": "小規模多機能センター長善のさと【小規模多機能型居宅介護】新潟県燕市粟生津55番地", "url2": "https://www.kaigokensaku.mhlw.go.jp/15/index.php?action_kouhyou_detail_004_kani=true&JigyosyoCd=1591300197-00&ServiceCd=730&Type=search" }, "geometry": { "type": "Point", "coordinates": [ 138.870198599999981, 37.6522573 ] } },
{ "type": "Feature", "properties": { "内容": "小規模多機能型居宅介護事業所ほのぼの宮内【小規模多機能型居宅介護】妙高市大字宮内９２－３", "url2": "https://www.kaigokensaku.mhlw.go.jp/15/index.php?action_kouhyou_detail_004_kani=true&JigyosyoCd=1591600109-00&ServiceCd=730&Type=search" }, "geometry": { "type": "Point", "coordinates": [ 138.236067199999979, 37.0573786 ] } },
{ "type": "Feature", "properties": { "内容": "ＪＡえちご上越ふれあいの里・矢代【小規模多機能型居宅介護】新潟県妙高市大字志５３５番地５", "url2": "https://www.kaigokensaku.mhlw.go.jp/15/index.php?action_kouhyou_detail_004_kani=true&JigyosyoCd=1591600075-00&ServiceCd=730&Type=search" }, "geometry": { "type": "Point", "coordinates": [ 138.214257800000041, 37.0070806 ] } },
{ "type": "Feature", "properties": { "内容": "ファミリア　いしづか【小規模多機能型居宅介護】新潟県妙高市石塚町2丁目1094番地スローライフいしづか", "url2": "https://www.kaigokensaku.mhlw.go.jp/15/index.php?action_kouhyou_detail_004_kani=true&JigyosyoCd=1591600083-00&ServiceCd=730&Type=search" }, "geometry": { "type": "Point", "coordinates": [ 138.254958399999964, 37.0378921 ] } },
{ "type": "Feature", "properties": { "内容": "小規模多機能型居宅介護　妙高の杜【小規模多機能型居宅介護】妙高市関川２３５１番地", "url2": "https://www.kaigokensaku.mhlw.go.jp/15/index.php?action_kouhyou_detail_004_kani=true&JigyosyoCd=1591600042-00&ServiceCd=730&Type=search" }, "geometry": { "type": "Point", "coordinates": [ 138.180156300000021, 36.8703407 ] } },
{ "type": "Feature", "properties": { "内容": "きずな【小規模多機能型居宅介護】新潟県五泉市村松363", "url2": "https://www.kaigokensaku.mhlw.go.jp/15/index.php?action_kouhyou_detail_004_kani=true&JigyosyoCd=1591700024-00&ServiceCd=730&Type=search" }, "geometry": { "type": "Point", "coordinates": [ 139.167141922255013, 37.689529629349842 ] } },
{ "type": "Feature", "properties": { "内容": "小規模多機能型居宅介護アイカ【小規模多機能型居宅介護】新潟県五泉市南本町2丁目3番2号", "url2": "https://www.kaigokensaku.mhlw.go.jp/15/index.php?action_kouhyou_detail_004_kani=true&JigyosyoCd=1591700016-00&ServiceCd=730&Type=search" }, "geometry": { "type": "Point", "coordinates": [ 139.175682400000028, 37.7321511 ] } },
{ "type": "Feature", "properties": { "内容": "小規模多機能型居宅介護とういし菜の花【小規模多機能型居宅介護】新潟県五泉市東石曾根５６５１番地", "url2": "https://www.kaigokensaku.mhlw.go.jp/15/index.php?action_kouhyou_detail_004_kani=true&JigyosyoCd=1591700099-00&ServiceCd=730&Type=search" }, "geometry": { "type": "Point", "coordinates": [ 139.190868799999947, 37.7040157 ] } },
{ "type": "Feature", "properties": { "内容": "小規模多機能輝亀菜の花【小規模多機能型居宅介護】新潟県五泉市東石曽根字若宮５６５７－１", "url2": "https://www.kaigokensaku.mhlw.go.jp/15/index.php?action_kouhyou_detail_004_kani=true&JigyosyoCd=1591700180-00&ServiceCd=730&Type=search" }, "geometry": { "type": "Point", "coordinates": [ 139.1910633, 37.7039435 ] } },
{ "type": "Feature", "properties": { "内容": "小規模多機能型居宅介護菜の花【小規模多機能型居宅介護】新潟県五泉市猿和田534番地１", "url2": "https://www.kaigokensaku.mhlw.go.jp/15/index.php?action_kouhyou_detail_004_kani=true&JigyosyoCd=1591700057-00&ServiceCd=730&Type=search" }, "geometry": { "type": "Point", "coordinates": [ 139.227311099999952, 37.7306497 ] } },
{ "type": "Feature", "properties": { "内容": "みどり多機能ホーム【小規模多機能型居宅介護】新潟県五泉市村松甲5592番地1", "url2": "https://www.kaigokensaku.mhlw.go.jp/15/index.php?action_kouhyou_detail_004_kani=true&JigyosyoCd=1591700156-00&ServiceCd=730&Type=search" }, "geometry": { "type": "Point", "coordinates": [ 139.18113094967012, 37.686880129441278 ] } },
{ "type": "Feature", "properties": { "内容": "小規模多機能型居宅介護施設　幸老吉清水【小規模多機能型居宅介護】新潟県五泉市中川新5541-1", "url2": "https://www.kaigokensaku.mhlw.go.jp/15/index.php?action_kouhyou_detail_004_kani=true&JigyosyoCd=1591700230-00&ServiceCd=730&Type=search" }, "geometry": { "type": "Point", "coordinates": [ 139.232331133590691, 37.711455983010623 ] } },
{ "type": "Feature", "properties": { "内容": "ケアサポート虹【小規模多機能型居宅介護】五泉市船越130番地2", "url2": "https://www.kaigokensaku.mhlw.go.jp/15/index.php?action_kouhyou_detail_004_kani=true&JigyosyoCd=1591700081-00&ServiceCd=730&Type=search" }, "geometry": { "type": "Point", "coordinates": [ 139.170348526983616, 37.759923474311265 ] } },
{ "type": "Feature", "properties": { "内容": "多機能ホーム　ぶらんこ北五泉【小規模多機能型居宅介護】新潟県五泉市北五泉駅前2番13号", "url2": "https://www.kaigokensaku.mhlw.go.jp/15/index.php?action_kouhyou_detail_004_kani=true&JigyosyoCd=1591700172-00&ServiceCd=730&Type=search" }, "geometry": { "type": "Point", "coordinates": [ 139.171064788360582, 37.747310387932401 ] } },
{ "type": "Feature", "properties": { "内容": "ケアホームあいびす【小規模多機能型居宅介護】新潟県上越市とよば１０７番地イル・クオーレとよば２階", "url2": "https://www.kaigokensaku.mhlw.go.jp/15/index.php?action_kouhyou_detail_004_kani=true&JigyosyoCd=1590300255-00&ServiceCd=730&Type=search" }, "geometry": { "type": "Point", "coordinates": [ 138.27252117790988, 37.104456273432383 ] } },
{ "type": "Feature", "properties": { "内容": "小規模多機能型居宅介護　えどひがんの里【小規模多機能型居宅介護】上越市三和区井ノ口1718-4", "url2": "https://www.kaigokensaku.mhlw.go.jp/15/index.php?action_kouhyou_detail_004_kani=true&JigyosyoCd=1590300446-00&ServiceCd=730&Type=search" }, "geometry": { "type": "Point", "coordinates": [ 138.350515500000029, 37.1273508 ] } },
{ "type": "Feature", "properties": { "内容": "ＪＡえちご上越　ふれあいの里・高士【小規模多機能型居宅介護】新潟県上越市大字飯田１３２０番地３", "url2": "https://www.kaigokensaku.mhlw.go.jp/15/index.php?action_kouhyou_detail_004_kani=true&JigyosyoCd=1590300107-00&ServiceCd=730&Type=search" }, "geometry": { "type": "Point", "coordinates": [ 138.333224703041026, 37.094083343883831 ] } },
{ "type": "Feature", "properties": { "内容": "ＪＡえちご上越　ふれあいの里・五公【小規模多機能型居宅介護】新潟県上越市三和区鴨井７０９番１", "url2": "https://www.kaigokensaku.mhlw.go.jp/15/index.php?action_kouhyou_detail_004_kani=true&JigyosyoCd=1590300123-00&ServiceCd=730&Type=search" }, "geometry": { "type": "Point", "coordinates": [ 138.339461799999981, 37.1090249 ] } },
{ "type": "Feature", "properties": { "内容": "小規模多機能型居宅介護　うつぎの里【小規模多機能型居宅介護】新潟県上越市大潟区土底浜978番地1", "url2": "https://www.kaigokensaku.mhlw.go.jp/15/index.php?action_kouhyou_detail_004_kani=true&JigyosyoCd=1590300412-00&ServiceCd=730&Type=search" }, "geometry": { "type": "Point", "coordinates": [ 138.338829900000064, 37.2299882 ] } },
{ "type": "Feature", "properties": { "内容": "小規模多機能型居宅介護施設光寿の家【小規模多機能型居宅介護】新潟県上越市米岡４３４番１", "url2": "https://www.kaigokensaku.mhlw.go.jp/15/index.php?action_kouhyou_detail_004_kani=true&JigyosyoCd=1590300479-00&ServiceCd=730&Type=search" }, "geometry": { "type": "Point", "coordinates": [ 138.318591400000059, 37.1322298 ] } },
{ "type": "Feature", "properties": { "内容": "小規模多機能型居宅介護　本町楽寿の家【小規模多機能型居宅介護】新潟県上越市本町2丁目6-17", "url2": "https://www.kaigokensaku.mhlw.go.jp/15/index.php?action_kouhyou_detail_004_kani=true&JigyosyoCd=1590300495-00&ServiceCd=730&Type=search" }, "geometry": { "type": "Point", "coordinates": [ 138.243934099999933, 37.1047621 ] } },
{ "type": "Feature", "properties": { "内容": "あったかほーむ柿崎【小規模多機能型居宅介護】新潟県上越市柿崎区柿崎１１８８番地１", "url2": "https://www.kaigokensaku.mhlw.go.jp/15/index.php?action_kouhyou_detail_004_kani=true&JigyosyoCd=1590300503-00&ServiceCd=730&Type=search" }, "geometry": { "type": "Point", "coordinates": [ 138.397152549427801, 37.268417086806274 ] } },
{ "type": "Feature", "properties": { "内容": "居多の里【小規模多機能型居宅介護】上越市五智２丁目１番３号", "url2": "https://www.kaigokensaku.mhlw.go.jp/15/index.php?action_kouhyou_detail_004_kani=true&JigyosyoCd=1590300248-00&ServiceCd=730&Type=search" }, "geometry": { "type": "Point", "coordinates": [ 138.234132, 37.1717504 ] } },
{ "type": "Feature", "properties": { "内容": "小規模多機能型居宅介護事業所　ほのぼの中郷【小規模多機能型居宅介護】新潟県上越市中郷区藤沢998番地1", "url2": "https://www.kaigokensaku.mhlw.go.jp/15/index.php?action_kouhyou_detail_004_kani=true&JigyosyoCd=1590300297-00&ServiceCd=730&Type=search" }, "geometry": { "type": "Point", "coordinates": [ 138.223730199999977, 36.9809174 ] } },
{ "type": "Feature", "properties": { "内容": "小規模多機能型居宅介護八千浦ひよりの里【小規模多機能型居宅介護】上越市大字西ヶ窪浜156番地１", "url2": "https://www.kaigokensaku.mhlw.go.jp/15/index.php?action_kouhyou_detail_004_kani=true&JigyosyoCd=1590300313-00&ServiceCd=730&Type=search" }, "geometry": { "type": "Point", "coordinates": [ 138.294316799999933, 37.2054287 ] } },
{ "type": "Feature", "properties": { "内容": "小規模多機能あったかほーむ春日【小規模多機能型居宅介護】新潟県上越市木田2丁目１６－５０複合施設ケアライフ春日", "url2": "https://www.kaigokensaku.mhlw.go.jp/15/index.php?action_kouhyou_detail_004_kani=true&JigyosyoCd=1590300370-00&ServiceCd=730&Type=search" }, "geometry": { "type": "Point", "coordinates": [ 138.243490599999973, 37.14474 ] } },
{ "type": "Feature", "properties": { "内容": "ケアホーム笛吹の里【小規模多機能型居宅介護】新潟県上越市大字薮野１３８番地", "url2": "https://www.kaigokensaku.mhlw.go.jp/15/index.php?action_kouhyou_detail_004_kani=true&JigyosyoCd=1590300172-00&ServiceCd=730&Type=search" }, "geometry": { "type": "Point", "coordinates": [ 138.294687900000014, 37.0938116 ] } },
{ "type": "Feature", "properties": { "内容": "小規模多機能だんらん【小規模多機能型居宅介護】新潟県上越市頸城区北方125-9", "url2": "https://www.kaigokensaku.mhlw.go.jp/15/index.php?action_kouhyou_detail_004_kani=true&JigyosyoCd=1590300289-00&ServiceCd=730&Type=search" }, "geometry": { "type": "Point", "coordinates": [ 138.324274100000025, 37.1900786 ] } },
{ "type": "Feature", "properties": { "内容": "小規模多機能型居宅介護　春日あたごの里【小規模多機能型居宅介護】新潟県上越市春日山町3-3-25", "url2": "https://www.kaigokensaku.mhlw.go.jp/15/index.php?action_kouhyou_detail_004_kani=true&JigyosyoCd=1590300669-00&ServiceCd=730&Type=search" }, "geometry": { "type": "Point", "coordinates": [ 138.234228396816178, 37.145599761467217 ] } },
{ "type": "Feature", "properties": { "内容": "ＪＡえちご上越　ふれあいの里・名立【小規模多機能型居宅介護】新潟県上越市名立区森１３８番地", "url2": "https://www.kaigokensaku.mhlw.go.jp/15/index.php?action_kouhyou_detail_004_kani=true&JigyosyoCd=1590300149-00&ServiceCd=730&Type=search" }, "geometry": { "type": "Point", "coordinates": [ 138.105352900000071, 37.1113952 ] } },
{ "type": "Feature", "properties": { "内容": "小規模多機能居宅介護　上吉野白鳥の里【小規模多機能型居宅介護】新潟県上越市上吉野1912番地2", "url2": "https://www.kaigokensaku.mhlw.go.jp/15/index.php?action_kouhyou_detail_004_kani=true&JigyosyoCd=1590300099-00&ServiceCd=730&Type=search" }, "geometry": { "type": "Point", "coordinates": [ 138.3315907, 37.1706978 ] } },
{ "type": "Feature", "properties": { "内容": "こぶしの丘【小規模多機能型居宅介護】新潟県上越市国府１丁目１５番７号", "url2": "https://www.kaigokensaku.mhlw.go.jp/15/index.php?action_kouhyou_detail_004_kani=true&JigyosyoCd=1590300453-00&ServiceCd=730&Type=search" }, "geometry": { "type": "Point", "coordinates": [ 138.222872300000063, 37.1646092 ] } },
{ "type": "Feature", "properties": { "内容": "樹楽　上増田【小規模多機能型居宅介護】新潟県上越市頸城区上増田122-1樹楽上増田", "url2": "https://www.kaigokensaku.mhlw.go.jp/15/index.php?action_kouhyou_detail_004_kani=true&JigyosyoCd=1590300388-00&ServiceCd=730&Type=search" }, "geometry": { "type": "Point", "coordinates": [ 138.360608728836041, 37.192448413690045 ] } },
{ "type": "Feature", "properties": { "内容": "小規模多機能型居宅介護　城北あたごの里【小規模多機能型居宅介護】新潟県上越市大字土橋1089-1", "url2": "https://www.kaigokensaku.mhlw.go.jp/15/index.php?action_kouhyou_detail_004_kani=true&JigyosyoCd=1590300602-00&ServiceCd=730&Type=search" }, "geometry": { "type": "Point", "coordinates": [ 138.250467915266427, 37.127598000847605 ] } },
{ "type": "Feature", "properties": { "内容": "はあとふるあたご小規模多機能ホーム水原【小規模多機能型居宅介護】阿賀野市外城町21番2号", "url2": "https://www.kaigokensaku.mhlw.go.jp/15/index.php?action_kouhyou_detail_004_kani=true&JigyosyoCd=1592100075-00&ServiceCd=730&Type=search" }, "geometry": { "type": "Point", "coordinates": [ 139.231015899999989, 37.8373423 ] } },
{ "type": "Feature", "properties": { "内容": "ささえ愛あいの山【小規模多機能型居宅介護】新潟県佐渡市大和1213番地", "url2": "https://www.kaigokensaku.mhlw.go.jp/15/index.php?action_kouhyou_detail_004_kani=true&JigyosyoCd=1592200065-00&ServiceCd=730&Type=search" }, "geometry": { "type": "Point", "coordinates": [ 138.389063662565604, 38.035878550300787 ] } },
{ "type": "Feature", "properties": { "内容": "小規模多機能型居宅介護サテライト事業所ささえ愛はよし【小規模多機能型居宅介護】新潟県佐渡市羽吉１１９８番地", "url2": "https://www.kaigokensaku.mhlw.go.jp/15/index.php?action_kouhyou_detail_004_kani=true&JigyosyoCd=1592200115-00&ServiceCd=730&Type=search" }, "geometry": { "type": "Point", "coordinates": [ 138.436221, 38.120695100000013 ] } },
{ "type": "Feature", "properties": { "内容": "小多機うしろやま【小規模多機能型居宅介護】新潟県佐渡市宮川1062番地ケアセンターうしろやま", "url2": "https://www.kaigokensaku.mhlw.go.jp/15/index.php?action_kouhyou_detail_004_kani=true&JigyosyoCd=1592200156-00&ServiceCd=730&Type=search" }, "geometry": { "type": "Point", "coordinates": [ 138.379877035581984, 37.982227867183745 ] } },
{ "type": "Feature", "properties": { "内容": "小規模多機能すまいる【小規模多機能型居宅介護】新潟県魚沼市中原３５４", "url2": "https://www.kaigokensaku.mhlw.go.jp/15/index.php?action_kouhyou_detail_004_kani=true&JigyosyoCd=1592300055-00&ServiceCd=730&Type=search" }, "geometry": { "type": "Point", "coordinates": [ 138.972216200000048, 37.2202768 ] } },
{ "type": "Feature", "properties": { "内容": "すまいる山田【小規模多機能型居宅介護】新潟県魚沼市山田293-1すまいる山田", "url2": "https://www.kaigokensaku.mhlw.go.jp/15/index.php?action_kouhyou_detail_004_kani=true&JigyosyoCd=1592300089-00&ServiceCd=730&Type=search" }, "geometry": { "type": "Point", "coordinates": [ 138.997621900000013, 37.2511484 ] } },
{ "type": "Feature", "properties": { "内容": "小規模多機能ホーム島【小規模多機能型居宅介護】魚沼市今泉1394-5", "url2": "https://www.kaigokensaku.mhlw.go.jp/15/index.php?action_kouhyou_detail_004_kani=true&JigyosyoCd=1592300113-00&ServiceCd=730&Type=search" }, "geometry": { "type": "Point", "coordinates": [ 138.971569995106506, 37.255868676592335 ] } },
{ "type": "Feature", "properties": { "内容": "すまいる並柳【小規模多機能型居宅介護】新潟県魚沼市並柳12番地2", "url2": "https://www.kaigokensaku.mhlw.go.jp/15/index.php?action_kouhyou_detail_004_kani=true&JigyosyoCd=1592300154-00&ServiceCd=730&Type=search" }, "geometry": { "type": "Point", "coordinates": [ 138.973891887913481, 37.260563893129593 ] } },
{ "type": "Feature", "properties": { "内容": "小規模多機能介護センター　大空の家【小規模多機能型居宅介護】南魚沼市目来田86-5小規模多機能介護センター大空の家", "url2": "https://www.kaigokensaku.mhlw.go.jp/15/index.php?action_kouhyou_detail_004_kani=true&JigyosyoCd=1592400053-00&ServiceCd=730&Type=search" }, "geometry": { "type": "Point", "coordinates": [ 138.845308474204984, 37.032659870203851 ] } },
{ "type": "Feature", "properties": { "内容": "小規模多機能介護センターつくしの家【小規模多機能型居宅介護】新潟県南魚沼市早川２０１番地1", "url2": "https://www.kaigokensaku.mhlw.go.jp/15/index.php?action_kouhyou_detail_004_kani=true&JigyosyoCd=1592400129-00&ServiceCd=730&Type=search" }, "geometry": { "type": "Point", "coordinates": [ 138.873319400000014, 37.02634290000001 ] } },
{ "type": "Feature", "properties": { "内容": "しょうたき萌気　たもんの郷【小規模多機能型居宅介護】新潟県南魚沼市浦佐211-1", "url2": "https://www.kaigokensaku.mhlw.go.jp/15/index.php?action_kouhyou_detail_004_kani=true&JigyosyoCd=1592400228-00&ServiceCd=730&Type=search" }, "geometry": { "type": "Point", "coordinates": [ 138.918017581719454, 37.164774970903729 ] } },
{ "type": "Feature", "properties": { "内容": "ケアセンター薮神【小規模多機能型居宅介護】新潟県南魚沼市一村尾1837番地", "url2": "https://www.kaigokensaku.mhlw.go.jp/15/index.php?action_kouhyou_detail_004_kani=true&JigyosyoCd=1592400160-00&ServiceCd=730&Type=search" }, "geometry": { "type": "Point", "coordinates": [ 138.9111162, 37.1519748 ] } },
{ "type": "Feature", "properties": { "内容": "しょうたき萌気コム・ソフィ【小規模多機能型居宅介護】新潟県南魚沼市二日町212-1", "url2": "https://www.kaigokensaku.mhlw.go.jp/15/index.php?action_kouhyou_detail_004_kani=true&JigyosyoCd=1592400251-00&ServiceCd=730&Type=search" }, "geometry": { "type": "Point", "coordinates": [ 138.8987218, 37.083855200000031 ] } },
{ "type": "Feature", "properties": { "内容": "萌気園小規模多機能ホームさくりの郷【小規模多機能型居宅介護】新潟県南魚沼市宮770", "url2": "https://www.kaigokensaku.mhlw.go.jp/15/index.php?action_kouhyou_detail_004_kani=true&JigyosyoCd=1592400202-00&ServiceCd=730&Type=search" }, "geometry": { "type": "Point", "coordinates": [ 138.930931806175749, 37.062074786502485 ] } },
{ "type": "Feature", "properties": { "内容": "ケアステーション　どっこん【小規模多機能型居宅介護】新潟県胎内市十二天９１番地１", "url2": "https://www.kaigokensaku.mhlw.go.jp/15/index.php?action_kouhyou_detail_004_kani=true&JigyosyoCd=1592500050-00&ServiceCd=730&Type=search" }, "geometry": { "type": "Point", "coordinates": [ 139.408751, 38.0920596 ] } },
{ "type": "Feature", "properties": { "内容": "デイホームちゅーりっぷ苑・さくら【小規模多機能型居宅介護】新潟県胎内市協和町837-1", "url2": "https://www.kaigokensaku.mhlw.go.jp/15/index.php?action_kouhyou_detail_004_kani=true&JigyosyoCd=1592500175-00&ServiceCd=730&Type=search" }, "geometry": { "type": "Point", "coordinates": [ 139.402892799999989, 38.0627719 ] } },
{ "type": "Feature", "properties": { "内容": "小規模多機能ホームやひこの家【小規模多機能型居宅介護】新潟県西蒲原郡弥彦村大字麓3034小規模多機能ホームやひこの家", "url2": "https://www.kaigokensaku.mhlw.go.jp/15/index.php?action_kouhyou_detail_004_kani=true&JigyosyoCd=1595200047-00&ServiceCd=730&Type=search" }, "geometry": { "type": "Point", "coordinates": [ 138.825686643408176, 37.680165172776114 ] } },
{ "type": "Feature", "properties": { "内容": "小規模多機能ホーム　うめこの郷【小規模多機能型居宅介護】新潟県南蒲原郡田上町大字羽生田48番地", "url2": "https://www.kaigokensaku.mhlw.go.jp/15/index.php?action_kouhyou_detail_004_kani=true&JigyosyoCd=1595300029-00&ServiceCd=730&Type=search" }, "geometry": { "type": "Point", "coordinates": [ 139.062822996648038, 37.690261954544603 ] } },
{ "type": "Feature", "properties": { "内容": "小規模多機能型居宅介護事業所　あっとほーむ　すみれ【小規模多機能型居宅介護】新潟県東蒲原郡阿賀町津川６５０-１あっとほーむすみれ", "url2": "https://www.kaigokensaku.mhlw.go.jp/15/index.php?action_kouhyou_detail_004_kani=true&JigyosyoCd=1595400043-00&ServiceCd=730&Type=search" }, "geometry": { "type": "Point", "coordinates": [ 139.460971314086123, 37.672930510988792 ] } },
{ "type": "Feature", "properties": { "内容": "サテライト型小規模多機能型居宅介護事業所　あっとほーむたまち【小規模多機能型居宅介護】東蒲原郡阿賀町津川3721-1", "url2": "https://www.kaigokensaku.mhlw.go.jp/15/index.php?action_kouhyou_detail_004_kani=true&JigyosyoCd=1595400118-00&ServiceCd=730&Type=search" }, "geometry": { "type": "Point", "coordinates": [ 139.457852399999979, 37.6791538 ] } },
{ "type": "Feature", "properties": { "内容": "小規模多機能型居宅介護　ハーティプラザみかわ【小規模多機能型居宅介護】新潟県東蒲原郡阿賀町吉津３７２９番地２", "url2": "https://www.kaigokensaku.mhlw.go.jp/15/index.php?action_kouhyou_detail_004_kani=true&JigyosyoCd=1595400050-00&ServiceCd=730&Type=search" }, "geometry": { "type": "Point", "coordinates": [ 139.376216073989298, 37.718708533013562 ] } },
{ "type": "Feature", "properties": { "内容": "小規模多機能型居宅介護事業所どんぐり【小規模多機能型居宅介護】新潟県東蒲原郡阿賀町九島5525番地", "url2": "https://www.kaigokensaku.mhlw.go.jp/15/index.php?action_kouhyou_detail_004_kani=true&JigyosyoCd=1595400100-00&ServiceCd=730&Type=search" }, "geometry": { "type": "Point", "coordinates": [ 139.469635599999947, 37.6432339 ] } },
{ "type": "Feature", "properties": { "内容": "小規模多機能型居宅介護事業所　てつぞうの家【小規模多機能型居宅介護】新潟県三島郡出雲崎町大字上中条15-2", "url2": "https://www.kaigokensaku.mhlw.go.jp/15/index.php?action_kouhyou_detail_004_kani=true&JigyosyoCd=1595500016-00&ServiceCd=730&Type=search" }, "geometry": { "type": "Point", "coordinates": [ 138.714492018385272, 37.546371290663288 ] } },
{ "type": "Feature", "properties": { "内容": "小規模多機能型居宅介護　健康倶楽部ゆざわ【小規模多機能型居宅介護】新潟県南魚沼郡湯沢町土樽１５１番地１１６", "url2": "https://www.kaigokensaku.mhlw.go.jp/15/index.php?action_kouhyou_detail_004_kani=true&JigyosyoCd=1595800028-00&ServiceCd=730&Type=search" }, "geometry": { "type": "Point", "coordinates": [ 138.837605100000019, 36.9273483 ] } },
{ "type": "Feature", "properties": { "内容": "スマイルホームこたね【小規模多機能型居宅介護】新潟県中魚沼郡津南町大字上郷子種新田287-1", "url2": "https://www.kaigokensaku.mhlw.go.jp/15/index.php?action_kouhyou_detail_004_kani=true&JigyosyoCd=1595900059-00&ServiceCd=730&Type=search" }, "geometry": { "type": "Point", "coordinates": [ 138.596978199999967, 36.9959831 ] } },
{ "type": "Feature", "properties": { "内容": "ケアホーム恵福園なかつ【小規模多機能型居宅介護】新潟県中魚沼郡津南町大字中深見甲5540番地", "url2": "https://www.kaigokensaku.mhlw.go.jp/15/index.php?action_kouhyou_detail_004_kani=true&JigyosyoCd=1595900042-00&ServiceCd=730&Type=search" }, "geometry": { "type": "Point", "coordinates": [ 138.6701018, 36.9910936 ] } },
{ "type": "Feature", "properties": { "内容": "恵福園ほくぶ【小規模多機能型居宅介護】新潟県中魚沼郡津南町大字下船渡甲8119番地", "url2": "https://www.kaigokensaku.mhlw.go.jp/15/index.php?action_kouhyou_detail_004_kani=true&JigyosyoCd=1595900075-00&ServiceCd=730&Type=search" }, "geometry": { "type": "Point", "coordinates": [ 138.670414371491347, 37.030046441021859 ] } },
{ "type": "Feature", "properties": { "内容": "小規模多機能型居宅介護事業所　ももの木【小規模多機能型居宅介護】新潟県刈羽郡刈羽村大字刈羽3570-1", "url2": "https://www.kaigokensaku.mhlw.go.jp/15/index.php?action_kouhyou_detail_004_kani=true&JigyosyoCd=1596000016-00&ServiceCd=730&Type=search" }, "geometry": { "type": "Point", "coordinates": [ 138.61432590000004, 37.4211058 ] } },
{ "type": "Feature", "properties": { "内容": "小規模多機能型居宅介護事業所　ももの木あかだ【小規模多機能型居宅介護】新潟県刈羽郡刈羽村赤田北方2850番地1刈羽村自立支援福祉施設あかり", "url2": "https://www.kaigokensaku.mhlw.go.jp/15/index.php?action_kouhyou_detail_004_kani=true&JigyosyoCd=1596000032-00&ServiceCd=730&Type=search" }, "geometry": { "type": "Point", "coordinates": [ 138.647835864418028, 37.417989447708415 ] } },
{ "type": "Feature", "properties": { "内容": "ハーティプラザ関川【小規模多機能型居宅介護】新潟県岩船郡関川村下関１２５－１２", "url2": "https://www.kaigokensaku.mhlw.go.jp/15/index.php?action_kouhyou_detail_004_kani=true&JigyosyoCd=1596400026-00&ServiceCd=730&Type=search" }, "geometry": { "type": "Point", "coordinates": [ 139.550881993254052, 38.092609719442414 ] } }
]
}
