{
"type": "FeatureCollection",
"name": "geo_15_専修学校",
"crs": { "type": "name", "properties": { "name": "urn:ogc:def:crs:EPSG::6668" } },
"features": [
{ "type": "Feature", "properties": { "P29_001": "15108", "P29_002": "H115210000019", "P29_003": "16016", "P29_004": "新潟県農業大学校", "P29_005": "新潟県新潟市西蒲区巻甲12021", "P29_006": "2", "P29_007": "0", "P29_008": "00", "P29_009": null }, "geometry": { "type": "Point", "coordinates": [ 138.91555707950198, 37.767695844835096 ] } },
{ "type": "Feature", "properties": { "P29_001": "15206", "P29_002": "H115220600012", "P29_003": "16016", "P29_004": "新潟県立新発田病院附属看護専門学校", "P29_005": "新潟県新発田市本町1-2-8", "P29_006": "2", "P29_007": "0", "P29_008": "00", "P29_009": null }, "geometry": { "type": "Point", "coordinates": [ 139.33363272281062, 37.94626003043399 ] } },
{ "type": "Feature", "properties": { "P29_001": "15210", "P29_002": "H115221000016", "P29_003": "16016", "P29_004": "新潟県立十日町看護専門学校", "P29_005": "新潟県十日町市高田町3-南442", "P29_006": "2", "P29_007": "0", "P29_008": "00", "P29_009": null }, "geometry": { "type": "Point", "coordinates": [ 138.752094441278928, 37.1316444344601 ] } },
{ "type": "Feature", "properties": { "P29_001": "15213", "P29_002": "H115221300013", "P29_003": "16016", "P29_004": "新潟県立吉田病院附属看護専門学校", "P29_005": "新潟県燕市吉田大保町32-60", "P29_006": "2", "P29_007": "0", "P29_008": "00", "P29_009": null }, "geometry": { "type": "Point", "coordinates": [ 138.884886252806695, 37.686480312204715 ] } },
{ "type": "Feature", "properties": { "P29_001": "15102", "P29_002": "H115310000017", "P29_003": "16016", "P29_004": "ひまわり幼児教育専門学院", "P29_005": "新潟県新潟市東区浜谷町2-甲468-1", "P29_006": "4", "P29_007": "0", "P29_008": "00", "P29_009": null }, "geometry": { "type": "Point", "coordinates": [ 139.09843205505129, 37.946961095179667 ] } },
{ "type": "Feature", "properties": { "P29_001": "15103", "P29_002": "H115310000026", "P29_003": "16016", "P29_004": "新潟文化服装専門学校", "P29_005": "新潟県新潟市中央区中央区旭町通1-85", "P29_006": "4", "P29_007": "0", "P29_008": "00", "P29_009": null }, "geometry": { "type": "Point", "coordinates": [ 139.037829927069964, 37.919082041737916 ] } },
{ "type": "Feature", "properties": { "P29_001": "15103", "P29_002": "H115310000035", "P29_003": "16016", "P29_004": "国際トータルファッション専門学校", "P29_005": "新潟県新潟市中央区古町通7-935ＮＳＧスクエア内", "P29_006": "4", "P29_007": "0", "P29_008": "00", "P29_009": null }, "geometry": { "type": "Point", "coordinates": [ 139.044765542074913, 37.923223279931413 ] } },
{ "type": "Feature", "properties": { "P29_001": "15103", "P29_002": "H115310000044", "P29_003": "16016", "P29_004": "新潟調理師専門学校", "P29_005": "新潟県新潟市中央区東幸町8-8", "P29_006": "4", "P29_007": "0", "P29_008": "00", "P29_009": null }, "geometry": { "type": "Point", "coordinates": [ 139.049527004026601, 37.906993020713131 ] } },
{ "type": "Feature", "properties": { "P29_001": "15103", "P29_002": "H115310000053", "P29_003": "16016", "P29_004": "新潟理容美容専門学校", "P29_005": "新潟県新潟市中央区川岸町2-14-3", "P29_006": "4", "P29_007": "0", "P29_008": "00", "P29_009": null }, "geometry": { "type": "Point", "coordinates": [ 139.029469387490735, 37.909831670095691 ] } },
{ "type": "Feature", "properties": { "P29_001": "15103", "P29_002": "H115310000062", "P29_003": "16016", "P29_004": "新潟デザイン専門学校", "P29_005": "新潟県新潟市中央区長潟2-1-4", "P29_006": "4", "P29_007": "0", "P29_008": "00", "P29_009": null }, "geometry": { "type": "Point", "coordinates": [ 139.069091780193901, 37.892003038306463 ] } },
{ "type": "Feature", "properties": { "P29_001": "15103", "P29_002": "H115310000071", "P29_003": "16016", "P29_004": "新潟情報専門学校", "P29_005": "新潟県新潟市中央区弁天2-3-13", "P29_006": "4", "P29_007": "0", "P29_008": "00", "P29_009": null }, "geometry": { "type": "Point", "coordinates": [ 139.057562999053658, 37.915348002716996 ] } },
{ "type": "Feature", "properties": { "P29_001": "15103", "P29_002": "H115310000080", "P29_003": "16016", "P29_004": "新潟ビジネス専門学校", "P29_005": "新潟県新潟市中央区万代1-2-22", "P29_006": "4", "P29_007": "0", "P29_008": "00", "P29_009": null }, "geometry": { "type": "Point", "coordinates": [ 139.056838051191733, 37.915686004560108 ] } },
{ "type": "Feature", "properties": { "P29_001": "15103", "P29_002": "H115310000099", "P29_003": "16016", "P29_004": "新潟英語専門学校", "P29_005": "新潟県新潟市中央区本町通5番町225", "P29_006": "4", "P29_007": "0", "P29_008": "00", "P29_009": null }, "geometry": { "type": "Point", "coordinates": [ 139.043441933978642, 37.91983898317644 ] } },
{ "type": "Feature", "properties": { "P29_001": "15103", "P29_002": "H115310000106", "P29_003": "16016", "P29_004": "日本自然環境専門学校", "P29_005": "新潟県新潟市中央区花園1-3-22", "P29_006": "4", "P29_007": "0", "P29_008": "00", "P29_009": null }, "geometry": { "type": "Point", "coordinates": [ 139.062937673075396, 37.91366402883736 ] } },
{ "type": "Feature", "properties": { "P29_001": "15103", "P29_002": "H115310000115", "P29_003": "16016", "P29_004": "新潟コンピュ－タ－専門学校", "P29_005": "新潟県新潟市中央区古町7番町935　ＮＳＧスクエア　7Ｆ", "P29_006": "4", "P29_007": "0", "P29_008": "00", "P29_009": null }, "geometry": { "type": "Point", "coordinates": [ 139.044416155958544, 37.923176481438581 ] } },
{ "type": "Feature", "properties": { "P29_001": "15103", "P29_002": "H115310000124", "P29_003": "16016", "P29_004": "大原簿記公務員専門学校新潟校", "P29_005": "新潟県新潟市中央区花園1-3-3", "P29_006": "4", "P29_007": "0", "P29_008": "00", "P29_009": null }, "geometry": { "type": "Point", "coordinates": [ 139.062707635490597, 37.913685815094091 ] } },
{ "type": "Feature", "properties": { "P29_001": "15103", "P29_002": "H115310000133", "P29_003": "16016", "P29_004": "新潟こども医療専門学校", "P29_005": "新潟県新潟市中央区明石1-3-5", "P29_006": "4", "P29_007": "0", "P29_008": "00", "P29_009": null }, "geometry": { "type": "Point", "coordinates": [ 139.065879376579829, 37.915539273618407 ] } },
{ "type": "Feature", "properties": { "P29_001": "15103", "P29_002": "H115310000142", "P29_003": "16016", "P29_004": "国際外語・観光・エアライン専門学校", "P29_005": "新潟県新潟市中央区古町通7番町935-ＮＳＧスクエア内", "P29_006": "4", "P29_007": "0", "P29_008": "00", "P29_009": null }, "geometry": { "type": "Point", "coordinates": [ 139.044764861244147, 37.923141915747941 ] } },
{ "type": "Feature", "properties": { "P29_001": "15103", "P29_002": "H115310000151", "P29_003": "16016", "P29_004": "国際こども福祉カレッジ", "P29_005": "新潟県新潟市中央区古町通2番町547", "P29_006": "4", "P29_007": "0", "P29_008": "00", "P29_009": null }, "geometry": { "type": "Point", "coordinates": [ 139.041814349391871, 37.917059630543925 ] } },
{ "type": "Feature", "properties": { "P29_001": "15103", "P29_002": "H115310000160", "P29_003": "16016", "P29_004": "新潟工科専門学校", "P29_005": "新潟県新潟市中央区長潟2-1-4", "P29_006": "4", "P29_007": "0", "P29_008": "00", "P29_009": null }, "geometry": { "type": "Point", "coordinates": [ 139.069229738551741, 37.891758094079627 ] } },
{ "type": "Feature", "properties": { "P29_001": "15103", "P29_002": "H115310000179", "P29_003": "16016", "P29_004": "アップルスポーツカレッジ", "P29_005": "新潟県新潟市中央区長潟2-2-8", "P29_006": "4", "P29_007": "0", "P29_008": "00", "P29_009": null }, "geometry": { "type": "Point", "coordinates": [ 139.069681225737241, 37.890548206799778 ] } },
{ "type": "Feature", "properties": { "P29_001": "15103", "P29_002": "H115310000188", "P29_003": "16016", "P29_004": "国際音楽・ダンス・エンタテイメント専門学校", "P29_005": "新潟県新潟市中央区古町通7番町935", "P29_006": "4", "P29_007": "0", "P29_008": "00", "P29_009": null }, "geometry": { "type": "Point", "coordinates": [ 139.044760762767311, 37.923088174252612 ] } },
{ "type": "Feature", "properties": { "P29_001": "15103", "P29_002": "H115310000197", "P29_003": "16016", "P29_004": "新潟会計ビジネス専門学校", "P29_005": "新潟県新潟市中央区万代1-2-22", "P29_006": "4", "P29_007": "0", "P29_008": "00", "P29_009": null }, "geometry": { "type": "Point", "coordinates": [ 139.056740470889849, 37.915747463293378 ] } },
{ "type": "Feature", "properties": { "P29_001": "15103", "P29_002": "H115310000204", "P29_003": "16016", "P29_004": "にいがた製菓・調理専門学校えぷろん", "P29_005": "新潟県新潟市中央区上大川前通7番町1240-1", "P29_006": "4", "P29_007": "0", "P29_008": "00", "P29_009": null }, "geometry": { "type": "Point", "coordinates": [ 139.048863552933682, 37.922449245315129 ] } },
{ "type": "Feature", "properties": { "P29_001": "15103", "P29_002": "H115310000213", "P29_003": "16016", "P29_004": "新潟医療福祉カレッジ", "P29_005": "新潟県新潟市中央区笹口2-9-41", "P29_006": "4", "P29_007": "0", "P29_008": "00", "P29_009": null }, "geometry": { "type": "Point", "coordinates": [ 139.064705625933158, 37.910573511439331 ] } },
{ "type": "Feature", "properties": { "P29_001": "15103", "P29_002": "H115310000222", "P29_003": "16016", "P29_004": "新潟日建工科専門学校", "P29_005": "新潟県新潟市中央区笹口1-21-1", "P29_006": "4", "P29_007": "0", "P29_008": "00", "P29_009": null }, "geometry": { "type": "Point", "coordinates": [ 139.066211286012532, 37.911447576567859 ] } },
{ "type": "Feature", "properties": { "P29_001": "15103", "P29_002": "H115310000231", "P29_003": "16016", "P29_004": "新潟公務員法律専門学校", "P29_005": "新潟県新潟市中央区弁天2-4-21", "P29_006": "4", "P29_007": "0", "P29_008": "00", "P29_009": null }, "geometry": { "type": "Point", "coordinates": [ 139.058289021517254, 37.9160652485564 ] } },
{ "type": "Feature", "properties": { "P29_001": "15103", "P29_002": "H115310000240", "P29_003": "16016", "P29_004": "国際ペットワールド専門学校", "P29_005": "新潟県新潟市中央区笹口2-13-4", "P29_006": "4", "P29_007": "0", "P29_008": "00", "P29_009": null }, "geometry": { "type": "Point", "coordinates": [ 139.067718248630001, 37.911125622793151 ] } },
{ "type": "Feature", "properties": { "P29_001": "15103", "P29_002": "H115310000259", "P29_003": "16016", "P29_004": "日本アニメマンガ専門学校", "P29_005": "新潟県新潟市中央区古町通5番町602-1", "P29_006": "4", "P29_007": "0", "P29_008": "00", "P29_009": null }, "geometry": { "type": "Point", "coordinates": [ 139.044068447924133, 37.919467657481633 ] } },
{ "type": "Feature", "properties": { "P29_001": "15103", "P29_002": "H115310000268", "P29_003": "16016", "P29_004": "国際ビューティモード専門学校", "P29_005": "新潟県新潟市中央区花園1-1-12", "P29_006": "4", "P29_007": "0", "P29_008": "00", "P29_009": null }, "geometry": { "type": "Point", "coordinates": [ 139.058189949665234, 37.910775478903894 ] } },
{ "type": "Feature", "properties": { "P29_001": "15103", "P29_002": "H115310000277", "P29_003": "16016", "P29_004": "専修学校代々木ゼミナール新潟校", "P29_005": "新潟県新潟市中央区弁天1-4-18", "P29_006": "4", "P29_007": "0", "P29_008": "00", "P29_009": null }, "geometry": { "type": "Point", "coordinates": [ 139.058513653692103, 37.914002860379085 ] } },
{ "type": "Feature", "properties": { "P29_001": "15103", "P29_002": "H115310000286", "P29_003": "16016", "P29_004": "国際メディカル専門学校", "P29_005": "新潟県新潟市中央区紫竹山6-4-12", "P29_006": "4", "P29_007": "0", "P29_008": "00", "P29_009": null }, "geometry": { "type": "Point", "coordinates": [ 139.065569441971178, 37.897330607610897 ] } },
{ "type": "Feature", "properties": { "P29_001": "15103", "P29_002": "H115310000295", "P29_003": "16016", "P29_004": "大原情報医療専門学校新潟校", "P29_005": "新潟県新潟市中央区花園1-3-19", "P29_006": "4", "P29_007": "0", "P29_008": "00", "P29_009": null }, "geometry": { "type": "Point", "coordinates": [ 139.063320454910269, 37.913746436407223 ] } },
{ "type": "Feature", "properties": { "P29_001": "15103", "P29_002": "H115310000302", "P29_003": "16016", "P29_004": "国際ホテルブライダル専門学校", "P29_005": "新潟県新潟市中央区古町通7番町935", "P29_006": "4", "P29_007": "0", "P29_008": "00", "P29_009": null }, "geometry": { "type": "Point", "coordinates": [ 139.04438013816511, 37.923214497820084 ] } },
{ "type": "Feature", "properties": { "P29_001": "15103", "P29_002": "H115310000311", "P29_003": "16016", "P29_004": "専門学校新潟国際自動車大学校", "P29_005": "新潟県新潟市中央区紫竹山5-2-10", "P29_006": "4", "P29_007": "0", "P29_008": "00", "P29_009": null }, "geometry": { "type": "Point", "coordinates": [ 139.067832554311195, 37.898016020103057 ] } },
{ "type": "Feature", "properties": { "P29_001": "15103", "P29_002": "H115310000320", "P29_003": "16016", "P29_004": "国際調理製菓専門学校", "P29_005": "新潟県新潟市中央区古町通6-953-1", "P29_006": "4", "P29_007": "0", "P29_008": "00", "P29_009": null }, "geometry": { "type": "Point", "coordinates": [ 139.044469240141723, 37.92182469626411 ] } },
{ "type": "Feature", "properties": { "P29_001": "15103", "P29_002": "H115310000339", "P29_003": "16016", "P29_004": "シェフパティシエ専門学校", "P29_005": "新潟県新潟市中央区笹口2-9-1", "P29_006": "4", "P29_007": "0", "P29_008": "00", "P29_009": null }, "geometry": { "type": "Point", "coordinates": [ 139.064539754202826, 37.910499529624417 ] } },
{ "type": "Feature", "properties": { "P29_001": "15103", "P29_002": "H115310000348", "P29_003": "16016", "P29_004": "看護リハビリ新潟保健医療専門学校", "P29_005": "新潟県新潟市中央区花園2-2-19", "P29_006": "4", "P29_007": "0", "P29_008": "00", "P29_009": null }, "geometry": { "type": "Point", "coordinates": [ 139.065038253613466, 37.913995003030948 ] } },
{ "type": "Feature", "properties": { "P29_001": "15103", "P29_002": "H115310000357", "P29_003": "16016", "P29_004": "国際映像メディア専門学校", "P29_005": "新潟県新潟市中央区古町通6番町976", "P29_006": "4", "P29_007": "0", "P29_008": "00", "P29_009": null }, "geometry": { "type": "Point", "coordinates": [ 139.044783044991931, 37.921120821115622 ] } },
{ "type": "Feature", "properties": { "P29_001": "15103", "P29_002": "H115310000366", "P29_003": "16016", "P29_004": "新潟高度情報専門学校", "P29_005": "新潟県新潟市中央区明石1-3-12", "P29_006": "4", "P29_007": "0", "P29_008": "00", "P29_009": null }, "geometry": { "type": "Point", "coordinates": [ 139.065543554558445, 37.916145981066173 ] } },
{ "type": "Feature", "properties": { "P29_001": "15103", "P29_002": "H115310000375", "P29_003": "16016", "P29_004": "新潟美容専門学校ジャパンビューティアカデミー", "P29_005": "新潟県新潟市中央区万代4-7-26", "P29_006": "4", "P29_007": "0", "P29_008": "00", "P29_009": null }, "geometry": { "type": "Point", "coordinates": [ 139.058691446558868, 37.919578708301074 ] } },
{ "type": "Feature", "properties": { "P29_001": "15103", "P29_002": "H115310000384", "P29_003": "16016", "P29_004": "フォーラム情報アカデミー専門学校", "P29_005": "新潟県新潟市中央区弁天3-1-19", "P29_006": "4", "P29_007": "0", "P29_008": "00", "P29_009": null }, "geometry": { "type": "Point", "coordinates": [ 139.058533091846726, 37.912432742326182 ] } },
{ "type": "Feature", "properties": { "P29_001": "15103", "P29_002": "H115310000393", "P29_003": "16016", "P29_004": "新潟農業バイオ専門学校", "P29_005": "新潟県新潟市中央区長潟2-1-4", "P29_006": "4", "P29_007": "0", "P29_008": "00", "P29_009": null }, "geometry": { "type": "Point", "coordinates": [ 139.068906714104173, 37.891914858384801 ] } },
{ "type": "Feature", "properties": { "P29_001": "15103", "P29_002": "H115310000400", "P29_003": "16016", "P29_004": "新潟柔整専門学校", "P29_005": "新潟県新潟市中央区関屋大川前1-3-9", "P29_006": "4", "P29_007": "0", "P29_008": "00", "P29_009": null }, "geometry": { "type": "Point", "coordinates": [ 139.017009850419129, 37.904141849236446 ] } },
{ "type": "Feature", "properties": { "P29_001": "15103", "P29_002": "H115310000419", "P29_003": "16016", "P29_004": "新潟法律大学校", "P29_005": "新潟県新潟市中央区弁天2-4-21", "P29_006": "4", "P29_007": "0", "P29_008": "00", "P29_009": null }, "geometry": { "type": "Point", "coordinates": [ 139.058294424378488, 37.916161184347352 ] } },
{ "type": "Feature", "properties": { "P29_001": "15103", "P29_002": "H115310000428", "P29_003": "16016", "P29_004": "新潟こども保育カレッジ", "P29_005": "新潟県新潟市中央区笹口1-12-4", "P29_006": "4", "P29_007": "0", "P29_008": "00", "P29_009": null }, "geometry": { "type": "Point", "coordinates": [ 139.065250052525812, 37.912043407332625 ] } },
{ "type": "Feature", "properties": { "P29_001": "15107", "P29_002": "H115310000437", "P29_003": "16016", "P29_004": "真柄学園服装専門学校", "P29_005": "新潟県新潟市西区小針6-52-16", "P29_006": "4", "P29_007": "0", "P29_008": "00", "P29_009": null }, "geometry": { "type": "Point", "coordinates": [ 138.991641997541763, 37.882289001260858 ] } },
{ "type": "Feature", "properties": { "P29_001": "15107", "P29_002": "H115310000446", "P29_003": "16016", "P29_004": "新潟薬科大学附属医療技術専門学校", "P29_005": "新潟県新潟市西区上新栄町5-13-3", "P29_006": "4", "P29_007": "0", "P29_008": "00", "P29_009": null }, "geometry": { "type": "Point", "coordinates": [ 138.963012919153499, 37.882580086545673 ] } },
{ "type": "Feature", "properties": { "P29_001": "15103", "P29_002": "H115310000455", "P29_003": "16016", "P29_004": "日本こども福祉専門学校", "P29_005": "新潟県新潟市中央区花園1-4-8", "P29_006": "4", "P29_007": "0", "P29_008": "00", "P29_009": null }, "geometry": { "type": "Point", "coordinates": [ 139.0633942352205, 37.913485277568206 ] } },
{ "type": "Feature", "properties": { "P29_001": "15107", "P29_002": "H115310000464", "P29_003": "16016", "P29_004": "新潟看護医療専門学校", "P29_005": "新潟県新潟市西区みずき野1-105-1", "P29_006": "4", "P29_007": "0", "P29_008": "00", "P29_009": null }, "geometry": { "type": "Point", "coordinates": [ 138.906979005278316, 37.816311002096576 ] } },
{ "type": "Feature", "properties": { "P29_001": "15202", "P29_002": "H115320200014", "P29_003": "16016", "P29_004": "長岡赤十字看護専門学校", "P29_005": "新潟県長岡市千秋2-297-1", "P29_006": "4", "P29_007": "0", "P29_008": "00", "P29_009": null }, "geometry": { "type": "Point", "coordinates": [ 138.828749946508566, 37.458889478510507 ] } },
{ "type": "Feature", "properties": { "P29_001": "15202", "P29_002": "H115320200023", "P29_003": "16016", "P29_004": "新潟県厚生農業協同組合連合会中央看護専門学校", "P29_005": "新潟県長岡市川崎町2041", "P29_006": "4", "P29_007": "0", "P29_008": "00", "P29_009": null }, "geometry": { "type": "Point", "coordinates": [ 138.879408146661547, 37.451535521159329 ] } },
{ "type": "Feature", "properties": { "P29_001": "15202", "P29_002": "H115320200032", "P29_003": "16016", "P29_004": "北陸食育フードカレッジ", "P29_005": "新潟県長岡市福住1-5-25", "P29_006": "4", "P29_007": "0", "P29_008": "00", "P29_009": null }, "geometry": { "type": "Point", "coordinates": [ 138.856118959576378, 37.450413827494025 ] } },
{ "type": "Feature", "properties": { "P29_001": "15202", "P29_002": "H115320200041", "P29_003": "16016", "P29_004": "悠久山栄養調理専門学校", "P29_005": "新潟県長岡市中沢4-403-1", "P29_006": "4", "P29_007": "0", "P29_008": "00", "P29_009": null }, "geometry": { "type": "Point", "coordinates": [ 138.871670513766418, 37.441570075583527 ] } },
{ "type": "Feature", "properties": { "P29_001": "15202", "P29_002": "H115320200050", "P29_003": "16016", "P29_004": "長岡公務員・情報ビジネス専門学校", "P29_005": "新潟県長岡市弓町1-8-37", "P29_006": "4", "P29_007": "0", "P29_008": "00", "P29_009": null }, "geometry": { "type": "Point", "coordinates": [ 138.852889930219106, 37.44166243818286 ] } },
{ "type": "Feature", "properties": { "P29_001": "15202", "P29_002": "H115320200069", "P29_003": "16016", "P29_004": "北陸福祉保育専門学院", "P29_005": "新潟県長岡市福住1-5-25", "P29_006": "4", "P29_007": "0", "P29_008": "00", "P29_009": null }, "geometry": { "type": "Point", "coordinates": [ 138.856065474958399, 37.45045300776772 ] } },
{ "type": "Feature", "properties": { "P29_001": "15202", "P29_002": "H115320200078", "P29_003": "16016", "P29_004": "日本ビジネス公務員専門学校", "P29_005": "新潟県長岡市殿町1-1-1", "P29_006": "4", "P29_007": "0", "P29_008": "00", "P29_009": null }, "geometry": { "type": "Point", "coordinates": [ 138.851672081199638, 37.444109991149439 ] } },
{ "type": "Feature", "properties": { "P29_001": "15202", "P29_002": "H115320200087", "P29_003": "16016", "P29_004": "長岡崇徳福祉専門学校", "P29_005": "新潟県長岡市上富岡町字松山1961-21", "P29_006": "4", "P29_007": "0", "P29_008": "00", "P29_009": null }, "geometry": { "type": "Point", "coordinates": [ 138.773786404446696, 37.425042249607245 ] } },
{ "type": "Feature", "properties": { "P29_001": "15202", "P29_002": "H115320200096", "P29_003": "16016", "P29_004": "晴陵リハビリテーション学院", "P29_005": "新潟県長岡市大字日越319", "P29_006": "4", "P29_007": "0", "P29_008": "00", "P29_009": null }, "geometry": { "type": "Point", "coordinates": [ 138.780157139156017, 37.435114495373362 ] } },
{ "type": "Feature", "properties": { "P29_001": "15202", "P29_002": "H115320200103", "P29_003": "16016", "P29_004": "長岡美容専門学校", "P29_005": "新潟県長岡市台町2-1-23", "P29_006": "4", "P29_007": "0", "P29_008": "00", "P29_009": null }, "geometry": { "type": "Point", "coordinates": [ 138.855755309699788, 37.445565687657066 ] } },
{ "type": "Feature", "properties": { "P29_001": "15202", "P29_002": "H115320200112", "P29_003": "16016", "P29_004": "長岡こども福祉カレッジ", "P29_005": "新潟県長岡市殿町1-1-32", "P29_006": "4", "P29_007": "0", "P29_008": "00", "P29_009": null }, "geometry": { "type": "Point", "coordinates": [ 138.851911909205057, 37.444169218074954 ] } },
{ "type": "Feature", "properties": { "P29_001": "15202", "P29_002": "H115320200121", "P29_003": "16016", "P29_004": "クレアヘアモード専門学校", "P29_005": "新潟県長岡市殿町1-5-9", "P29_006": "4", "P29_007": "0", "P29_008": "00", "P29_009": null }, "geometry": { "type": "Point", "coordinates": [ 138.851371428257011, 37.44450876460931 ] } },
{ "type": "Feature", "properties": { "P29_001": "15202", "P29_002": "H115320200130", "P29_003": "16016", "P29_004": "長岡介護福祉専門学校あゆみ", "P29_005": "新潟県長岡市福住1-7-21", "P29_006": "4", "P29_007": "0", "P29_008": "00", "P29_009": null }, "geometry": { "type": "Point", "coordinates": [ 138.857235375871653, 37.450222278031468 ] } },
{ "type": "Feature", "properties": { "P29_001": "15202", "P29_002": "H115320200149", "P29_003": "16016", "P29_004": "長岡こども・医療・介護専門学校", "P29_005": "新潟県長岡市弓町1-8-34", "P29_006": "4", "P29_007": "0", "P29_008": "00", "P29_009": null }, "geometry": { "type": "Point", "coordinates": [ 138.85301688182588, 37.441828164450115 ] } },
{ "type": "Feature", "properties": { "P29_001": "15202", "P29_002": "H115320200158", "P29_003": "16016", "P29_004": "晴麗看護学校", "P29_005": "新潟県長岡市学校町3-1-22", "P29_006": "4", "P29_007": "0", "P29_008": "00", "P29_009": null }, "geometry": { "type": "Point", "coordinates": [ 138.86242776904254, 37.443701742463958 ] } },
{ "type": "Feature", "properties": { "P29_001": "15204", "P29_002": "H115320400012", "P29_003": "16016", "P29_004": "三条服装専門学校", "P29_005": "新潟県三条市北新保2-8-11", "P29_006": "4", "P29_007": "0", "P29_008": "00", "P29_009": null }, "geometry": { "type": "Point", "coordinates": [ 138.962416790301631, 37.625535033213637 ] } },
{ "type": "Feature", "properties": { "P29_001": "15204", "P29_002": "H115320400021", "P29_003": "16016", "P29_004": "三条看護・医療・歯科衛生専門学校", "P29_005": "新潟県三条市上須頃1273", "P29_006": "4", "P29_007": "0", "P29_008": "00", "P29_009": null }, "geometry": { "type": "Point", "coordinates": [ 138.932126093742966, 37.642935765567778 ] } },
{ "type": "Feature", "properties": { "P29_001": "15205", "P29_002": "H115320500011", "P29_003": "16016", "P29_004": "国立病院機構新潟病院附属看護学校", "P29_005": "新潟県柏崎市赤坂町3-52", "P29_006": "4", "P29_007": "0", "P29_008": "00", "P29_009": null }, "geometry": { "type": "Point", "coordinates": [ 138.536175864558544, 37.358839219793268 ] } },
{ "type": "Feature", "properties": { "P29_001": "15209", "P29_002": "H115320900017", "P29_003": "16016", "P29_004": "蒲沢服装専門学校", "P29_005": "新潟県加茂市駅前6-1", "P29_006": "4", "P29_007": "0", "P29_008": "00", "P29_009": null }, "geometry": { "type": "Point", "coordinates": [ 139.050902015403807, 37.659506956663314 ] } },
{ "type": "Feature", "properties": { "P29_001": "15210", "P29_002": "H115321000014", "P29_003": "16016", "P29_004": "十日町服飾専門学校", "P29_005": "新潟県十日町市本町西1-306", "P29_006": "4", "P29_007": "0", "P29_008": "00", "P29_009": null }, "geometry": { "type": "Point", "coordinates": [ 138.759424930119906, 37.129144629048284 ] } },
{ "type": "Feature", "properties": { "P29_001": "15212", "P29_002": "H115321200012", "P29_003": "16016", "P29_004": "新潟看護医療専門学校村上校", "P29_005": "新潟県村上市八日市15-92", "P29_006": "4", "P29_007": "0", "P29_008": "00", "P29_009": null }, "geometry": { "type": "Point", "coordinates": [ 139.444317947876044, 38.180969977170726 ] } },
{ "type": "Feature", "properties": { "P29_001": "15217", "P29_002": "H115321700017", "P29_003": "16016", "P29_004": "国際スノーボード＆スケートボード専門学校", "P29_005": "新潟県妙高市原通76", "P29_006": "4", "P29_007": "0", "P29_008": "00", "P29_009": null }, "geometry": { "type": "Point", "coordinates": [ 138.248267646808216, 36.946131109713306 ] } },
{ "type": "Feature", "properties": { "P29_001": "15217", "P29_002": "H115321700026", "P29_003": "16016", "P29_004": "国際自然環境アウトドア専門学校", "P29_005": "新潟県妙高市原通70", "P29_006": "4", "P29_007": "0", "P29_008": "00", "P29_009": null }, "geometry": { "type": "Point", "coordinates": [ 138.248623998964518, 36.94564899803509 ] } },
{ "type": "Feature", "properties": { "P29_001": "15218", "P29_002": "H115321800016", "P29_003": "16016", "P29_004": "五泉服装専門学校", "P29_005": "新潟県五泉市寺沢1-5-3", "P29_006": "4", "P29_007": "0", "P29_008": "00", "P29_009": null }, "geometry": { "type": "Point", "coordinates": [ 139.181596434676891, 37.73349388930734 ] } },
{ "type": "Feature", "properties": { "P29_001": "15222", "P29_002": "H115322200010", "P29_003": "16016", "P29_004": "上越服装専門学校", "P29_005": "新潟県上越市大町2-1-10", "P29_006": "4", "P29_007": "0", "P29_008": "00", "P29_009": null }, "geometry": { "type": "Point", "coordinates": [ 138.245317536434811, 37.108174276479822 ] } },
{ "type": "Feature", "properties": { "P29_001": "15222", "P29_002": "H115322200029", "P29_003": "16016", "P29_004": "上越公務員・情報ビジネス専門学校", "P29_005": "新潟県上越市北城町3-4-1", "P29_006": "4", "P29_007": "0", "P29_008": "00", "P29_009": null }, "geometry": { "type": "Point", "coordinates": [ 138.252275218919436, 37.117665433341578 ] } },
{ "type": "Feature", "properties": { "P29_001": "15222", "P29_002": "H115322200038", "P29_003": "16016", "P29_004": "上越保健医療福祉専門学校", "P29_005": "新潟県上越市西城町1-12-17", "P29_006": "4", "P29_007": "0", "P29_008": "00", "P29_009": null }, "geometry": { "type": "Point", "coordinates": [ 138.251650570344708, 37.109933333687806 ] } },
{ "type": "Feature", "properties": { "P29_001": "15222", "P29_002": "H115322200047", "P29_003": "16016", "P29_004": "上越看護専門学校", "P29_005": "新潟県上越市大潟区犀潟字三番割517-1", "P29_006": "4", "P29_007": "0", "P29_008": "00", "P29_009": null }, "geometry": { "type": "Point", "coordinates": [ 138.309004654385035, 37.211568961338273 ] } },
{ "type": "Feature", "properties": { "P29_001": "15224", "P29_002": "H115322400018", "P29_003": "16016", "P29_004": "新潟県厚生農業協同組合連合会佐渡看護専門学校", "P29_005": "新潟県佐渡市千種121", "P29_006": "4", "P29_007": "0", "P29_008": "00", "P29_009": null }, "geometry": { "type": "Point", "coordinates": [ 138.365022552764458, 38.019028461889199 ] } },
{ "type": "Feature", "properties": { "P29_001": "15224", "P29_002": "H115322400027", "P29_003": "16016", "P29_004": "伝統文化と環境福祉の専門学校", "P29_005": "新潟県佐渡市千種丙202-1", "P29_006": "4", "P29_007": "0", "P29_008": "00", "P29_009": null }, "geometry": { "type": "Point", "coordinates": [ 138.365717323885264, 38.024322802402985 ] } },
{ "type": "Feature", "properties": { "P29_001": "15224", "P29_002": "H115322400036", "P29_003": "16016", "P29_004": "佐渡保育専門学校", "P29_005": "新潟県佐渡市吉井本郷519", "P29_006": "4", "P29_007": "0", "P29_008": "00", "P29_009": null }, "geometry": { "type": "Point", "coordinates": [ 138.39443629351365, 38.05319346249793 ] } },
{ "type": "Feature", "properties": { "P29_001": "15226", "P29_002": "H115322600016", "P29_003": "16016", "P29_004": "北里大学保健衛生専門学院", "P29_005": "新潟県南魚沼市黒土新田500", "P29_006": "4", "P29_007": "0", "P29_008": "00", "P29_009": null }, "geometry": { "type": "Point", "coordinates": [ 138.95469424735208, 37.1565036009913 ] } },
{ "type": "Feature", "properties": { "P29_001": "15307", "P29_002": "H115330700018", "P29_003": "16016", "P29_004": "ＪＡＰＡＮサッカーカレッジ", "P29_005": "新潟県北蒲原郡聖籠町網代浜925-1", "P29_006": "4", "P29_007": "0", "P29_008": "00", "P29_009": null }, "geometry": { "type": "Point", "coordinates": [ 139.259421210651794, 37.998826201581558 ] } }
]
}
