{
"type": "FeatureCollection",
"name": "geo_15_短期入所療養介護（介護老人保健施設）",
"crs": { "type": "name", "properties": { "name": "urn:ogc:def:crs:OGC:1.3:CRS84" } },
"features": [
{ "type": "Feature", "properties": { "内容": "介護老人保健施設女池南風苑【短期入所療養介護（介護老人保健施設）】新潟県新潟市中央区女池神明1丁目3番地3", "url": "https://www.kaigokensaku.mhlw.go.jp/15/index.php?action_kouhyou_detail_004_kani=true&JigyosyoCd=1550180077-00&ServiceCd=220&Type=search", "url2": "http://www.niigataminami-hp.com/" }, "geometry": { "type": "Point", "coordinates": [ 139.0380748, 37.8900706 ] } },
{ "type": "Feature", "properties": { "内容": "介護老人保健施設千歳園【短期入所療養介護（介護老人保健施設）】新潟県新潟市中央区新光町１番地33", "url": "https://www.kaigokensaku.mhlw.go.jp/15/index.php?action_kouhyou_detail_004_kani=true&JigyosyoCd=1550180093-00&ServiceCd=220&Type=search", "url2": "http://www.nice-hp.or.jp/chitose/" }, "geometry": { "type": "Point", "coordinates": [ 139.024983300000031, 37.9047377 ] } },
{ "type": "Feature", "properties": { "内容": "介護老人保健施設　入舟【短期入所療養介護（介護老人保健施設）】新潟県新潟市中央区入船町３丁目３６２９－１", "url": "https://www.kaigokensaku.mhlw.go.jp/15/index.php?action_kouhyou_detail_004_kani=true&JigyosyoCd=1550180333-00&ServiceCd=220&Type=search", "url2": "https://niigata-min.or.jp/irifune/" }, "geometry": { "type": "Point", "coordinates": [ 139.056407300000046, 37.9343712 ] } },
{ "type": "Feature", "properties": { "内容": "介護老人保健施設　葵の園・新潟島【短期入所療養介護（介護老人保健施設）】新潟県新潟市中央区柳島町3丁目18番地7", "url": "https://www.kaigokensaku.mhlw.go.jp/15/index.php?action_kouhyou_detail_004_kani=true&JigyosyoCd=1550180374-00&ServiceCd=220&Type=search", "url2": "http://www.aoikai.jp/" }, "geometry": { "type": "Point", "coordinates": [ 139.0585091, 37.9316527 ] } },
{ "type": "Feature", "properties": { "内容": "介護老人保健施設　大江山園【短期入所療養介護（介護老人保健施設）】新潟県新潟市江南区大渕277番地", "url": "https://www.kaigokensaku.mhlw.go.jp/15/index.php?action_kouhyou_detail_004_kani=true&JigyosyoCd=1550180051-00&ServiceCd=220&Type=search", "url2": "http://www.tsubakida.com" }, "geometry": { "type": "Point", "coordinates": [ 139.144621, 37.8920734 ] } },
{ "type": "Feature", "properties": { "内容": "介護老人保健施設　亀田園【短期入所療養介護（介護老人保健施設）】新潟県新潟市江南区早通6-7-34", "url": "https://www.kaigokensaku.mhlw.go.jp/15/index.php?action_kouhyou_detail_004_kani=true&JigyosyoCd=1550180234-00&ServiceCd=220&Type=search", "url2": "http://www.ijn.or.jp" }, "geometry": { "type": "Point", "coordinates": [ 139.08132, 37.8635908 ] } },
{ "type": "Feature", "properties": { "内容": "介護老人保健施設おぎの里【短期入所療養介護（介護老人保健施設）】新潟県新潟市秋葉区荻野町３－８", "url": "https://www.kaigokensaku.mhlw.go.jp/15/index.php?action_kouhyou_detail_004_kani=true&JigyosyoCd=1550180184-00&ServiceCd=220&Type=search", "url2": "https://www.rouken-oginosato.jp/" }, "geometry": { "type": "Point", "coordinates": [ 139.106394099999989, 37.8298961 ] } },
{ "type": "Feature", "properties": { "内容": "介護老人保健施設みずき苑【短期入所療養介護（介護老人保健施設）】新潟県新潟市南区助次右エ門組５", "url": "https://www.kaigokensaku.mhlw.go.jp/15/index.php?action_kouhyou_detail_004_kani=true&JigyosyoCd=1550180218-00&ServiceCd=220&Type=search", "url2": "http://www.healthcoop-shirone.or.jp/" }, "geometry": { "type": "Point", "coordinates": [ 139.019705, 37.7606575 ] } },
{ "type": "Feature", "properties": { "内容": "介護老人保健施設　白根ヴィラガーデン【短期入所療養介護（介護老人保健施設）】新潟県新潟市南区大通黄金7丁目10番地２", "url": "https://www.kaigokensaku.mhlw.go.jp/15/index.php?action_kouhyou_detail_004_kani=true&JigyosyoCd=1550180200-00&ServiceCd=220&Type=search", "url2": "http：//www.jojinkai.com/garden/" }, "geometry": { "type": "Point", "coordinates": [ 139.0196392, 37.8209985 ] } },
{ "type": "Feature", "properties": { "内容": "介護老人保健施設　あかつか苑【短期入所療養介護（介護老人保健施設）】新潟県新潟市西区赤塚４７８２番地", "url": "https://www.kaigokensaku.mhlw.go.jp/15/index.php?action_kouhyou_detail_004_kani=true&JigyosyoCd=1550180150-00&ServiceCd=220&Type=search", "url2": "http://www.akatukafukusi.com/" }, "geometry": { "type": "Point", "coordinates": [ 138.873777499999989, 37.8095495 ] } },
{ "type": "Feature", "properties": { "内容": "介護老人保健施設健やか園【短期入所療養介護（介護老人保健施設）】新潟県新潟市西区小新1130番地", "url": "https://www.kaigokensaku.mhlw.go.jp/15/index.php?action_kouhyou_detail_004_kani=true&JigyosyoCd=1550180168-00&ServiceCd=220&Type=search", "url2": "https://niigata-sukoyaka.com" }, "geometry": { "type": "Point", "coordinates": [ 138.995112400000039, 37.8784901 ] } },
{ "type": "Feature", "properties": { "内容": "介護老人保健施設　いわむろの里【短期入所療養介護（介護老人保健施設）】新潟県新潟市西蒲区橋本９７番地１", "url": "https://www.kaigokensaku.mhlw.go.jp/15/index.php?action_kouhyou_detail_004_kani=true&JigyosyoCd=1550180242-00&ServiceCd=220&Type=search", "url2": "http://www.niwell.or.jp" }, "geometry": { "type": "Point", "coordinates": [ 138.84017, 37.7325994 ] } },
{ "type": "Feature", "properties": { "内容": "介護老人保健施設　回生園【短期入所療養介護（介護老人保健施設）】新潟県新潟市西蒲区押付678番地", "url": "https://www.kaigokensaku.mhlw.go.jp/15/index.php?action_kouhyou_detail_004_kani=true&JigyosyoCd=1550180259-00&ServiceCd=220&Type=search", "url2": "http://www.kaiseien.or.jp/" }, "geometry": { "type": "Point", "coordinates": [ 138.916898899999978, 37.7838154 ] } },
{ "type": "Feature", "properties": { "内容": "介護老人保健施設　槇の里【短期入所療養介護（介護老人保健施設）】新潟県新潟市西蒲区巻甲4363番地", "url": "https://www.kaigokensaku.mhlw.go.jp/15/index.php?action_kouhyou_detail_004_kani=true&JigyosyoCd=1550180309-00&ServiceCd=220&Type=search", "url2": "http://www.jojinkai.com/maki/" }, "geometry": { "type": "Point", "coordinates": [ 138.893215918415791, 37.754021456361755 ] } },
{ "type": "Feature", "properties": { "内容": "介護老人保健施設　あらまち【短期入所療養介護（介護老人保健施設）】新潟県長岡市泉１－７－２４", "url": "https://www.kaigokensaku.mhlw.go.jp/15/index.php?action_kouhyou_detail_004_kani=true&JigyosyoCd=1550280083-00&ServiceCd=220&Type=search", "url2": "http://www.nagaoka-iryou-seikyou.jp/index.html" }, "geometry": { "type": "Point", "coordinates": [ 138.8542444, 37.4644352 ] } },
{ "type": "Feature", "properties": { "内容": "介護老人保健施設　楽山苑【短期入所療養介護（介護老人保健施設）】新潟県長岡市宮沢327番地1", "url": "https://www.kaigokensaku.mhlw.go.jp/15/index.php?action_kouhyou_detail_004_kani=true&JigyosyoCd=1550280000-00&ServiceCd=220&Type=search", "url2": "http://www.mishima-hospital.or.jp/rakuzanen/index.html" }, "geometry": { "type": "Point", "coordinates": [ 138.7844103, 37.5102596 ] } },
{ "type": "Feature", "properties": { "内容": "介護老人保健施設　サンプラザ長岡【短期入所療養介護（介護老人保健施設）】長岡市三ッ郷屋町３５番地", "url": "https://www.kaigokensaku.mhlw.go.jp/15/index.php?action_kouhyou_detail_004_kani=true&JigyosyoCd=1550280026-00&ServiceCd=220&Type=search", "url2": "http://www.sunplaza-nagaoka.jp" }, "geometry": { "type": "Point", "coordinates": [ 138.815121071163929, 37.450810072909491 ] } },
{ "type": "Feature", "properties": { "内容": "介護老人保健施設　桃李園【短期入所療養介護（介護老人保健施設）】長岡市西津町4630番地", "url": "https://www.kaigokensaku.mhlw.go.jp/15/index.php?action_kouhyou_detail_004_kani=true&JigyosyoCd=1550280034-00&ServiceCd=220&Type=search", "url2": "https://tourien.jp" }, "geometry": { "type": "Point", "coordinates": [ 138.772453, 37.4265689 ] } },
{ "type": "Feature", "properties": { "内容": "介護老人保健施設悠遊苑【短期入所療養介護（介護老人保健施設）】新潟県長岡市大字日越337番地", "url": "https://www.kaigokensaku.mhlw.go.jp/15/index.php?action_kouhyou_detail_004_kani=true&JigyosyoCd=1550280042-00&ServiceCd=220&Type=search", "url2": "http://www.tatikawa.or.jp" }, "geometry": { "type": "Point", "coordinates": [ 138.7811994, 37.4365903 ] } },
{ "type": "Feature", "properties": { "内容": "介護老人保健施設てらどまり【短期入所療養介護（介護老人保健施設）】新潟県長岡市寺泊下桐850番地1", "url": "https://www.kaigokensaku.mhlw.go.jp/15/index.php?action_kouhyou_detail_004_kani=true&JigyosyoCd=1550280059-00&ServiceCd=220&Type=search", "url2": "http://nagaokasanko.or.jp/" }, "geometry": { "type": "Point", "coordinates": [ 138.808555785705607, 37.611783530460393 ] } },
{ "type": "Feature", "properties": { "内容": "介護老人保健施設グリーンヒル与板【短期入所療養介護（介護老人保健施設）】新潟県長岡市与板町槇原393番地8", "url": "https://www.kaigokensaku.mhlw.go.jp/15/index.php?action_kouhyou_detail_004_kani=true&JigyosyoCd=1550280067-00&ServiceCd=220&Type=search", "url2": "http://nagaokasanko.or.jp/group/ghy/" }, "geometry": { "type": "Point", "coordinates": [ 138.791735455819662, 37.517962385569987 ] } },
{ "type": "Feature", "properties": { "内容": "老人保健施設やすらぎ園【短期入所療養介護（介護老人保健施設）】新潟県長岡市町田町５５５番地", "url": "https://www.kaigokensaku.mhlw.go.jp/15/index.php?action_kouhyou_detail_004_kani=true&JigyosyoCd=1550280018-00&ServiceCd=220&Type=search", "url2": "https://www.i-shiseikai.or.jp" }, "geometry": { "type": "Point", "coordinates": [ 138.860729799999945, 37.4177183 ] } },
{ "type": "Feature", "properties": { "内容": "介護老人保健施設　葵の園・長岡【短期入所療養介護（介護老人保健施設）】新潟県長岡市稲保南三丁目882番2", "url": "https://www.kaigokensaku.mhlw.go.jp/15/index.php?action_kouhyou_detail_004_kani=true&JigyosyoCd=1550280091-00&ServiceCd=220&Type=search", "url2": "https://www.aoikai.jp/nagaoka/" }, "geometry": { "type": "Point", "coordinates": [ 138.8679376, 37.4776599 ] } },
{ "type": "Feature", "properties": { "内容": "介護老人保健施設　葵の園・長岡【短期入所療養介護（介護老人保健施設）】新潟県長岡市稲保南三丁目882番2新潟県長岡市稲保南三丁目882番2", "url": "https://www.kaigokensaku.mhlw.go.jp/15/index.php?action_kouhyou_detail_004_kani=true&JigyosyoCd=1570203727-00&ServiceCd=220&Type=search", "url2": "https://www.aoikai.jp/nagaoka/" }, "geometry": { "type": "Point", "coordinates": [ 138.867798125131259, 37.477732271547971 ] } },
{ "type": "Feature", "properties": { "内容": "介護老人保健施設いっぷく２番館【短期入所療養介護（介護老人保健施設）】新潟県三条市帯織８００番地", "url": "https://www.kaigokensaku.mhlw.go.jp/15/index.php?action_kouhyou_detail_004_kani=true&JigyosyoCd=1550480048-00&ServiceCd=220&Type=search", "url2": "http://www.shitada.jp/" }, "geometry": { "type": "Point", "coordinates": [ 138.927236092590306, 37.573217898390766 ] } },
{ "type": "Feature", "properties": { "内容": "介護老人保健施設　マザリー三条【短期入所療養介護（介護老人保健施設）】三条市北入蔵２丁目２８番１号", "url": "https://www.kaigokensaku.mhlw.go.jp/15/index.php?action_kouhyou_detail_004_kani=true&JigyosyoCd=1550480030-00&ServiceCd=220&Type=search", "url2": "http://www.tachibanakoyokai.or.jp/motherly/index.html" }, "geometry": { "type": "Point", "coordinates": [ 138.985233243555513, 37.632750899939786 ] } },
{ "type": "Feature", "properties": { "内容": "介護老人保健施設　いっぷく【短期入所療養介護（介護老人保健施設）】新潟県三条市長野337番地", "url": "https://www.kaigokensaku.mhlw.go.jp/15/index.php?action_kouhyou_detail_004_kani=true&JigyosyoCd=1550480006-00&ServiceCd=220&Type=search", "url2": "http://www.shitada.jp/" }, "geometry": { "type": "Point", "coordinates": [ 139.1144382, 37.5397405 ] } },
{ "type": "Feature", "properties": { "内容": "介護老人保健施設　米山爽風苑【短期入所療養介護（介護老人保健施設）】新潟県柏崎市大字茨目字二ツ池2071－1", "url": "https://www.kaigokensaku.mhlw.go.jp/15/index.php?action_kouhyou_detail_004_kani=true&JigyosyoCd=1550580011-00&ServiceCd=220&Type=search", "url2": "http://www.tatikawa.or.jp" }, "geometry": { "type": "Point", "coordinates": [ 138.586878573754944, 37.353327234971232 ] } },
{ "type": "Feature", "properties": { "内容": "介護老人保健施設　豊浦愛広苑【短期入所療養介護（介護老人保健施設）】新潟県新発田市荒町甲1611-8", "url": "https://www.kaigokensaku.mhlw.go.jp/15/index.php?action_kouhyou_detail_004_kani=true&JigyosyoCd=1550680001-00&ServiceCd=220&Type=search", "url2": "http://www.aiko.or.jp" }, "geometry": { "type": "Point", "coordinates": [ 139.3218101, 37.935479 ] } },
{ "type": "Feature", "properties": { "内容": "介護老人保健施設　いいでの里【短期入所療養介護（介護老人保健施設）】新潟県新発田市金谷197番地", "url": "https://www.kaigokensaku.mhlw.go.jp/15/index.php?action_kouhyou_detail_004_kani=true&JigyosyoCd=1550680019-00&ServiceCd=220&Type=search", "url2": "https://iidenosato.com" }, "geometry": { "type": "Point", "coordinates": [ 139.365732282803322, 37.944008300000014 ] } },
{ "type": "Feature", "properties": { "内容": "介護老人保健施設二王子【短期入所療養介護（介護老人保健施設）】新潟県新発田市虎丸４５２番地", "url": "https://www.kaigokensaku.mhlw.go.jp/15/index.php?action_kouhyou_detail_004_kani=true&JigyosyoCd=1550680035-00&ServiceCd=220&Type=search", "url2": "http://www.mbc.or.jp" }, "geometry": { "type": "Point", "coordinates": [ 139.4148241, 37.9272082 ] } },
{ "type": "Feature", "properties": { "内容": "介護老人保健施設さくら苑【短期入所療養介護（介護老人保健施設）】新潟県加茂市千刈2-8-13", "url": "https://www.kaigokensaku.mhlw.go.jp/15/index.php?action_kouhyou_detail_004_kani=true&JigyosyoCd=1550980021-00&ServiceCd=220&Type=search", "url2": "http://www.jojinkai.com/sakuraen/" }, "geometry": { "type": "Point", "coordinates": [ 139.0513138, 37.6657467 ] } },
{ "type": "Feature", "properties": { "内容": "見附市介護老人保健施設ケアプラザ見附【短期入所療養介護（介護老人保健施設）】見附市学校町2丁目13番30号", "url": "https://www.kaigokensaku.mhlw.go.jp/15/index.php?action_kouhyou_detail_004_kani=true&JigyosyoCd=1551180019-00&ServiceCd=220&Type=search", "url2": "https://www.city.mitsuke.niigata.jp/soshiki/8/" }, "geometry": { "type": "Point", "coordinates": [ 138.919396, 37.5347622 ] } },
{ "type": "Feature", "properties": { "内容": "介護老人保健施設　三面の里【短期入所療養介護（介護老人保健施設）】新潟県村上市田端町１６番７号", "url": "https://www.kaigokensaku.mhlw.go.jp/15/index.php?action_kouhyou_detail_004_kani=true&JigyosyoCd=1551280017-00&ServiceCd=220&Type=search", "url2": "http://www.sanpokukai.jp/" }, "geometry": { "type": "Point", "coordinates": [ 139.463953874205004, 38.223497187561186 ] } },
{ "type": "Feature", "properties": { "内容": "介護老人保健施設　優和の里【短期入所療養介護（介護老人保健施設）】新潟県村上市勝木1340-1", "url": "https://www.kaigokensaku.mhlw.go.jp/15/index.php?action_kouhyou_detail_004_kani=true&JigyosyoCd=1551280025-00&ServiceCd=220&Type=search", "url2": "http://sanpoku-hp.or.jp/" }, "geometry": { "type": "Point", "coordinates": [ 139.516442899999987, 38.4905512 ] } },
{ "type": "Feature", "properties": { "内容": "介護老人保健施設杏園【短期入所療養介護（介護老人保健施設）】村上市猿沢2222", "url": "https://www.kaigokensaku.mhlw.go.jp/15/index.php?action_kouhyou_detail_004_kani=true&JigyosyoCd=1551280009-00&ServiceCd=220&Type=search", "url2": "http://www.satomed.or.jp" }, "geometry": { "type": "Point", "coordinates": [ 139.526825799999983, 38.2866269 ] } },
{ "type": "Feature", "properties": { "内容": "介護老人保健施設　ぶんすい【短期入所療養介護（介護老人保健施設）】新潟県燕市笈ヶ島１０４－５", "url": "https://www.kaigokensaku.mhlw.go.jp/15/index.php?action_kouhyou_detail_004_kani=true&JigyosyoCd=1551380007-00&ServiceCd=220&Type=search", "url2": "https://www.roukenbunsui.jp" }, "geometry": { "type": "Point", "coordinates": [ 138.847096299999976, 37.6197971 ] } },
{ "type": "Feature", "properties": { "内容": "老人保健施設「楽楽」【短期入所療養介護（介護老人保健施設）】新潟県燕市大曲３００３番地", "url": "https://www.kaigokensaku.mhlw.go.jp/15/index.php?action_kouhyou_detail_004_kani=true&JigyosyoCd=1551380015-00&ServiceCd=220&Type=search", "url2": null }, "geometry": { "type": "Point", "coordinates": [ 138.918801600000052, 37.6488346 ] } },
{ "type": "Feature", "properties": { "内容": "介護老人保健施設エバーグリーン【短期入所療養介護（介護老人保健施設）】新潟県燕市富永216番地1", "url": "https://www.kaigokensaku.mhlw.go.jp/15/index.php?action_kouhyou_detail_004_kani=true&JigyosyoCd=1551380023-00&ServiceCd=220&Type=search", "url2": "https://www.shihatsudo.or.jp" }, "geometry": { "type": "Point", "coordinates": [ 138.889683600000012, 37.6959077 ] } },
{ "type": "Feature", "properties": { "内容": "介護老人保健施設アグリケアコートいといがわ【短期入所療養介護（介護老人保健施設）】新潟県糸魚川市横町5丁目9番12号", "url": "https://www.kaigokensaku.mhlw.go.jp/15/index.php?action_kouhyou_detail_004_kani=true&JigyosyoCd=1551580028-00&ServiceCd=220&Type=search", "url2": null }, "geometry": { "type": "Point", "coordinates": [ 137.84719240000004, 37.0427751 ] } },
{ "type": "Feature", "properties": { "内容": "介護老人保健施設新井愛広苑【短期入所療養介護（介護老人保健施設）】妙高市大字小原新田528番地", "url": "https://www.kaigokensaku.mhlw.go.jp/15/index.php?action_kouhyou_detail_004_kani=true&JigyosyoCd=1551680018-00&ServiceCd=220&Type=search", "url2": "http://www.aiko.or.jp" }, "geometry": { "type": "Point", "coordinates": [ 138.268734, 36.9743778 ] } },
{ "type": "Feature", "properties": { "内容": "老人保健施設　愛宕の里【短期入所療養介護（介護老人保健施設）】新潟県五泉市村松1409-1", "url": "https://www.kaigokensaku.mhlw.go.jp/15/index.php?action_kouhyou_detail_004_kani=true&JigyosyoCd=1551780008-00&ServiceCd=220&Type=search", "url2": "https://sinjinkai.or.jp/facility/atago.html" }, "geometry": { "type": "Point", "coordinates": [ 139.1747368, 37.7004045 ] } },
{ "type": "Feature", "properties": { "内容": "介護老人保健施設保倉の里【短期入所療養介護（介護老人保健施設）】上越市浦川原区顕聖寺730番地1", "url": "https://www.kaigokensaku.mhlw.go.jp/15/index.php?action_kouhyou_detail_004_kani=true&JigyosyoCd=1550380008-00&ServiceCd=220&Type=search", "url2": "http://www.kubiki-sjk.or.jp/" }, "geometry": { "type": "Point", "coordinates": [ 138.417125100000021, 37.1591823 ] } },
{ "type": "Feature", "properties": { "内容": "あがの市民病院　介護老人保健施設　五頭の里【短期入所療養介護（介護老人保健施設）】新潟県阿賀野市岡山町13-23", "url": "https://www.kaigokensaku.mhlw.go.jp/15/index.php?action_kouhyou_detail_004_kani=true&JigyosyoCd=1572100723-00&ServiceCd=220&Type=search", "url2": null }, "geometry": { "type": "Point", "coordinates": [ 139.2211677, 37.8327957 ] } },
{ "type": "Feature", "properties": { "内容": "介護老人保健施設　相川愛広苑【短期入所療養介護（介護老人保健施設）】新潟県佐渡市相川大浦571", "url": "https://www.kaigokensaku.mhlw.go.jp/15/index.php?action_kouhyou_detail_004_kani=true&JigyosyoCd=1552280065-00&ServiceCd=220&Type=search", "url2": "http://www.aiko.or.jp" }, "geometry": { "type": "Point", "coordinates": [ 138.224099300000034, 38.015718 ] } },
{ "type": "Feature", "properties": { "内容": "佐渡市介護老人保健施設　すこやか両津【短期入所療養介護（介護老人保健施設）】新潟県佐渡市中興乙１６０１番地１", "url": "https://www.kaigokensaku.mhlw.go.jp/15/index.php?action_kouhyou_detail_004_kani=true&JigyosyoCd=1552280057-00&ServiceCd=220&Type=search", "url2": null }, "geometry": { "type": "Point", "coordinates": [ 138.358118203041045, 38.026712599999989 ] } },
{ "type": "Feature", "properties": { "内容": "介護老人保健施設越南苑【短期入所療養介護（介護老人保健施設）】新潟県南魚沼市五日町２４０５番地", "url": "https://www.kaigokensaku.mhlw.go.jp/15/index.php?action_kouhyou_detail_004_kani=true&JigyosyoCd=1552480004-00&ServiceCd=220&Type=search", "url2": "http://etunanen.com" }, "geometry": { "type": "Point", "coordinates": [ 138.902815499999946, 37.125673699999986 ] } },
{ "type": "Feature", "properties": { "内容": "介護老人保健施設　マチュアハウス中条【短期入所療養介護（介護老人保健施設）】胎内市中村浜字築地原６９９－１３６", "url": "https://www.kaigokensaku.mhlw.go.jp/15/index.php?action_kouhyou_detail_004_kani=true&JigyosyoCd=1552580019-00&ServiceCd=220&Type=search", "url2": "http://n-jiseikai.jp/publics/index/6" }, "geometry": { "type": "Point", "coordinates": [ 139.350129383353078, 38.068674227543752 ] } },
{ "type": "Feature", "properties": { "内容": "介護老人保健施設中条愛広苑【短期入所療養介護（介護老人保健施設）】胎内市十二天91", "url": "https://www.kaigokensaku.mhlw.go.jp/15/index.php?action_kouhyou_detail_004_kani=true&JigyosyoCd=1552580027-00&ServiceCd=220&Type=search", "url2": "http://www.aiko.or.jp/" }, "geometry": { "type": "Point", "coordinates": [ 139.409089900000026, 38.0915792 ] } },
{ "type": "Feature", "properties": { "内容": "介護老人保健施設　汐彩の郷【短期入所療養介護（介護老人保健施設）】新潟県北蒲原郡聖籠町大字次第浜５３７２番地", "url": "https://www.kaigokensaku.mhlw.go.jp/15/index.php?action_kouhyou_detail_004_kani=true&JigyosyoCd=1555080066-00&ServiceCd=220&Type=search", "url2": "https://www.hakuaijinshikai.com/" }, "geometry": { "type": "Point", "coordinates": [ 139.274951157845692, 38.018578409812754 ] } },
{ "type": "Feature", "properties": { "内容": "介護老人保健施設三川しんあい園【短期入所療養介護（介護老人保健施設）】新潟県東蒲原郡阿賀町あが野南4324-2", "url": "https://www.kaigokensaku.mhlw.go.jp/15/index.php?action_kouhyou_detail_004_kani=true&JigyosyoCd=1555480019-00&ServiceCd=220&Type=search", "url2": "https://sin-ai.jp/care_mkw/" }, "geometry": { "type": "Point", "coordinates": [ 139.3675938, 37.7086858 ] } },
{ "type": "Feature", "properties": { "内容": "介護老人保健施設　関川愛広苑【短期入所療養介護（介護老人保健施設）】新潟県岩船郡関川村大字湯沢728-7", "url": "https://www.kaigokensaku.mhlw.go.jp/15/index.php?action_kouhyou_detail_004_kani=true&JigyosyoCd=1556480018-00&ServiceCd=220&Type=search", "url2": "http://www.aiko.or.jp/" }, "geometry": { "type": "Point", "coordinates": [ 139.5751553, 38.094339 ] } }
]
}
