{
"type": "FeatureCollection",
"name": "geo_15_特定施設入居者生活介護（有料老人ホーム）",
"crs": { "type": "name", "properties": { "name": "urn:ogc:def:crs:OGC:1.3:CRS84" } },
"features": [
{ "type": "Feature", "properties": { "内容": "介護付きホーム木崎愛宕の園【特定施設入居者生活介護（有料老人ホーム）】新潟県新潟市北区木崎７９４番地１", "url2": "https://www.kaigokensaku.mhlw.go.jp/15/index.php?action_kouhyou_detail_004_kani=true&JigyosyoCd=1570116374-00&ServiceCd=331&Type=search" }, "geometry": { "type": "Point", "coordinates": [ 139.175445599999989, 37.9327245 ] } },
{ "type": "Feature", "properties": { "内容": "介護付有料老人ホーム河渡の郷【特定施設入居者生活介護（有料老人ホーム）】新潟県新潟市東区河渡2丁目4番65号", "url2": "https://www.kaigokensaku.mhlw.go.jp/15/index.php?action_kouhyou_detail_004_kani=true&JigyosyoCd=1570107134-00&ServiceCd=331&Type=search" }, "geometry": { "type": "Point", "coordinates": [ 139.098662, 37.9364232 ] } },
{ "type": "Feature", "properties": { "内容": "介護付有料老人ホーム　愛広苑参番館【特定施設入居者生活介護（有料老人ホーム）】新潟市東区有楽2-13-8", "url2": "https://www.kaigokensaku.mhlw.go.jp/15/index.php?action_kouhyou_detail_004_kani=true&JigyosyoCd=1570115442-00&ServiceCd=331&Type=search" }, "geometry": { "type": "Point", "coordinates": [ 139.110159888499453, 37.938297587668131 ] } },
{ "type": "Feature", "properties": { "内容": "アーバンリビング鳥屋野【特定施設入居者生活介護（有料老人ホーム）】新潟県新潟市中央区小張木1丁目4番5号", "url2": "https://www.kaigokensaku.mhlw.go.jp/15/index.php?action_kouhyou_detail_004_kani=true&JigyosyoCd=1570116671-00&ServiceCd=331&Type=search" }, "geometry": { "type": "Point", "coordinates": [ 139.04715269999997, 37.887646699999976 ] } },
{ "type": "Feature", "properties": { "内容": "有料老人ホーム　サン・ソフィア新潟【特定施設入居者生活介護（有料老人ホーム）】新潟県新潟市中央区弁天3丁目1番16号", "url2": "https://www.kaigokensaku.mhlw.go.jp/15/index.php?action_kouhyou_detail_004_kani=true&JigyosyoCd=1570102853-00&ServiceCd=331&Type=search" }, "geometry": { "type": "Point", "coordinates": [ 139.058250199999947, 37.912243300000014 ] } },
{ "type": "Feature", "properties": { "内容": "介護付有料老人ホーム　愛広苑壱番館【特定施設入居者生活介護（有料老人ホーム）】新潟市中央区田町１丁目３２３９－１", "url2": "https://www.kaigokensaku.mhlw.go.jp/15/index.php?action_kouhyou_detail_004_kani=true&JigyosyoCd=1570109080-00&ServiceCd=331&Type=search" }, "geometry": { "type": "Point", "coordinates": [ 139.052621700000032, 37.9316631 ] } },
{ "type": "Feature", "properties": { "内容": "さわやか日の出館【特定施設入居者生活介護（有料老人ホーム）】新潟県新潟市中央区日の出2丁目2番33号", "url2": "https://www.kaigokensaku.mhlw.go.jp/15/index.php?action_kouhyou_detail_004_kani=true&JigyosyoCd=1570110344-00&ServiceCd=331&Type=search" }, "geometry": { "type": "Point", "coordinates": [ 139.075701200000026, 37.919318300000029 ] } },
{ "type": "Feature", "properties": { "内容": "さわやかみなと館【特定施設入居者生活介護（有料老人ホーム）】新潟県新潟市中央区古町通十三番町５１５５-3", "url2": "https://www.kaigokensaku.mhlw.go.jp/15/index.php?action_kouhyou_detail_004_kani=true&JigyosyoCd=1570110393-00&ServiceCd=331&Type=search" }, "geometry": { "type": "Point", "coordinates": [ 139.044083600000022, 37.9308576 ] } },
{ "type": "Feature", "properties": { "内容": "サンライフ舞【特定施設入居者生活介護（有料老人ホーム）】新潟県新潟市江南区舞潟38番地", "url2": "https://www.kaigokensaku.mhlw.go.jp/15/index.php?action_kouhyou_detail_004_kani=true&JigyosyoCd=1570105351-00&ServiceCd=331&Type=search" }, "geometry": { "type": "Point", "coordinates": [ 139.04109312209016, 37.842750266746634 ] } },
{ "type": "Feature", "properties": { "内容": "有料老人ホーム　ハートフルケア　亀田向陽【特定施設入居者生活介護（有料老人ホーム）】新潟県新潟市江南区亀田向陽１丁目８番７号", "url2": "https://www.kaigokensaku.mhlw.go.jp/15/index.php?action_kouhyou_detail_004_kani=true&JigyosyoCd=1570106698-00&ServiceCd=331&Type=search" }, "geometry": { "type": "Point", "coordinates": [ 139.110133799999971, 37.8767766 ] } },
{ "type": "Feature", "properties": { "内容": "きらら　ふれあいの杜【特定施設入居者生活介護（有料老人ホーム）】新潟県新潟市江南区平賀194-1", "url2": "https://www.kaigokensaku.mhlw.go.jp/15/index.php?action_kouhyou_detail_004_kani=true&JigyosyoCd=1570109163-00&ServiceCd=331&Type=search" }, "geometry": { "type": "Point", "coordinates": [ 139.03921, 37.8461647 ] } },
{ "type": "Feature", "properties": { "内容": "はあとふるあたご介護付有料老人ホームおぎかわ【特定施設入居者生活介護（有料老人ホーム）】新潟県新潟市秋葉区車場897番地1", "url2": "https://www.kaigokensaku.mhlw.go.jp/15/index.php?action_kouhyou_detail_004_kani=true&JigyosyoCd=1570115673-00&ServiceCd=331&Type=search" }, "geometry": { "type": "Point", "coordinates": [ 139.099636907548529, 37.834713030329688 ] } },
{ "type": "Feature", "properties": { "内容": "ハートフルケア白根【特定施設入居者生活介護（有料老人ホーム）】新潟県新潟市南区七軒227-6", "url2": "https://www.kaigokensaku.mhlw.go.jp/15/index.php?action_kouhyou_detail_004_kani=true&JigyosyoCd=1570116317-00&ServiceCd=331&Type=search" }, "geometry": { "type": "Point", "coordinates": [ 139.015580187765181, 37.771915927507266 ] } },
{ "type": "Feature", "properties": { "内容": "有料老人ホーム　ハートフルケア新通【特定施設入居者生活介護（有料老人ホーム）】新潟県新潟市西区新通南3丁目14番3号", "url2": "https://www.kaigokensaku.mhlw.go.jp/15/index.php?action_kouhyou_detail_004_kani=true&JigyosyoCd=1570103315-00&ServiceCd=331&Type=search" }, "geometry": { "type": "Point", "coordinates": [ 138.9550242, 37.8576541 ] } },
{ "type": "Feature", "properties": { "内容": "介護付有料老人ホーム　サンヒルズ青山【特定施設入居者生活介護（有料老人ホーム）】新潟県新潟市西区青山8-2-55", "url2": "https://www.kaigokensaku.mhlw.go.jp/15/index.php?action_kouhyou_detail_004_kani=true&JigyosyoCd=1570108447-00&ServiceCd=331&Type=search" }, "geometry": { "type": "Point", "coordinates": [ 138.996008299999971, 37.8989569 ] } },
{ "type": "Feature", "properties": { "内容": "介護付有料老人ホーム　サンロイヤル新潟【特定施設入居者生活介護（有料老人ホーム）】新潟県新潟市西区小新1083番地1", "url2": "https://www.kaigokensaku.mhlw.go.jp/15/index.php?action_kouhyou_detail_004_kani=true&JigyosyoCd=1570109031-00&ServiceCd=331&Type=search" }, "geometry": { "type": "Point", "coordinates": [ 138.995937300000037, 37.8788095 ] } },
{ "type": "Feature", "properties": { "内容": "介護付き有料老人ホームこころはす旗屋【特定施設入居者生活介護（有料老人ホーム）】新潟市西蒲区695番地", "url2": "https://www.kaigokensaku.mhlw.go.jp/15/index.php?action_kouhyou_detail_004_kani=true&JigyosyoCd=1570116218-00&ServiceCd=331&Type=search" }, "geometry": { "type": "Point", "coordinates": [ 138.908223099999987, 37.7477651 ] } },
{ "type": "Feature", "properties": { "内容": "グッドエイジングクラブ古正寺の杜【特定施設入居者生活介護（有料老人ホーム）】新潟県長岡市寺島町718番地", "url2": "https://www.kaigokensaku.mhlw.go.jp/15/index.php?action_kouhyou_detail_004_kani=true&JigyosyoCd=1570201804-00&ServiceCd=331&Type=search" }, "geometry": { "type": "Point", "coordinates": [ 138.823923899999954, 37.4604322 ] } },
{ "type": "Feature", "properties": { "内容": "介護付（混合型）有料老人ホームアシスト笹崎【特定施設入居者生活介護（有料老人ホーム）】新潟県長岡市笹崎2-2-11", "url2": "https://www.kaigokensaku.mhlw.go.jp/15/index.php?action_kouhyou_detail_004_kani=true&JigyosyoCd=1570202877-00&ServiceCd=331&Type=search" }, "geometry": { "type": "Point", "coordinates": [ 138.848203199999944, 37.4278866 ] } },
{ "type": "Feature", "properties": { "内容": "アダージョ福住【特定施設入居者生活介護（有料老人ホーム）】新潟県長岡市福住１－５－３", "url2": "https://www.kaigokensaku.mhlw.go.jp/15/index.php?action_kouhyou_detail_004_kani=true&JigyosyoCd=1570202919-00&ServiceCd=331&Type=search" }, "geometry": { "type": "Point", "coordinates": [ 138.8558349, 37.44949 ] } },
{ "type": "Feature", "properties": { "内容": "スマイルハウス　みどりの杜【特定施設入居者生活介護（有料老人ホーム）】新潟県長岡市小曽根町９１９番地１", "url2": "https://www.kaigokensaku.mhlw.go.jp/15/index.php?action_kouhyou_detail_004_kani=true&JigyosyoCd=1570203115-00&ServiceCd=331&Type=search" }, "geometry": { "type": "Point", "coordinates": [ 138.880617600000051, 37.4650131 ] } },
{ "type": "Feature", "properties": { "内容": "ハートフルケア長岡美沢　しなの館【特定施設入居者生活介護（有料老人ホーム）】新潟県長岡市美沢1-28-1", "url2": "https://www.kaigokensaku.mhlw.go.jp/15/index.php?action_kouhyou_detail_004_kani=true&JigyosyoCd=1570203073-00&ServiceCd=331&Type=search" }, "geometry": { "type": "Point", "coordinates": [ 138.86682, 37.4391023 ] } },
{ "type": "Feature", "properties": { "内容": "フレンドリーハウス　みどりの杜【特定施設入居者生活介護（有料老人ホーム）】新潟県長岡市宮本町1丁目甲11番1フレンドリーハウス　みどりの杜", "url2": "https://www.kaigokensaku.mhlw.go.jp/15/index.php?action_kouhyou_detail_004_kani=true&JigyosyoCd=1570203578-00&ServiceCd=331&Type=search" }, "geometry": { "type": "Point", "coordinates": [ 138.744547849598689, 37.450759510793411 ] } },
{ "type": "Feature", "properties": { "内容": "介護付有料老人ホーム　ナーシングホーム長岡北【特定施設入居者生活介護（有料老人ホーム）】新潟県長岡市琴平1丁目2番地5号", "url2": "https://www.kaigokensaku.mhlw.go.jp/15/index.php?action_kouhyou_detail_004_kani=true&JigyosyoCd=1570203586-00&ServiceCd=331&Type=search" }, "geometry": { "type": "Point", "coordinates": [ 138.863319899999965, 37.4593999 ] } },
{ "type": "Feature", "properties": { "内容": "有料老人ホーム福住【特定施設入居者生活介護（有料老人ホーム）】長岡市福住2-1-15", "url2": "https://www.kaigokensaku.mhlw.go.jp/15/index.php?action_kouhyou_detail_004_kani=true&JigyosyoCd=1570202885-00&ServiceCd=331&Type=search" }, "geometry": { "type": "Point", "coordinates": [ 138.8578291, 37.4514703 ] } },
{ "type": "Feature", "properties": { "内容": "ハートフルケア長岡美沢ゆうきゅう館【特定施設入居者生活介護（有料老人ホーム）】新潟県長岡市美沢１丁目２７－１", "url2": "https://www.kaigokensaku.mhlw.go.jp/15/index.php?action_kouhyou_detail_004_kani=true&JigyosyoCd=1570203008-00&ServiceCd=331&Type=search" }, "geometry": { "type": "Point", "coordinates": [ 138.8674727, 37.4390162 ] } },
{ "type": "Feature", "properties": { "内容": "きららふれあいの杜三条【特定施設入居者生活介護（有料老人ホーム）】新潟県三条市曲渕三丁目３番２０号きららふれあいの杜三条", "url2": "https://www.kaigokensaku.mhlw.go.jp/15/index.php?action_kouhyou_detail_004_kani=true&JigyosyoCd=1570401818-00&ServiceCd=331&Type=search" }, "geometry": { "type": "Point", "coordinates": [ 138.964931747360254, 37.616949092056473 ] } },
{ "type": "Feature", "properties": { "内容": "介護付有料老人ホームアザレア三条【特定施設入居者生活介護（有料老人ホーム）】新潟県三条市諏訪３丁目３番４５号", "url2": "https://www.kaigokensaku.mhlw.go.jp/15/index.php?action_kouhyou_detail_004_kani=true&JigyosyoCd=1570401974-00&ServiceCd=331&Type=search" }, "geometry": { "type": "Point", "coordinates": [ 138.981998239811702, 37.614898319089747 ] } },
{ "type": "Feature", "properties": { "内容": "はなことば柏崎【特定施設入居者生活介護（有料老人ホーム）】新潟県柏崎市春日2丁目6-1-11", "url2": "https://www.kaigokensaku.mhlw.go.jp/15/index.php?action_kouhyou_detail_004_kani=true&JigyosyoCd=1570501351-00&ServiceCd=331&Type=search" }, "geometry": { "type": "Point", "coordinates": [ 138.57028470000003, 37.382557200000015 ] } },
{ "type": "Feature", "properties": { "内容": "ロージィ・コート柏崎【特定施設入居者生活介護（有料老人ホーム）】新潟県柏崎市三和町6番43号", "url2": "https://www.kaigokensaku.mhlw.go.jp/15/index.php?action_kouhyou_detail_004_kani=true&JigyosyoCd=1570500692-00&ServiceCd=331&Type=search" }, "geometry": { "type": "Point", "coordinates": [ 138.580325600000037, 37.3670373 ] } },
{ "type": "Feature", "properties": { "内容": "ハートフルケア柏崎【特定施設入居者生活介護（有料老人ホーム）】新潟県柏崎市大字古町725番地", "url2": "https://www.kaigokensaku.mhlw.go.jp/15/index.php?action_kouhyou_detail_004_kani=true&JigyosyoCd=1570501179-00&ServiceCd=331&Type=search" }, "geometry": { "type": "Point", "coordinates": [ 138.576777551664264, 37.309001573119794 ] } },
{ "type": "Feature", "properties": { "内容": "特定施設入所者生活介護　桜寿【特定施設入居者生活介護（有料老人ホーム）】新潟県柏崎市新赤坂４丁目１０番５号", "url2": "https://www.kaigokensaku.mhlw.go.jp/15/index.php?action_kouhyou_detail_004_kani=true&JigyosyoCd=1570500536-00&ServiceCd=331&Type=search" }, "geometry": { "type": "Point", "coordinates": [ 138.53170840000007, 37.356001 ] } },
{ "type": "Feature", "properties": { "内容": "介護付有料老人ホーム　えみふる【特定施設入居者生活介護（有料老人ホーム）】新潟県柏崎市東本町２丁目５番１６号", "url2": "https://www.kaigokensaku.mhlw.go.jp/15/index.php?action_kouhyou_detail_004_kani=true&JigyosyoCd=1570500940-00&ServiceCd=331&Type=search" }, "geometry": { "type": "Point", "coordinates": [ 138.558344799999986, 37.3695502 ] } },
{ "type": "Feature", "properties": { "内容": "駅前桜寿【特定施設入居者生活介護（有料老人ホーム）】新潟県柏崎市駅前２－１－３５", "url2": "https://www.kaigokensaku.mhlw.go.jp/15/index.php?action_kouhyou_detail_004_kani=true&JigyosyoCd=1570500858-00&ServiceCd=331&Type=search" }, "geometry": { "type": "Point", "coordinates": [ 138.553003699999977, 37.3669726 ] } },
{ "type": "Feature", "properties": { "内容": "介護付有料老人ホーム那由多の家【特定施設入居者生活介護（有料老人ホーム）】新潟県小千谷市3622", "url2": "https://www.kaigokensaku.mhlw.go.jp/15/index.php?action_kouhyou_detail_004_kani=true&JigyosyoCd=1570800639-00&ServiceCd=331&Type=search" }, "geometry": { "type": "Point", "coordinates": [ 138.773518852804727, 37.336839122369035 ] } },
{ "type": "Feature", "properties": { "内容": "有料老人ホーム　つばきの郷【特定施設入居者生活介護（有料老人ホーム）】新潟県見附市椿沢町1825-1", "url2": "https://www.kaigokensaku.mhlw.go.jp/15/index.php?action_kouhyou_detail_004_kani=true&JigyosyoCd=1571100443-00&ServiceCd=331&Type=search" }, "geometry": { "type": "Point", "coordinates": [ 138.92596215975496, 37.492515912616874 ] } },
{ "type": "Feature", "properties": { "内容": "ハートフルケア見附【特定施設入居者生活介護（有料老人ホーム）】見附市本所1-17-32", "url2": "https://www.kaigokensaku.mhlw.go.jp/15/index.php?action_kouhyou_detail_004_kani=true&JigyosyoCd=1571100559-00&ServiceCd=331&Type=search" }, "geometry": { "type": "Point", "coordinates": [ 138.9056587, 37.5369921 ] } },
{ "type": "Feature", "properties": { "内容": "介護付有料老人ホーム　ロングライフあいこう燕【特定施設入居者生活介護（有料老人ホーム）】新潟県燕市小高１１４８", "url2": "https://www.kaigokensaku.mhlw.go.jp/15/index.php?action_kouhyou_detail_004_kani=true&JigyosyoCd=1571300803-00&ServiceCd=331&Type=search" }, "geometry": { "type": "Point", "coordinates": [ 138.9417373, 37.6640363 ] } },
{ "type": "Feature", "properties": { "内容": "ニチイケアセンター燕【特定施設入居者生活介護（有料老人ホーム）】新潟県燕市杣木810番地", "url2": "https://www.kaigokensaku.mhlw.go.jp/15/index.php?action_kouhyou_detail_004_kani=true&JigyosyoCd=1571300829-00&ServiceCd=331&Type=search" }, "geometry": { "type": "Point", "coordinates": [ 138.9261328, 37.6732735 ] } },
{ "type": "Feature", "properties": { "内容": "はなことば妙高【特定施設入居者生活介護（有料老人ホーム）】新潟県妙高市栄町１番10号", "url2": "https://www.kaigokensaku.mhlw.go.jp/15/index.php?action_kouhyou_detail_004_kani=true&JigyosyoCd=1571600780-00&ServiceCd=331&Type=search" }, "geometry": { "type": "Point", "coordinates": [ 138.255062100000032, 37.0258807 ] } },
{ "type": "Feature", "properties": { "内容": "きららふれあいの杜上越【特定施設入居者生活介護（有料老人ホーム）】新潟県上越市頸城区西福島944番地1", "url2": "https://www.kaigokensaku.mhlw.go.jp/15/index.php?action_kouhyou_detail_004_kani=true&JigyosyoCd=1570303501-00&ServiceCd=331&Type=search" }, "geometry": { "type": "Point", "coordinates": [ 138.275396472074959, 37.181206339144111 ] } },
{ "type": "Feature", "properties": { "内容": "有料老人ホーム　ハートフルケア上越高田【特定施設入居者生活介護（有料老人ホーム）】上越市上中田１１３９番地２", "url2": "https://www.kaigokensaku.mhlw.go.jp/15/index.php?action_kouhyou_detail_004_kani=true&JigyosyoCd=1570302586-00&ServiceCd=331&Type=search" }, "geometry": { "type": "Point", "coordinates": [ 138.239452423160827, 37.093356503928959 ] } },
{ "type": "Feature", "properties": { "内容": "介護付有料老人ホーム　サンクス高田【特定施設入居者生活介護（有料老人ホーム）】新潟県上越市寺町3丁目10-11介護付き有料老人ホ－ム　サンクス高田", "url2": "https://www.kaigokensaku.mhlw.go.jp/15/index.php?action_kouhyou_detail_004_kani=true&JigyosyoCd=1570302172-00&ServiceCd=331&Type=search" }, "geometry": { "type": "Point", "coordinates": [ 138.24177462579496, 37.11751965547267 ] } },
{ "type": "Feature", "properties": { "内容": "スローライフ　もんぜん【特定施設入居者生活介護（有料老人ホーム）】新潟県上越市下門前1910番地", "url2": "https://www.kaigokensaku.mhlw.go.jp/15/index.php?action_kouhyou_detail_004_kani=true&JigyosyoCd=1570302594-00&ServiceCd=331&Type=search" }, "geometry": { "type": "Point", "coordinates": [ 138.255200771688806, 37.159215066409075 ] } },
{ "type": "Feature", "properties": { "内容": "ツクイ・サンシャイン上越【特定施設入居者生活介護（有料老人ホーム）】上越市五智2丁目1番1号", "url2": "https://www.kaigokensaku.mhlw.go.jp/15/index.php?action_kouhyou_detail_004_kani=true&JigyosyoCd=1570302685-00&ServiceCd=331&Type=search" }, "geometry": { "type": "Point", "coordinates": [ 138.2334793, 37.1716198 ] } },
{ "type": "Feature", "properties": { "内容": "ウェルハート阿賀野【特定施設入居者生活介護（有料老人ホーム）】新潟県阿賀野市上中93番地", "url2": "https://www.kaigokensaku.mhlw.go.jp/15/index.php?action_kouhyou_detail_004_kani=true&JigyosyoCd=1572100772-00&ServiceCd=331&Type=search" }, "geometry": { "type": "Point", "coordinates": [ 139.227908299999967, 37.8209499 ] } },
{ "type": "Feature", "properties": { "内容": "介護付有料老人ホーム悠々の杜【特定施設入居者生活介護（有料老人ホーム）】新潟県南魚沼市坂戸6-3", "url2": "https://www.kaigokensaku.mhlw.go.jp/15/index.php?action_kouhyou_detail_004_kani=true&JigyosyoCd=1572400875-00&ServiceCd=331&Type=search" }, "geometry": { "type": "Point", "coordinates": [ 138.88231989999997, 37.0593255 ] } },
{ "type": "Feature", "properties": { "内容": "ウェルハート加治川の里【特定施設入居者生活介護（有料老人ホーム）】北蒲原郡聖籠町大字次第浜5407番地", "url2": "https://www.kaigokensaku.mhlw.go.jp/15/index.php?action_kouhyou_detail_004_kani=true&JigyosyoCd=1575001076-00&ServiceCd=331&Type=search" }, "geometry": { "type": "Point", "coordinates": [ 139.276804837434412, 38.01818405513341 ] } },
{ "type": "Feature", "properties": { "内容": "介護付有料老人ホームゆとり【特定施設入居者生活介護（有料老人ホーム）】新潟県南蒲原郡田上町大字川船河97番地1", "url2": "https://www.kaigokensaku.mhlw.go.jp/15/index.php?action_kouhyou_detail_004_kani=true&JigyosyoCd=1575300353-00&ServiceCd=331&Type=search" }, "geometry": { "type": "Point", "coordinates": [ 139.056368199999952, 37.6800007 ] } }
]
}
