{
"type": "FeatureCollection",
"name": "geo_15_福祉用具貸与",
"crs": { "type": "name", "properties": { "name": "urn:ogc:def:crs:OGC:1.3:CRS84" } },
"features": [
{ "type": "Feature", "properties": { "内容": "株式会社　ケアサポート新潟【福祉用具貸与】新潟県新潟市北区白新町3丁目4番15号サンプラザビル１F", "url2": "https://www.kaigokensaku.mhlw.go.jp/15/index.php?action_kouhyou_detail_004_kani=true&JigyosyoCd=1570104115-00&ServiceCd=170&Type=search" }, "geometry": { "type": "Point", "coordinates": [ 139.214539599999966, 37.9151702 ] } },
{ "type": "Feature", "properties": { "内容": "ヒロセの介護【福祉用具貸与】新潟県新潟市北区北陽2丁目770-72", "url2": "https://www.kaigokensaku.mhlw.go.jp/15/index.php?action_kouhyou_detail_004_kani=true&JigyosyoCd=1570109882-00&ServiceCd=170&Type=search" }, "geometry": { "type": "Point", "coordinates": [ 139.186415500000066, 37.9429038 ] } },
{ "type": "Feature", "properties": { "内容": "アレック北栄　新潟東【福祉用具貸与】新潟県新潟市東区船江町2丁目5番15号", "url2": "https://www.kaigokensaku.mhlw.go.jp/15/index.php?action_kouhyou_detail_004_kani=true&JigyosyoCd=1570101004-00&ServiceCd=170&Type=search" }, "geometry": { "type": "Point", "coordinates": [ 139.098411400000032, 37.9538855 ] } },
{ "type": "Feature", "properties": { "内容": "シルバーサポート新潟店【福祉用具貸与】新潟県新潟市東区紫竹卸新町1998－1", "url2": "https://www.kaigokensaku.mhlw.go.jp/15/index.php?action_kouhyou_detail_004_kani=true&JigyosyoCd=1570101319-00&ServiceCd=170&Type=search" }, "geometry": { "type": "Point", "coordinates": [ 139.0889403, 37.9060839 ] } },
{ "type": "Feature", "properties": { "内容": "新潟県基準寝具株式会社【福祉用具貸与】新潟県新潟市東区中木戸382番地", "url2": "https://www.kaigokensaku.mhlw.go.jp/15/index.php?action_kouhyou_detail_004_kani=true&JigyosyoCd=1570100659-00&ServiceCd=170&Type=search" }, "geometry": { "type": "Point", "coordinates": [ 139.096871100000044, 37.92774330000001 ] } },
{ "type": "Feature", "properties": { "内容": "はあとふるあたご福祉用具新潟東【福祉用具貸与】新潟県新潟市東区海老ケ瀬987-1", "url2": "https://www.kaigokensaku.mhlw.go.jp/15/index.php?action_kouhyou_detail_004_kani=true&JigyosyoCd=1570102614-00&ServiceCd=170&Type=search" }, "geometry": { "type": "Point", "coordinates": [ 139.122671699999955, 37.9339074 ] } },
{ "type": "Feature", "properties": { "内容": "株式会社メディカルライフ【福祉用具貸与】新潟県新潟市東区中島2丁目1番16号グリーンハウス1階", "url2": "https://www.kaigokensaku.mhlw.go.jp/15/index.php?action_kouhyou_detail_004_kani=true&JigyosyoCd=1570102754-00&ServiceCd=170&Type=search" }, "geometry": { "type": "Point", "coordinates": [ 139.110458867189436, 37.908949368123643 ] } },
{ "type": "Feature", "properties": { "内容": "太陽【福祉用具貸与】新潟県新潟市東区牡丹山５丁目１８番１８号サンパレス１０１号室", "url2": "https://www.kaigokensaku.mhlw.go.jp/15/index.php?action_kouhyou_detail_004_kani=true&JigyosyoCd=1570115517-00&ServiceCd=170&Type=search" }, "geometry": { "type": "Point", "coordinates": [ 139.0982704, 37.9201801 ] } },
{ "type": "Feature", "properties": { "内容": "プレイスメントサービス【福祉用具貸与】新潟県新潟市東区江南4丁目2番地11", "url2": "https://www.kaigokensaku.mhlw.go.jp/15/index.php?action_kouhyou_detail_004_kani=true&JigyosyoCd=1570108199-00&ServiceCd=170&Type=search" }, "geometry": { "type": "Point", "coordinates": [ 139.082058107409722, 37.905322026504798 ] } },
{ "type": "Feature", "properties": { "内容": "SOMPOケア　新潟　福祉用具【福祉用具貸与】新潟県新潟市東区紫竹5丁目26番1号2階", "url2": "https://www.kaigokensaku.mhlw.go.jp/15/index.php?action_kouhyou_detail_004_kani=true&JigyosyoCd=1570114437-00&ServiceCd=170&Type=search" }, "geometry": { "type": "Point", "coordinates": [ 139.081133679498635, 37.906232107416542 ] } },
{ "type": "Feature", "properties": { "内容": "さくらメディカル株式会社　新潟東営業所【福祉用具貸与】新潟県新潟市東区竹尾2-19-7", "url2": "https://www.kaigokensaku.mhlw.go.jp/15/index.php?action_kouhyou_detail_004_kani=true&JigyosyoCd=1570116002-00&ServiceCd=170&Type=search" }, "geometry": { "type": "Point", "coordinates": [ 139.090675500000032, 37.9115966 ] } },
{ "type": "Feature", "properties": { "内容": "バイタルケア新潟介護ショップ【福祉用具貸与】新潟県新潟市中央区川岸町２－８－２", "url2": "https://www.kaigokensaku.mhlw.go.jp/15/index.php?action_kouhyou_detail_004_kani=true&JigyosyoCd=1570105492-00&ServiceCd=170&Type=search" }, "geometry": { "type": "Point", "coordinates": [ 139.03059548650819, 37.910189061957169 ] } },
{ "type": "Feature", "properties": { "内容": "パナソニックエイジフリーショップ新潟【福祉用具貸与】新潟県新潟市中央区弁天橋通1-31-12", "url2": "https://www.kaigokensaku.mhlw.go.jp/15/index.php?action_kouhyou_detail_004_kani=true&JigyosyoCd=1570109627-00&ServiceCd=170&Type=search" }, "geometry": { "type": "Point", "coordinates": [ 139.070202091110332, 37.895892555900019 ] } },
{ "type": "Feature", "properties": { "内容": "常陽会福祉用具サービス【福祉用具貸与】新潟県新潟市中央区南長潟8番12号北越農林2階", "url2": "https://www.kaigokensaku.mhlw.go.jp/15/index.php?action_kouhyou_detail_004_kani=true&JigyosyoCd=1570115038-00&ServiceCd=170&Type=search" }, "geometry": { "type": "Point", "coordinates": [ 139.073981300000014, 37.8843808 ] } },
{ "type": "Feature", "properties": { "内容": "ケアワークサポート新潟【福祉用具貸与】新潟県新潟市中央区沼垂東5-7-4", "url2": "https://www.kaigokensaku.mhlw.go.jp/15/index.php?action_kouhyou_detail_004_kani=true&JigyosyoCd=1570115491-00&ServiceCd=170&Type=search" }, "geometry": { "type": "Point", "coordinates": [ 139.067704757672118, 37.924606352840442 ] } },
{ "type": "Feature", "properties": { "内容": "フランスベッド株式会社メディカル新潟営業所【福祉用具貸与】新潟県新潟市中央区南出来島1丁目4番1号", "url2": "https://www.kaigokensaku.mhlw.go.jp/15/index.php?action_kouhyou_detail_004_kani=true&JigyosyoCd=1570108561-00&ServiceCd=170&Type=search" }, "geometry": { "type": "Point", "coordinates": [ 139.028889, 37.8961889 ] } },
{ "type": "Feature", "properties": { "内容": "さくらメディカル株式会社　新潟支店【福祉用具貸与】新潟県新潟市中央区上沼710番地", "url2": "https://www.kaigokensaku.mhlw.go.jp/15/index.php?action_kouhyou_detail_004_kani=true&JigyosyoCd=1570101780-00&ServiceCd=170&Type=search" }, "geometry": { "type": "Point", "coordinates": [ 139.036508599999934, 37.883049300000025 ] } },
{ "type": "Feature", "properties": { "内容": "株式会社スリーピース【福祉用具貸与】新潟県新潟市中央区女池南1-5-21クレアール桜木１F", "url2": "https://www.kaigokensaku.mhlw.go.jp/15/index.php?action_kouhyou_detail_004_kani=true&JigyosyoCd=1570110575-00&ServiceCd=170&Type=search" }, "geometry": { "type": "Point", "coordinates": [ 139.048636238083645, 37.893772019876238 ] } },
{ "type": "Feature", "properties": { "内容": "あおやまメディカル株式会社【福祉用具貸与】新潟県新潟市中央区湖南27－7", "url2": "https://www.kaigokensaku.mhlw.go.jp/15/index.php?action_kouhyou_detail_004_kani=true&JigyosyoCd=1570101012-00&ServiceCd=170&Type=search" }, "geometry": { "type": "Point", "coordinates": [ 139.041833600000018, 37.8732256 ] } },
{ "type": "Feature", "properties": { "内容": "株式会社フロンティア新潟営業所【福祉用具貸与】新潟県新潟市中央区鳥屋野南3-12-20", "url2": "https://www.kaigokensaku.mhlw.go.jp/15/index.php?action_kouhyou_detail_004_kani=true&JigyosyoCd=1570111516-00&ServiceCd=170&Type=search" }, "geometry": { "type": "Point", "coordinates": [ 139.028843850926251, 37.884948093908328 ] } },
{ "type": "Feature", "properties": { "内容": "ロングライフ用具サポート【福祉用具貸与】新潟県新潟市中央区有明大橋町3番25号NIC有明ビル2階", "url2": "https://www.kaigokensaku.mhlw.go.jp/15/index.php?action_kouhyou_detail_004_kani=true&JigyosyoCd=1570113314-00&ServiceCd=170&Type=search" }, "geometry": { "type": "Point", "coordinates": [ 139.011438203523198, 37.904630739436719 ] } },
{ "type": "Feature", "properties": { "内容": "はあとふるあたご　福祉用具新潟中央【福祉用具貸与】新潟県新潟市中央区下大川前通四ノ町2186番地", "url2": "https://www.kaigokensaku.mhlw.go.jp/15/index.php?action_kouhyou_detail_004_kani=true&JigyosyoCd=1570114858-00&ServiceCd=170&Type=search" }, "geometry": { "type": "Point", "coordinates": [ 139.052426571164006, 37.922722855170306 ] } },
{ "type": "Feature", "properties": { "内容": "株式会社エヌ介護サービス新潟センター【福祉用具貸与】新潟県新潟市中央区鳥屋野４６２番地２", "url2": "https://www.kaigokensaku.mhlw.go.jp/15/index.php?action_kouhyou_detail_004_kani=true&JigyosyoCd=1570116663-00&ServiceCd=170&Type=search" }, "geometry": { "type": "Point", "coordinates": [ 139.037911799999989, 37.8870638 ] } },
{ "type": "Feature", "properties": { "内容": "ダスキンヘルスレント新潟東ステーション【福祉用具貸与】新潟県新潟市中央区愛宕1-2-9", "url2": "https://www.kaigokensaku.mhlw.go.jp/15/index.php?action_kouhyou_detail_004_kani=true&JigyosyoCd=1570112472-00&ServiceCd=170&Type=search" }, "geometry": { "type": "Point", "coordinates": [ 139.028727509160149, 37.888212067556061 ] } },
{ "type": "Feature", "properties": { "内容": "シルバーサポート江南店【福祉用具貸与】新潟県新潟市江南区亀田四ツ興野2-3-1", "url2": "https://www.kaigokensaku.mhlw.go.jp/15/index.php?action_kouhyou_detail_004_kani=true&JigyosyoCd=1570104123-00&ServiceCd=170&Type=search" }, "geometry": { "type": "Point", "coordinates": [ 139.096549200000027, 37.8711126 ] } },
{ "type": "Feature", "properties": { "内容": "けんこうぷらん【福祉用具貸与】新潟県新潟市江南区下早通柳田2丁目2番17号", "url2": "https://www.kaigokensaku.mhlw.go.jp/15/index.php?action_kouhyou_detail_004_kani=true&JigyosyoCd=1570113942-00&ServiceCd=170&Type=search" }, "geometry": { "type": "Point", "coordinates": [ 139.078456, 37.875575500000039 ] } },
{ "type": "Feature", "properties": { "内容": "フジトモ株式会社【福祉用具貸与】新潟県新潟市江南区鍋潟新田1574番地", "url2": "https://www.kaigokensaku.mhlw.go.jp/15/index.php?action_kouhyou_detail_004_kani=true&JigyosyoCd=1570108785-00&ServiceCd=170&Type=search" }, "geometry": { "type": "Point", "coordinates": [ 139.055282499999947, 37.8718064 ] } },
{ "type": "Feature", "properties": { "内容": "有限会社　ケアサプライどりーむ【福祉用具貸与】新潟県新潟市秋葉区新津4442番地ニューハイツ藤1F", "url2": "https://www.kaigokensaku.mhlw.go.jp/15/index.php?action_kouhyou_detail_004_kani=true&JigyosyoCd=1570104107-00&ServiceCd=170&Type=search" }, "geometry": { "type": "Point", "coordinates": [ 139.1141063, 37.7940832 ] } },
{ "type": "Feature", "properties": { "内容": "株式会社　G・T・B【福祉用具貸与】新潟県新潟市秋葉区あおば通2丁目28番27号", "url2": "https://www.kaigokensaku.mhlw.go.jp/15/index.php?action_kouhyou_detail_004_kani=true&JigyosyoCd=1570109239-00&ServiceCd=170&Type=search" }, "geometry": { "type": "Point", "coordinates": [ 139.103863400000023, 37.837623 ] } },
{ "type": "Feature", "properties": { "内容": "福祉用具事業所すずらん【福祉用具貸与】新潟県新潟市秋葉区中野5-2-27", "url2": "https://www.kaigokensaku.mhlw.go.jp/15/index.php?action_kouhyou_detail_004_kani=true&JigyosyoCd=1570115426-00&ServiceCd=170&Type=search" }, "geometry": { "type": "Point", "coordinates": [ 139.1057552, 37.8328068 ] } },
{ "type": "Feature", "properties": { "内容": "シルバーサポート新潟南店【福祉用具貸与】新潟県新潟市秋葉区車場4-12-34クレール1", "url2": "https://www.kaigokensaku.mhlw.go.jp/15/index.php?action_kouhyou_detail_004_kani=true&JigyosyoCd=1570113371-00&ServiceCd=170&Type=search" }, "geometry": { "type": "Point", "coordinates": [ 139.10607170000003, 37.8334541 ] } },
{ "type": "Feature", "properties": { "内容": "うおのさぽーと【福祉用具貸与】新潟県新潟市秋葉区中野3丁目18番2号", "url2": "https://www.kaigokensaku.mhlw.go.jp/15/index.php?action_kouhyou_detail_004_kani=true&JigyosyoCd=1570113488-00&ServiceCd=170&Type=search" }, "geometry": { "type": "Point", "coordinates": [ 139.113063813491863, 37.835444536687135 ] } },
{ "type": "Feature", "properties": { "内容": "吉田薬品工業株式会社【福祉用具貸与】新潟県新潟市西区西小針台二丁目５番１号", "url2": "https://www.kaigokensaku.mhlw.go.jp/15/index.php?action_kouhyou_detail_004_kani=true&JigyosyoCd=1570108140-00&ServiceCd=170&Type=search" }, "geometry": { "type": "Point", "coordinates": [ 138.981163400000014, 37.8853137 ] } },
{ "type": "Feature", "properties": { "内容": "リハ道場福祉用具貸与販売事業所【福祉用具貸与】新潟県新潟市西区五十嵐2の町8718-34", "url2": "https://www.kaigokensaku.mhlw.go.jp/15/index.php?action_kouhyou_detail_004_kani=true&JigyosyoCd=1570113207-00&ServiceCd=170&Type=search" }, "geometry": { "type": "Point", "coordinates": [ 138.926306337220637, 37.864196467817507 ] } },
{ "type": "Feature", "properties": { "内容": "株式会社ケンブリッジ新潟営業所【福祉用具貸与】新潟県新潟市西区寺尾10-2", "url2": "https://www.kaigokensaku.mhlw.go.jp/15/index.php?action_kouhyou_detail_004_kani=true&JigyosyoCd=1570102358-00&ServiceCd=170&Type=search" }, "geometry": { "type": "Point", "coordinates": [ 138.979458300000033, 37.8807835 ] } },
{ "type": "Feature", "properties": { "内容": "株式会社サンバーストにいがた【福祉用具貸与】新潟県新潟市西区小新2151番地2", "url2": "https://www.kaigokensaku.mhlw.go.jp/15/index.php?action_kouhyou_detail_004_kani=true&JigyosyoCd=1570100634-00&ServiceCd=170&Type=search" }, "geometry": { "type": "Point", "coordinates": [ 138.984933, 37.8765203 ] } },
{ "type": "Feature", "properties": { "内容": "オレンジスマイル【福祉用具貸与】新潟県新潟市西区小新西２丁目４番１３号", "url2": "https://www.kaigokensaku.mhlw.go.jp/15/index.php?action_kouhyou_detail_004_kani=true&JigyosyoCd=1570111615-00&ServiceCd=170&Type=search" }, "geometry": { "type": "Point", "coordinates": [ 138.99191, 37.8769345 ] } },
{ "type": "Feature", "properties": { "内容": "うちの介護用品レンタル株式会社【福祉用具貸与】新潟県新潟市西区みずき野2丁目20番38号", "url2": "https://www.kaigokensaku.mhlw.go.jp/15/index.php?action_kouhyou_detail_004_kani=true&JigyosyoCd=1570113215-00&ServiceCd=170&Type=search" }, "geometry": { "type": "Point", "coordinates": [ 138.906753751923361, 37.814330310643513 ] } },
{ "type": "Feature", "properties": { "内容": "はあとふるあたご　福祉用具新潟西【福祉用具貸与】新潟県新潟市西区坂井2丁目2番32号", "url2": "https://www.kaigokensaku.mhlw.go.jp/15/index.php?action_kouhyou_detail_004_kani=true&JigyosyoCd=1570113397-00&ServiceCd=170&Type=search" }, "geometry": { "type": "Point", "coordinates": [ 138.977308766101032, 37.869953705645088 ] } },
{ "type": "Feature", "properties": { "内容": "ALPHASさわやか苑新潟福祉用具サービス【福祉用具貸与】新潟県新潟市西区緒立流通2丁目2-13", "url2": "https://www.kaigokensaku.mhlw.go.jp/15/index.php?action_kouhyou_detail_004_kani=true&JigyosyoCd=1570105930-00&ServiceCd=170&Type=search" }, "geometry": { "type": "Point", "coordinates": [ 138.986109962764374, 37.858500017278097 ] } },
{ "type": "Feature", "properties": { "内容": "株式会社アルプスビジネスクリエーション長岡店【福祉用具貸与】新潟県長岡市東蔵王2-3-20", "url2": "https://www.kaigokensaku.mhlw.go.jp/15/index.php?action_kouhyou_detail_004_kani=true&JigyosyoCd=1570203347-00&ServiceCd=170&Type=search" }, "geometry": { "type": "Point", "coordinates": [ 138.858482504100238, 37.47179888564667 ] } },
{ "type": "Feature", "properties": { "内容": "越後交通株式会社　介護事業部　長岡営業所【福祉用具貸与】新潟県長岡市東栄３丁目３番６号", "url2": "https://www.kaigokensaku.mhlw.go.jp/15/index.php?action_kouhyou_detail_004_kani=true&JigyosyoCd=1570203487-00&ServiceCd=170&Type=search" }, "geometry": { "type": "Point", "coordinates": [ 138.859217599999965, 37.459761 ] } },
{ "type": "Feature", "properties": { "内容": "クスリのみどり長岡営業所【福祉用具貸与】新潟県長岡市三和3-8-28", "url2": "https://www.kaigokensaku.mhlw.go.jp/15/index.php?action_kouhyou_detail_004_kani=true&JigyosyoCd=1570203958-00&ServiceCd=170&Type=search" }, "geometry": { "type": "Point", "coordinates": [ 138.837413199999986, 37.4324043 ] } },
{ "type": "Feature", "properties": { "内容": "株式会社フロンティア長岡営業所【福祉用具貸与】新潟県長岡市神田町2丁目1-6", "url2": "https://www.kaigokensaku.mhlw.go.jp/15/index.php?action_kouhyou_detail_004_kani=true&JigyosyoCd=1570203982-00&ServiceCd=170&Type=search" }, "geometry": { "type": "Point", "coordinates": [ 138.853688052114848, 37.455877052656717 ] } },
{ "type": "Feature", "properties": { "内容": "エフビー介護サービス株式会社長岡営業所【福祉用具貸与】長岡市高見町965-1", "url2": "https://www.kaigokensaku.mhlw.go.jp/15/index.php?action_kouhyou_detail_004_kani=true&JigyosyoCd=1570203719-00&ServiceCd=170&Type=search" }, "geometry": { "type": "Point", "coordinates": [ 138.860995699999989, 37.5005312 ] } },
{ "type": "Feature", "properties": { "内容": "アレック北栄　長岡【福祉用具貸与】新潟県長岡市雨池町44番地5", "url2": "https://www.kaigokensaku.mhlw.go.jp/15/index.php?action_kouhyou_detail_004_kani=true&JigyosyoCd=1570200251-00&ServiceCd=170&Type=search" }, "geometry": { "type": "Point", "coordinates": [ 138.8173825, 37.4679284 ] } },
{ "type": "Feature", "properties": { "内容": "ALPHASさわやか苑長岡福祉用具サービス【福祉用具貸与】長岡市緑町1-38-280緑町ビル2階　2-A号室", "url2": "https://www.kaigokensaku.mhlw.go.jp/15/index.php?action_kouhyou_detail_004_kani=true&JigyosyoCd=1570200202-00&ServiceCd=170&Type=search" }, "geometry": { "type": "Point", "coordinates": [ 138.822333100000037, 37.4486085 ] } },
{ "type": "Feature", "properties": { "内容": "株式会社悠久堂医科器械店【福祉用具貸与】新潟県長岡市石動南町8番地1", "url2": "https://www.kaigokensaku.mhlw.go.jp/15/index.php?action_kouhyou_detail_004_kani=true&JigyosyoCd=1570200368-00&ServiceCd=170&Type=search" }, "geometry": { "type": "Point", "coordinates": [ 138.793050799999946, 37.442473100000015 ] } },
{ "type": "Feature", "properties": { "内容": "さくらメディカル株式会社　長岡支店【福祉用具貸与】新潟県長岡市古正寺3-143", "url2": "https://www.kaigokensaku.mhlw.go.jp/15/index.php?action_kouhyou_detail_004_kani=true&JigyosyoCd=1570200806-00&ServiceCd=170&Type=search" }, "geometry": { "type": "Point", "coordinates": [ 138.821071500000016, 37.4594044 ] } },
{ "type": "Feature", "properties": { "内容": "ダスキンヘルスレント長岡ステーション【福祉用具貸与】新潟県長岡市西津町３８１１－２", "url2": "https://www.kaigokensaku.mhlw.go.jp/15/index.php?action_kouhyou_detail_004_kani=true&JigyosyoCd=1570201143-00&ServiceCd=170&Type=search" }, "geometry": { "type": "Point", "coordinates": [ 138.812490008242776, 37.450879725291351 ] } },
{ "type": "Feature", "properties": { "内容": "ラミコジャパン株式会社　シルバーサポート長岡店【福祉用具貸与】長岡市蓮潟町字五郎作428番7", "url2": "https://www.kaigokensaku.mhlw.go.jp/15/index.php?action_kouhyou_detail_004_kani=true&JigyosyoCd=1570201176-00&ServiceCd=170&Type=search" }, "geometry": { "type": "Point", "coordinates": [ 138.821008850235302, 37.473955038827448 ] } },
{ "type": "Feature", "properties": { "内容": "ALPHASさわやか苑県央福祉用具差サービス【福祉用具貸与】新潟県三条市北入蔵2丁目7番14号", "url2": "https://www.kaigokensaku.mhlw.go.jp/15/index.php?action_kouhyou_detail_004_kani=true&JigyosyoCd=1570401784-00&ServiceCd=170&Type=search" }, "geometry": { "type": "Point", "coordinates": [ 138.9855536, 37.6357077 ] } },
{ "type": "Feature", "properties": { "内容": "さくらメディカル株式会社　県央営業所【福祉用具貸与】新潟県三条市西裏館2丁目6番2号STビル", "url2": "https://www.kaigokensaku.mhlw.go.jp/15/index.php?action_kouhyou_detail_004_kani=true&JigyosyoCd=1570401461-00&ServiceCd=170&Type=search" }, "geometry": { "type": "Point", "coordinates": [ 138.954783308645716, 37.636050323417727 ] } },
{ "type": "Feature", "properties": { "内容": "株式会社アルプスビジネスクリエーション県央店【福祉用具貸与】三条市須頃1-8", "url2": "https://www.kaigokensaku.mhlw.go.jp/15/index.php?action_kouhyou_detail_004_kani=true&JigyosyoCd=1570401586-00&ServiceCd=170&Type=search" }, "geometry": { "type": "Point", "coordinates": [ 138.932847199999969, 37.6489795 ] } },
{ "type": "Feature", "properties": { "内容": "はあとふるあたご　福祉用具三条【福祉用具貸与】新潟県三条市西四日町3丁目4番5号", "url2": "https://www.kaigokensaku.mhlw.go.jp/15/index.php?action_kouhyou_detail_004_kani=true&JigyosyoCd=1570401883-00&ServiceCd=170&Type=search" }, "geometry": { "type": "Point", "coordinates": [ 138.951113, 37.6226782 ] } },
{ "type": "Feature", "properties": { "内容": "有限会社　家具のまるやま　三条営業所【福祉用具貸与】三条市今井野新田153", "url2": "https://www.kaigokensaku.mhlw.go.jp/15/index.php?action_kouhyou_detail_004_kani=true&JigyosyoCd=1570400364-00&ServiceCd=170&Type=search" }, "geometry": { "type": "Point", "coordinates": [ 138.931651099999954, 37.6251878 ] } },
{ "type": "Feature", "properties": { "内容": "ラミコジャパン株式会社　シルバーサポート三条店【福祉用具貸与】新潟県三条市三竹3丁目1-65", "url2": "https://www.kaigokensaku.mhlw.go.jp/15/index.php?action_kouhyou_detail_004_kani=true&JigyosyoCd=1571300266-00&ServiceCd=170&Type=search" }, "geometry": { "type": "Point", "coordinates": [ 138.980791270002811, 37.628896301106479 ] } },
{ "type": "Feature", "properties": { "内容": "シルバーサポートあすも【福祉用具貸与】新潟県三条市東裏館２丁目１３－１５", "url2": "https://www.kaigokensaku.mhlw.go.jp/15/index.php?action_kouhyou_detail_004_kani=true&JigyosyoCd=1571300845-00&ServiceCd=170&Type=search" }, "geometry": { "type": "Point", "coordinates": [ 138.9582699, 37.638201 ] } },
{ "type": "Feature", "properties": { "内容": "株式会社外山組福祉部　ライフケアふきのとう【福祉用具貸与】新潟県三条市島潟字大坪195番地１", "url2": "https://www.kaigokensaku.mhlw.go.jp/15/index.php?action_kouhyou_detail_004_kani=true&JigyosyoCd=1570401347-00&ServiceCd=170&Type=search" }, "geometry": { "type": "Point", "coordinates": [ 139.014142835373718, 37.590018084207422 ] } },
{ "type": "Feature", "properties": { "内容": "ダスキンヘルスレント新潟西ステーション【福祉用具貸与】新潟県三条市荒町２－２３－１４", "url2": "https://www.kaigokensaku.mhlw.go.jp/15/index.php?action_kouhyou_detail_004_kani=true&JigyosyoCd=1570401156-00&ServiceCd=170&Type=search" }, "geometry": { "type": "Point", "coordinates": [ 138.953267871163916, 37.639540072970895 ] } },
{ "type": "Feature", "properties": { "内容": "株式会社フロンティア三条営業所【福祉用具貸与】新潟県三条市須頃2－23", "url2": "https://www.kaigokensaku.mhlw.go.jp/15/index.php?action_kouhyou_detail_004_kani=true&JigyosyoCd=1570402014-00&ServiceCd=170&Type=search" }, "geometry": { "type": "Point", "coordinates": [ 138.94144510000001, 37.6469258 ] } },
{ "type": "Feature", "properties": { "内容": "株式会社ケンブリッジ【福祉用具貸与】柏崎市中央町７番７号", "url2": "https://www.kaigokensaku.mhlw.go.jp/15/index.php?action_kouhyou_detail_004_kani=true&JigyosyoCd=1570500353-00&ServiceCd=170&Type=search" }, "geometry": { "type": "Point", "coordinates": [ 138.55857519999995, 37.3731748 ] } },
{ "type": "Feature", "properties": { "内容": "株式会社アルプスビジネスクリエーション柏崎店【福祉用具貸与】新潟県柏崎市田塚１丁目1-28", "url2": "https://www.kaigokensaku.mhlw.go.jp/15/index.php?action_kouhyou_detail_004_kani=true&JigyosyoCd=1570501138-00&ServiceCd=170&Type=search" }, "geometry": { "type": "Point", "coordinates": [ 138.578512304759784, 37.371655340559471 ] } },
{ "type": "Feature", "properties": { "内容": "アイ・ケアーズ【福祉用具貸与】柏崎市長峰町11番12号", "url2": "https://www.kaigokensaku.mhlw.go.jp/15/index.php?action_kouhyou_detail_004_kani=true&JigyosyoCd=1570500726-00&ServiceCd=170&Type=search" }, "geometry": { "type": "Point", "coordinates": [ 138.569046800000024, 37.349889 ] } },
{ "type": "Feature", "properties": { "内容": "さくらメディカル株式会社　新発田営業所【福祉用具貸与】新潟県新発田市本町3-506-1", "url2": "https://www.kaigokensaku.mhlw.go.jp/15/index.php?action_kouhyou_detail_004_kani=true&JigyosyoCd=1570600526-00&ServiceCd=170&Type=search" }, "geometry": { "type": "Point", "coordinates": [ 139.334087166463064, 37.950256025221677 ] } },
{ "type": "Feature", "properties": { "内容": "はあとふるあたご　福祉用具新発田【福祉用具貸与】新発田市新富町1丁目4番10号", "url2": "https://www.kaigokensaku.mhlw.go.jp/15/index.php?action_kouhyou_detail_004_kani=true&JigyosyoCd=1570600740-00&ServiceCd=170&Type=search" }, "geometry": { "type": "Point", "coordinates": [ 139.336395155139144, 37.955258516023434 ] } },
{ "type": "Feature", "properties": { "内容": "株式会社　五十嵐薬品【福祉用具貸与】新潟県新発田市本町1-2-3", "url2": "https://www.kaigokensaku.mhlw.go.jp/15/index.php?action_kouhyou_detail_004_kani=true&JigyosyoCd=1570600062-00&ServiceCd=170&Type=search" }, "geometry": { "type": "Point", "coordinates": [ 139.333525300000019, 37.9457614 ] } },
{ "type": "Feature", "properties": { "内容": "有限会社浮惣福祉用具サービス【福祉用具貸与】新潟県新発田市諏訪町２－４－２７", "url2": "https://www.kaigokensaku.mhlw.go.jp/15/index.php?action_kouhyou_detail_004_kani=true&JigyosyoCd=1570600286-00&ServiceCd=170&Type=search" }, "geometry": { "type": "Point", "coordinates": [ 139.33069746256561, 37.946927072498767 ] } },
{ "type": "Feature", "properties": { "内容": "ライフクリエィションＣＯ．，ＬＴＤ．有限会社【福祉用具貸与】新潟県新発田市下中ノ目６６５番地", "url2": "https://www.kaigokensaku.mhlw.go.jp/15/index.php?action_kouhyou_detail_004_kani=true&JigyosyoCd=1570601391-00&ServiceCd=170&Type=search" }, "geometry": { "type": "Point", "coordinates": [ 139.304327615802777, 37.921032893405616 ] } },
{ "type": "Feature", "properties": { "内容": "もみじ倶楽部【福祉用具貸与】新潟県小千谷市城内４丁目１１番２４号", "url2": "https://www.kaigokensaku.mhlw.go.jp/15/index.php?action_kouhyou_detail_004_kani=true&JigyosyoCd=1570800142-00&ServiceCd=170&Type=search" }, "geometry": { "type": "Point", "coordinates": [ 138.786581399999932, 37.3131331 ] } },
{ "type": "Feature", "properties": { "内容": "クスリのみどり【福祉用具貸与】小千谷市城内1-1283-3", "url2": "https://www.kaigokensaku.mhlw.go.jp/15/index.php?action_kouhyou_detail_004_kani=true&JigyosyoCd=1570800233-00&ServiceCd=170&Type=search" }, "geometry": { "type": "Point", "coordinates": [ 138.795843595106476, 37.313328840323571 ] } },
{ "type": "Feature", "properties": { "内容": "クレアメディコ小千谷地域介護推進室【福祉用具貸与】新潟県小千谷市本町1-6-13", "url2": "https://www.kaigokensaku.mhlw.go.jp/15/index.php?action_kouhyou_detail_004_kani=true&JigyosyoCd=1570800555-00&ServiceCd=170&Type=search" }, "geometry": { "type": "Point", "coordinates": [ 138.79974496389309, 37.310399200111618 ] } },
{ "type": "Feature", "properties": { "内容": "有限会社　齋藤電機商会【福祉用具貸与】新潟県加茂市矢立９番２７号", "url2": "https://www.kaigokensaku.mhlw.go.jp/15/index.php?action_kouhyou_detail_004_kani=true&JigyosyoCd=1570900124-00&ServiceCd=170&Type=search" }, "geometry": { "type": "Point", "coordinates": [ 139.0470034, 37.6560122 ] } },
{ "type": "Feature", "properties": { "内容": "株式会社田辺喜平商店福祉用具貸与・販売事業所【福祉用具貸与】新潟県加茂市上町7番10号", "url2": "https://www.kaigokensaku.mhlw.go.jp/15/index.php?action_kouhyou_detail_004_kani=true&JigyosyoCd=1570900215-00&ServiceCd=170&Type=search" }, "geometry": { "type": "Point", "coordinates": [ 139.058046500000046, 37.6576371 ] } },
{ "type": "Feature", "properties": { "内容": "越後交通株式会社介護事業部十日町営業所【福祉用具貸与】新潟県十日町市下川原町２７番地", "url2": "https://www.kaigokensaku.mhlw.go.jp/15/index.php?action_kouhyou_detail_004_kani=true&JigyosyoCd=1571001146-00&ServiceCd=170&Type=search" }, "geometry": { "type": "Point", "coordinates": [ 138.759390199999984, 37.1423274 ] } },
{ "type": "Feature", "properties": { "内容": "スマイル十日町店【福祉用具貸与】新潟県十日町市高山3丁目795", "url2": "https://www.kaigokensaku.mhlw.go.jp/15/index.php?action_kouhyou_detail_004_kani=true&JigyosyoCd=1571001229-00&ServiceCd=170&Type=search" }, "geometry": { "type": "Point", "coordinates": [ 138.743400119258581, 37.131694944321431 ] } },
{ "type": "Feature", "properties": { "内容": "福祉用具のふれあい【福祉用具貸与】新潟県十日町市山谷650番地1ゆいテラスやまや　内", "url2": "https://www.kaigokensaku.mhlw.go.jp/15/index.php?action_kouhyou_detail_004_kani=true&JigyosyoCd=1571001237-00&ServiceCd=170&Type=search" }, "geometry": { "type": "Point", "coordinates": [ 138.72619202902294, 37.147889738920206 ] } },
{ "type": "Feature", "properties": { "内容": "ライフケアうおぬま【福祉用具貸与】新潟県十日町市西本町1丁目450番地6", "url2": "https://www.kaigokensaku.mhlw.go.jp/15/index.php?action_kouhyou_detail_004_kani=true&JigyosyoCd=1571000106-00&ServiceCd=170&Type=search" }, "geometry": { "type": "Point", "coordinates": [ 138.757995662565577, 37.140236168865847 ] } },
{ "type": "Feature", "properties": { "内容": "ラミコジャパン株式会社　シルバーサポート十日町店【福祉用具貸与】新潟県十日町市大黒沢179番地", "url2": "https://www.kaigokensaku.mhlw.go.jp/15/index.php?action_kouhyou_detail_004_kani=true&JigyosyoCd=1571001179-00&ServiceCd=170&Type=search" }, "geometry": { "type": "Point", "coordinates": [ 138.743225700000039, 37.1090896 ] } },
{ "type": "Feature", "properties": { "内容": "株式会社ケンブリッジ　中越営業所【福祉用具貸与】新潟県見附市今町５丁目３８番２３号", "url2": "https://www.kaigokensaku.mhlw.go.jp/15/index.php?action_kouhyou_detail_004_kani=true&JigyosyoCd=1571100609-00&ServiceCd=170&Type=search" }, "geometry": { "type": "Point", "coordinates": [ 138.892484193254035, 37.552332542159938 ] } },
{ "type": "Feature", "properties": { "内容": "見附福祉会福祉用具センター【福祉用具貸与】新潟県見附市学校町2-13-31特別養護老人ホーム大平園", "url2": "https://www.kaigokensaku.mhlw.go.jp/15/index.php?action_kouhyou_detail_004_kani=true&JigyosyoCd=1571100658-00&ServiceCd=170&Type=search" }, "geometry": { "type": "Point", "coordinates": [ 138.919806600000015, 37.53538463119741 ] } },
{ "type": "Feature", "properties": { "内容": "はあとふるあたご　福祉用具村上【福祉用具貸与】新潟県村上市南町２－１１－４０", "url2": "https://www.kaigokensaku.mhlw.go.jp/15/index.php?action_kouhyou_detail_004_kani=true&JigyosyoCd=1571201175-00&ServiceCd=170&Type=search" }, "geometry": { "type": "Point", "coordinates": [ 139.472399090213003, 38.215933131761346 ] } },
{ "type": "Feature", "properties": { "内容": "シルバーサポートかんきち堂店【福祉用具貸与】新潟県村上市山居町1丁目8番55号", "url2": "https://www.kaigokensaku.mhlw.go.jp/15/index.php?action_kouhyou_detail_004_kani=true&JigyosyoCd=1571200052-00&ServiceCd=170&Type=search" }, "geometry": { "type": "Point", "coordinates": [ 139.466811799999959, 38.2158826 ] } },
{ "type": "Feature", "properties": { "内容": "新保屋家具株式会社しんぼや福祉用具貸与事業所【福祉用具貸与】新潟県村上市仲間町611", "url2": "https://www.kaigokensaku.mhlw.go.jp/15/index.php?action_kouhyou_detail_004_kani=true&JigyosyoCd=1571200243-00&ServiceCd=170&Type=search" }, "geometry": { "type": "Point", "coordinates": [ 139.484151699999984, 38.2137362 ] } },
{ "type": "Feature", "properties": { "内容": "ライフ【福祉用具貸与】新潟県村上市下鍜冶屋７６２番地２", "url2": "https://www.kaigokensaku.mhlw.go.jp/15/index.php?action_kouhyou_detail_004_kani=true&JigyosyoCd=1571200987-00&ServiceCd=170&Type=search" }, "geometry": { "type": "Point", "coordinates": [ 139.454988463159879, 38.112353280685717 ] } },
{ "type": "Feature", "properties": { "内容": "ワンダフルライフ【福祉用具貸与】燕市吉田西太田1602-4", "url2": "https://www.kaigokensaku.mhlw.go.jp/15/index.php?action_kouhyou_detail_004_kani=true&JigyosyoCd=1571300944-00&ServiceCd=170&Type=search" }, "geometry": { "type": "Point", "coordinates": [ 138.877621800000043, 37.674371 ] } },
{ "type": "Feature", "properties": { "内容": "株式会社　北陸家具【福祉用具貸与】糸魚川市大町１－６－１０", "url2": "https://www.kaigokensaku.mhlw.go.jp/15/index.php?action_kouhyou_detail_004_kani=true&JigyosyoCd=1571500196-00&ServiceCd=170&Type=search" }, "geometry": { "type": "Point", "coordinates": [ 137.862051432679749, 37.045080217723694 ] } },
{ "type": "Feature", "properties": { "内容": "ライフケアおれんじ【福祉用具貸与】新潟県糸魚川市中央2-3-35", "url2": "https://www.kaigokensaku.mhlw.go.jp/15/index.php?action_kouhyou_detail_004_kani=true&JigyosyoCd=1571500725-00&ServiceCd=170&Type=search" }, "geometry": { "type": "Point", "coordinates": [ 137.861242158895976, 37.040318807018018 ] } },
{ "type": "Feature", "properties": { "内容": "えちご上越農業協同組合　ふれあい介護センター　愛あい【福祉用具貸与】新潟県糸魚川市大和川436", "url2": "https://www.kaigokensaku.mhlw.go.jp/15/index.php?action_kouhyou_detail_004_kani=true&JigyosyoCd=1571500055-00&ServiceCd=170&Type=search" }, "geometry": { "type": "Point", "coordinates": [ 137.897943084604407, 37.053388994963989 ] } },
{ "type": "Feature", "properties": { "内容": "ごせん福祉レンタル【福祉用具貸与】新潟県五泉市三本木2-1-14", "url2": "https://www.kaigokensaku.mhlw.go.jp/15/index.php?action_kouhyou_detail_004_kani=true&JigyosyoCd=1571700887-00&ServiceCd=170&Type=search" }, "geometry": { "type": "Point", "coordinates": [ 139.177346636917065, 37.754372222406403 ] } },
{ "type": "Feature", "properties": { "内容": "サカヰ産業株式会社　上越支店【福祉用具貸与】新潟県上越市石橋２丁目４番６号", "url2": "https://www.kaigokensaku.mhlw.go.jp/15/index.php?action_kouhyou_detail_004_kani=true&JigyosyoCd=1570301539-00&ServiceCd=170&Type=search" }, "geometry": { "type": "Point", "coordinates": [ 138.237229399999933, 37.1629709 ] } },
{ "type": "Feature", "properties": { "内容": "ホームケアプラス福祉用具事業所【福祉用具貸与】新潟県上越市大字中田原80-28", "url2": "https://www.kaigokensaku.mhlw.go.jp/15/index.php?action_kouhyou_detail_004_kani=true&JigyosyoCd=1570303097-00&ServiceCd=170&Type=search" }, "geometry": { "type": "Point", "coordinates": [ 138.234280265558283, 37.094742447635575 ] } },
{ "type": "Feature", "properties": { "内容": "株式会社フロンティア上越営業所【福祉用具貸与】新潟県上越市下源入大野274-1", "url2": "https://www.kaigokensaku.mhlw.go.jp/15/index.php?action_kouhyou_detail_004_kani=true&JigyosyoCd=1570304178-00&ServiceCd=170&Type=search" }, "geometry": { "type": "Point", "coordinates": [ 138.255993860435495, 37.1667295554224 ] } },
{ "type": "Feature", "properties": { "内容": "ワークライフ　ふじまき【福祉用具貸与】新潟県上越市藤巻7番35号", "url2": "https://www.kaigokensaku.mhlw.go.jp/15/index.php?action_kouhyou_detail_004_kani=true&JigyosyoCd=1570300119-00&ServiceCd=170&Type=search" }, "geometry": { "type": "Point", "coordinates": [ 138.243902, 37.1365104 ] } },
{ "type": "Feature", "properties": { "内容": "だんらん福祉用具貸与販売事業所【福祉用具貸与】新潟県上越市頸城区北方125-9", "url2": "https://www.kaigokensaku.mhlw.go.jp/15/index.php?action_kouhyou_detail_004_kani=true&JigyosyoCd=1570303394-00&ServiceCd=170&Type=search" }, "geometry": { "type": "Point", "coordinates": [ 138.3242741, 37.190138428710391 ] } },
{ "type": "Feature", "properties": { "内容": "さくらメディカル株式会社　上越支社【福祉用具貸与】新潟県上越市子安1378番地", "url2": "https://www.kaigokensaku.mhlw.go.jp/15/index.php?action_kouhyou_detail_004_kani=true&JigyosyoCd=1570300150-00&ServiceCd=170&Type=search" }, "geometry": { "type": "Point", "coordinates": [ 138.274531199999927, 37.107629 ] } },
{ "type": "Feature", "properties": { "内容": "めぐみ【福祉用具貸与】上越市西城町1-1-20", "url2": "https://www.kaigokensaku.mhlw.go.jp/15/index.php?action_kouhyou_detail_004_kani=true&JigyosyoCd=1570300903-00&ServiceCd=170&Type=search" }, "geometry": { "type": "Point", "coordinates": [ 138.2511829, 37.1155248 ] } },
{ "type": "Feature", "properties": { "内容": "株式会社栗原医療器械店　上越オフィス【福祉用具貸与】新潟県上越市平成町554番地", "url2": "https://www.kaigokensaku.mhlw.go.jp/15/index.php?action_kouhyou_detail_004_kani=true&JigyosyoCd=1570303980-00&ServiceCd=170&Type=search" }, "geometry": { "type": "Point", "coordinates": [ 138.2849731, 37.1227037 ] } },
{ "type": "Feature", "properties": { "内容": "やさしい手住環境事業部　上越営業所【福祉用具貸与】新潟県上越市春日野1-4-39", "url2": "https://www.kaigokensaku.mhlw.go.jp/15/index.php?action_kouhyou_detail_004_kani=true&JigyosyoCd=1570304145-00&ServiceCd=170&Type=search" }, "geometry": { "type": "Point", "coordinates": [ 138.229697063229338, 37.14808533163729 ] } },
{ "type": "Feature", "properties": { "内容": "ダスキンヘルスレント上越ステーション【福祉用具貸与】新潟県上越市中央3丁目2番32号", "url2": "https://www.kaigokensaku.mhlw.go.jp/15/index.php?action_kouhyou_detail_004_kani=true&JigyosyoCd=1570303865-00&ServiceCd=170&Type=search" }, "geometry": { "type": "Point", "coordinates": [ 138.2445945, 37.1781934 ] } },
{ "type": "Feature", "properties": { "内容": "エフビー介護サービス株式会社　上越営業所【福祉用具貸与】新潟県上越市新光町1-6-16", "url2": "https://www.kaigokensaku.mhlw.go.jp/15/index.php?action_kouhyou_detail_004_kani=true&JigyosyoCd=1570300846-00&ServiceCd=170&Type=search" }, "geometry": { "type": "Point", "coordinates": [ 138.238549199999966, 37.1503503 ] } },
{ "type": "Feature", "properties": { "内容": "株式会社ケンブリッジ　上越営業所【福祉用具貸与】新潟県上越市新光町２丁目１－２８", "url2": "https://www.kaigokensaku.mhlw.go.jp/15/index.php?action_kouhyou_detail_004_kani=true&JigyosyoCd=1570301109-00&ServiceCd=170&Type=search" }, "geometry": { "type": "Point", "coordinates": [ 138.2398935, 37.1506891 ] } },
{ "type": "Feature", "properties": { "内容": "シルバーサポート　上越店【福祉用具貸与】新潟県上越市下門前899-1", "url2": "https://www.kaigokensaku.mhlw.go.jp/15/index.php?action_kouhyou_detail_004_kani=true&JigyosyoCd=1570302123-00&ServiceCd=170&Type=search" }, "geometry": { "type": "Point", "coordinates": [ 138.248856899999964, 37.1596913 ] } },
{ "type": "Feature", "properties": { "内容": "サクラケア　上越店【福祉用具貸与】上越市国府1丁目2-38", "url2": "https://www.kaigokensaku.mhlw.go.jp/15/index.php?action_kouhyou_detail_004_kani=true&JigyosyoCd=1570302248-00&ServiceCd=170&Type=search" }, "geometry": { "type": "Point", "coordinates": [ 138.22891340000001, 37.1651926 ] } },
{ "type": "Feature", "properties": { "内容": "有限会社とき【福祉用具貸与】新潟県阿賀野市北園町1番32号", "url2": "https://www.kaigokensaku.mhlw.go.jp/15/index.php?action_kouhyou_detail_004_kani=true&JigyosyoCd=1572100152-00&ServiceCd=170&Type=search" }, "geometry": { "type": "Point", "coordinates": [ 139.229427755155939, 37.845154679883066 ] } },
{ "type": "Feature", "properties": { "内容": "株式会社五頭クリーンサービス介護事業部【福祉用具貸与】新潟県阿賀野市保田４４３９番地", "url2": "https://www.kaigokensaku.mhlw.go.jp/15/index.php?action_kouhyou_detail_004_kani=true&JigyosyoCd=1572100160-00&ServiceCd=170&Type=search" }, "geometry": { "type": "Point", "coordinates": [ 139.237661200000048, 37.771967300000036 ] } },
{ "type": "Feature", "properties": { "内容": "グリーンライフ相川店【福祉用具貸与】新潟県佐渡市相川羽田町45", "url2": "https://www.kaigokensaku.mhlw.go.jp/15/index.php?action_kouhyou_detail_004_kani=true&JigyosyoCd=1572201307-00&ServiceCd=170&Type=search" }, "geometry": { "type": "Point", "coordinates": [ 138.240083499999969, 38.0332494 ] } },
{ "type": "Feature", "properties": { "内容": "介護サービスセンター　ふれあい館【福祉用具貸与】佐渡市千種58番地1", "url2": "https://www.kaigokensaku.mhlw.go.jp/15/index.php?action_kouhyou_detail_004_kani=true&JigyosyoCd=1572200846-00&ServiceCd=170&Type=search" }, "geometry": { "type": "Point", "coordinates": [ 138.364550147221394, 38.021596547029027 ] } },
{ "type": "Feature", "properties": { "内容": "ふれあい館　南佐渡【福祉用具貸与】新潟県佐渡市羽茂本郷190番地1", "url2": "https://www.kaigokensaku.mhlw.go.jp/15/index.php?action_kouhyou_detail_004_kani=true&JigyosyoCd=1572201141-00&ServiceCd=170&Type=search" }, "geometry": { "type": "Point", "coordinates": [ 138.31366479999997, 37.8422766 ] } },
{ "type": "Feature", "properties": { "内容": "有限会社ハルミメディカル【福祉用具貸与】新潟県佐渡市吉岡９８９番地", "url2": "https://www.kaigokensaku.mhlw.go.jp/15/index.php?action_kouhyou_detail_004_kani=true&JigyosyoCd=1572200192-00&ServiceCd=170&Type=search" }, "geometry": { "type": "Point", "coordinates": [ 138.355671769311584, 37.972404244653859 ] } },
{ "type": "Feature", "properties": { "内容": "株式会社　内田家具【福祉用具貸与】新潟県佐渡市両津夷168", "url2": "https://www.kaigokensaku.mhlw.go.jp/15/index.php?action_kouhyou_detail_004_kani=true&JigyosyoCd=1572200754-00&ServiceCd=170&Type=search" }, "geometry": { "type": "Point", "coordinates": [ 138.432322800000065, 38.0871684 ] } },
{ "type": "Feature", "properties": { "内容": "有限会社磯部家具福祉用具貸与事業所【福祉用具貸与】魚沼市四日町179番地", "url2": "https://www.kaigokensaku.mhlw.go.jp/15/index.php?action_kouhyou_detail_004_kani=true&JigyosyoCd=1572300430-00&ServiceCd=170&Type=search" }, "geometry": { "type": "Point", "coordinates": [ 138.957820199999986, 37.2365943 ] } },
{ "type": "Feature", "properties": { "内容": "株式会社アルプスビジネスクリエーション魚沼店【福祉用具貸与】新潟県魚沼市小出島1177", "url2": "https://www.kaigokensaku.mhlw.go.jp/15/index.php?action_kouhyou_detail_004_kani=true&JigyosyoCd=1572300661-00&ServiceCd=170&Type=search" }, "geometry": { "type": "Point", "coordinates": [ 138.964341531213449, 37.239391816824472 ] } },
{ "type": "Feature", "properties": { "内容": "株式会社　寿社【福祉用具貸与】新潟県南魚沼市塩沢600番地7", "url2": "https://www.kaigokensaku.mhlw.go.jp/15/index.php?action_kouhyou_detail_004_kani=true&JigyosyoCd=1572400800-00&ServiceCd=170&Type=search" }, "geometry": { "type": "Point", "coordinates": [ 138.8582012, 37.0415752 ] } },
{ "type": "Feature", "properties": { "内容": "さくらメディカル株式会社　魚沼営業所【福祉用具貸与】新潟県南魚沼市浦佐1335", "url2": "https://www.kaigokensaku.mhlw.go.jp/15/index.php?action_kouhyou_detail_004_kani=true&JigyosyoCd=1572400057-00&ServiceCd=170&Type=search" }, "geometry": { "type": "Point", "coordinates": [ 138.925669136056541, 37.165874046806707 ] } },
{ "type": "Feature", "properties": { "内容": "シルバーサポートスマイル【福祉用具貸与】新潟県南魚沼市六日町2367-1", "url2": "https://www.kaigokensaku.mhlw.go.jp/15/index.php?action_kouhyou_detail_004_kani=true&JigyosyoCd=1572400610-00&ServiceCd=170&Type=search" }, "geometry": { "type": "Point", "coordinates": [ 138.868312953564924, 37.060356829220801 ] } },
{ "type": "Feature", "properties": { "内容": "越後交通株式会社　介護事業部　魚沼営業所【福祉用具貸与】新潟県南魚沼市塩沢787-5", "url2": "https://www.kaigokensaku.mhlw.go.jp/15/index.php?action_kouhyou_detail_004_kani=true&JigyosyoCd=1572401113-00&ServiceCd=170&Type=search" }, "geometry": { "type": "Point", "coordinates": [ 138.865811200000053, 37.0463682 ] } },
{ "type": "Feature", "properties": { "内容": "株式会社フロンティア魚沼営業所【福祉用具貸与】新潟県南魚沼市野田585-1", "url2": "https://www.kaigokensaku.mhlw.go.jp/15/index.php?action_kouhyou_detail_004_kani=true&JigyosyoCd=1572401246-00&ServiceCd=170&Type=search" }, "geometry": { "type": "Point", "coordinates": [ 138.879169, 37.0973705 ] } },
{ "type": "Feature", "properties": { "内容": "㈱河内建築　介護福祉事業部　ミライエ【福祉用具貸与】新潟県胎内市大出916番地1号", "url2": "https://www.kaigokensaku.mhlw.go.jp/15/index.php?action_kouhyou_detail_004_kani=true&JigyosyoCd=1572500492-00&ServiceCd=170&Type=search" }, "geometry": { "type": "Point", "coordinates": [ 139.394561600000031, 38.1029361 ] } },
{ "type": "Feature", "properties": { "内容": "ライフパートナー【福祉用具貸与】新潟県胎内市あかね町27-12株式会社カエツ工業中条営業所", "url2": "https://www.kaigokensaku.mhlw.go.jp/15/index.php?action_kouhyou_detail_004_kani=true&JigyosyoCd=1572500278-00&ServiceCd=170&Type=search" }, "geometry": { "type": "Point", "coordinates": [ 139.3941049, 38.0551493 ] } }
]
}
