{
"type": "FeatureCollection",
"name": "geo_15_認知症対応型共同生活介護",
"crs": { "type": "name", "properties": { "name": "urn:ogc:def:crs:OGC:1.3:CRS84" } },
"features": [
{ "type": "Feature", "properties": { "内容": "グループホーム　はまべの里【認知症対応型共同生活介護】新潟県新潟市北区島見町2190番地", "url2": "https://www.kaigokensaku.mhlw.go.jp/15/index.php?action_kouhyou_detail_004_kani=true&JigyosyoCd=1570102077-00&ServiceCd=320&Type=search" }, "geometry": { "type": "Point", "coordinates": [ 139.201395400000024, 37.9716235 ] } },
{ "type": "Feature", "properties": { "内容": "グループホームおやま【認知症対応型共同生活介護】新潟県新潟市北区木崎754", "url2": "https://www.kaigokensaku.mhlw.go.jp/15/index.php?action_kouhyou_detail_004_kani=true&JigyosyoCd=1570104065-00&ServiceCd=320&Type=search" }, "geometry": { "type": "Point", "coordinates": [ 139.173014599999988, 37.9306468 ] } },
{ "type": "Feature", "properties": { "内容": "グループホームこもれび【認知症対応型共同生活介護】新潟県新潟市北区松潟1490番地1", "url2": "https://www.kaigokensaku.mhlw.go.jp/15/index.php?action_kouhyou_detail_004_kani=true&JigyosyoCd=1570102044-00&ServiceCd=320&Type=search" }, "geometry": { "type": "Point", "coordinates": [ 139.172881299999972, 37.930076806224889 ] } },
{ "type": "Feature", "properties": { "内容": "グループホームはやどおり【認知症対応型共同生活介護】新潟県新潟市北区早通93番地3", "url2": "https://www.kaigokensaku.mhlw.go.jp/15/index.php?action_kouhyou_detail_004_kani=true&JigyosyoCd=1590101190-00&ServiceCd=320&Type=search" }, "geometry": { "type": "Point", "coordinates": [ 139.1783673, 37.9237504 ] } },
{ "type": "Feature", "properties": { "内容": "けあビジョンホーム新潟太郎代【認知症対応型共同生活介護】新潟県新潟市北区太郎代2874-3", "url2": "https://www.kaigokensaku.mhlw.go.jp/15/index.php?action_kouhyou_detail_004_kani=true&JigyosyoCd=1590101984-00&ServiceCd=320&Type=search" }, "geometry": { "type": "Point", "coordinates": [ 139.216855880786909, 37.981123139133508 ] } },
{ "type": "Feature", "properties": { "内容": "けあビジョンホーム新潟早通【認知症対応型共同生活介護】新潟県新潟市北区仏伝68-3", "url2": "https://www.kaigokensaku.mhlw.go.jp/15/index.php?action_kouhyou_detail_004_kani=true&JigyosyoCd=1590102057-00&ServiceCd=320&Type=search" }, "geometry": { "type": "Point", "coordinates": [ 139.175025694165043, 37.918738771228611 ] } },
{ "type": "Feature", "properties": { "内容": "グループホームながば【認知症対応型共同生活介護】新潟県新潟市北区長場１２８２番地1", "url2": "https://www.kaigokensaku.mhlw.go.jp/15/index.php?action_kouhyou_detail_004_kani=true&JigyosyoCd=1590100010-00&ServiceCd=320&Type=search" }, "geometry": { "type": "Point", "coordinates": [ 139.211972712236957, 37.885428927410558 ] } },
{ "type": "Feature", "properties": { "内容": "グループホームきざき【認知症対応型共同生活介護】新潟県新潟市北区木崎794番地1あたごの杜木崎", "url2": "https://www.kaigokensaku.mhlw.go.jp/15/index.php?action_kouhyou_detail_004_kani=true&JigyosyoCd=1590102495-00&ServiceCd=320&Type=search" }, "geometry": { "type": "Point", "coordinates": [ 139.175445599999989, 37.9327245 ] } },
{ "type": "Feature", "properties": { "内容": "グループホーム大形【認知症対応型共同生活介護】新潟県新潟市東区新松崎1－1－12特別養護老人ホーム逢谷内内グループホーム大形", "url2": "https://www.kaigokensaku.mhlw.go.jp/15/index.php?action_kouhyou_detail_004_kani=true&JigyosyoCd=1570102325-00&ServiceCd=320&Type=search" }, "geometry": { "type": "Point", "coordinates": [ 139.115290787209801, 37.929194803679479 ] } },
{ "type": "Feature", "properties": { "内容": "グループホーム　サンライフ中野山【認知症対応型共同生活介護】新潟県新潟市東区中野山4丁目13番1号", "url2": "https://www.kaigokensaku.mhlw.go.jp/15/index.php?action_kouhyou_detail_004_kani=true&JigyosyoCd=1590100408-00&ServiceCd=320&Type=search" }, "geometry": { "type": "Point", "coordinates": [ 139.103983200000016, 37.9028347 ] } },
{ "type": "Feature", "properties": { "内容": "グループホーム空港西【認知症対応型共同生活介護】新潟県新潟市東区空港西1丁目17番19号", "url2": "https://www.kaigokensaku.mhlw.go.jp/15/index.php?action_kouhyou_detail_004_kani=true&JigyosyoCd=1590100499-00&ServiceCd=320&Type=search" }, "geometry": { "type": "Point", "coordinates": [ 139.0953733730164, 37.947778969772642 ] } },
{ "type": "Feature", "properties": { "内容": "グループホームしあわせ広場えびがせ【認知症対応型共同生活介護】新潟県新潟市東区大形本町5丁目4番21号", "url2": "https://www.kaigokensaku.mhlw.go.jp/15/index.php?action_kouhyou_detail_004_kani=true&JigyosyoCd=1590100895-00&ServiceCd=320&Type=search" }, "geometry": { "type": "Point", "coordinates": [ 139.122149900000068, 37.9227112 ] } },
{ "type": "Feature", "properties": { "内容": "グループホームスミール石山【認知症対応型共同生活介護】新潟県新潟市東区石山1丁目3番51号", "url2": "https://www.kaigokensaku.mhlw.go.jp/15/index.php?action_kouhyou_detail_004_kani=true&JigyosyoCd=1590101448-00&ServiceCd=320&Type=search" }, "geometry": { "type": "Point", "coordinates": [ 139.092229299999985, 37.8972488 ] } },
{ "type": "Feature", "properties": { "内容": "物見山スワンの家【認知症対応型共同生活介護】新潟県新潟市東区物見山３丁目13番24号", "url2": "https://www.kaigokensaku.mhlw.go.jp/15/index.php?action_kouhyou_detail_004_kani=true&JigyosyoCd=1590101976-00&ServiceCd=320&Type=search" }, "geometry": { "type": "Point", "coordinates": [ 139.100043076033728, 37.945027199457201 ] } },
{ "type": "Feature", "properties": { "内容": "はあとふるあたごグループホームゆたか【認知症対応型共同生活介護】新潟県新潟市東区豊2丁目7番44号はあとふるあたご福祉複合施設ゆたか", "url2": "https://www.kaigokensaku.mhlw.go.jp/15/index.php?action_kouhyou_detail_004_kani=true&JigyosyoCd=1590102123-00&ServiceCd=320&Type=search" }, "geometry": { "type": "Point", "coordinates": [ 139.1134567, 37.925284 ] } },
{ "type": "Feature", "properties": { "内容": "グループホームスミール新潟東【認知症対応型共同生活介護】新潟県新潟市東区神明町13番9号", "url2": "https://www.kaigokensaku.mhlw.go.jp/15/index.php?action_kouhyou_detail_004_kani=true&JigyosyoCd=1590102289-00&ServiceCd=320&Type=search" }, "geometry": { "type": "Point", "coordinates": [ 139.067930100000012, 37.9397177 ] } },
{ "type": "Feature", "properties": { "内容": "グループホームひまわりの家【認知症対応型共同生活介護】新潟県新潟市東区下山３丁目１４０７番地１", "url2": "https://www.kaigokensaku.mhlw.go.jp/15/index.php?action_kouhyou_detail_004_kani=true&JigyosyoCd=1590101018-00&ServiceCd=320&Type=search" }, "geometry": { "type": "Point", "coordinates": [ 139.120757200000071, 37.9484672 ] } },
{ "type": "Feature", "properties": { "内容": "グループホームふれあいの杜河渡【認知症対応型共同生活介護】新潟県新潟市東区河渡３丁目１４番８号グループホームふれあいの杜河渡", "url2": "https://www.kaigokensaku.mhlw.go.jp/15/index.php?action_kouhyou_detail_004_kani=true&JigyosyoCd=1590101711-00&ServiceCd=320&Type=search" }, "geometry": { "type": "Point", "coordinates": [ 139.102477907934599, 37.937898207144784 ] } },
{ "type": "Feature", "properties": { "内容": "ツクイ新潟新石山グループホーム【認知症対応型共同生活介護】新潟県新潟市東区新石山4-7-10", "url2": "https://www.kaigokensaku.mhlw.go.jp/15/index.php?action_kouhyou_detail_004_kani=true&JigyosyoCd=1590101919-00&ServiceCd=320&Type=search" }, "geometry": { "type": "Point", "coordinates": [ 139.094834906745945, 37.90179655343568 ] } },
{ "type": "Feature", "properties": { "内容": "グループホームふもとの奏【認知症対応型共同生活介護】新潟県新潟市東区中山８丁目１９番１１号", "url2": "https://www.kaigokensaku.mhlw.go.jp/15/index.php?action_kouhyou_detail_004_kani=true&JigyosyoCd=1590101455-00&ServiceCd=320&Type=search" }, "geometry": { "type": "Point", "coordinates": [ 139.090806, 37.915294300000014 ] } },
{ "type": "Feature", "properties": { "内容": "けあビジョンホーム新潟東【認知症対応型共同生活介護】新潟県新潟市東区江南３丁目１－１", "url2": "https://www.kaigokensaku.mhlw.go.jp/15/index.php?action_kouhyou_detail_004_kani=true&JigyosyoCd=1590102602-00&ServiceCd=320&Type=search" }, "geometry": { "type": "Point", "coordinates": [ 139.080107579677275, 37.903866719257557 ] } },
{ "type": "Feature", "properties": { "内容": "グループホーム　かりん【認知症対応型共同生活介護】新潟県新潟市中央区南笹口１丁目１―３０アメニティオアシス駅南　4Ｆ", "url2": "https://www.kaigokensaku.mhlw.go.jp/15/index.php?action_kouhyou_detail_004_kani=true&JigyosyoCd=1590100242-00&ServiceCd=320&Type=search" }, "geometry": { "type": "Point", "coordinates": [ 139.065005599999949, 37.9079441 ] } },
{ "type": "Feature", "properties": { "内容": "グループホームこもれびの家【認知症対応型共同生活介護】新潟県新潟市中央区本馬越2丁目15番34号特別養護老人ホームくりの木", "url2": "https://www.kaigokensaku.mhlw.go.jp/15/index.php?action_kouhyou_detail_004_kani=true&JigyosyoCd=1590101372-00&ServiceCd=320&Type=search" }, "geometry": { "type": "Point", "coordinates": [ 139.077723578504248, 37.912209857554728 ] } },
{ "type": "Feature", "properties": { "内容": "グループホーム夕凪【認知症対応型共同生活介護】新潟県新潟市中央区古町通13番町2900番地5", "url2": "https://www.kaigokensaku.mhlw.go.jp/15/index.php?action_kouhyou_detail_004_kani=true&JigyosyoCd=1590101836-00&ServiceCd=320&Type=search" }, "geometry": { "type": "Point", "coordinates": [ 139.045711777909844, 37.931124931186282 ] } },
{ "type": "Feature", "properties": { "内容": "愛の家グループホーム新潟鳥屋野【認知症対応型共同生活介護】新潟県新潟市中央区鳥屋野南3丁目25番14号愛の家グループホーム新潟鳥屋野", "url2": "https://www.kaigokensaku.mhlw.go.jp/15/index.php?action_kouhyou_detail_004_kani=true&JigyosyoCd=1570102796-00&ServiceCd=320&Type=search" }, "geometry": { "type": "Point", "coordinates": [ 139.028738230996737, 37.884042288339991 ] } },
{ "type": "Feature", "properties": { "内容": "ツクイ新潟姥ヶ山グループホーム【認知症対応型共同生活介護】新潟県新潟市中央区姥ヶ山6丁目2番32号", "url2": "https://www.kaigokensaku.mhlw.go.jp/15/index.php?action_kouhyou_detail_004_kani=true&JigyosyoCd=1570102572-00&ServiceCd=320&Type=search" }, "geometry": { "type": "Point", "coordinates": [ 139.079077500000011, 37.8915427 ] } },
{ "type": "Feature", "properties": { "内容": "グループホーム赤とんぼ【認知症対応型共同生活介護】新潟県新潟市中央区堀之内2番地", "url2": "https://www.kaigokensaku.mhlw.go.jp/15/index.php?action_kouhyou_detail_004_kani=true&JigyosyoCd=1570102507-00&ServiceCd=320&Type=search" }, "geometry": { "type": "Point", "coordinates": [ 139.045882, 37.904282800000026 ] } },
{ "type": "Feature", "properties": { "内容": "ニチイケアセンター紫竹【認知症対応型共同生活介護】新潟県新潟市中央区紫竹１丁目28-13", "url2": "https://www.kaigokensaku.mhlw.go.jp/15/index.php?action_kouhyou_detail_004_kani=true&JigyosyoCd=1590101117-00&ServiceCd=320&Type=search" }, "geometry": { "type": "Point", "coordinates": [ 139.07902912817238, 37.911250157598438 ] } },
{ "type": "Feature", "properties": { "内容": "グループホームふれあいの杜沼垂【認知症対応型共同生活介護】新潟県新潟市中央区沼垂東3丁目3番17号", "url2": "https://www.kaigokensaku.mhlw.go.jp/15/index.php?action_kouhyou_detail_004_kani=true&JigyosyoCd=1590101612-00&ServiceCd=320&Type=search" }, "geometry": { "type": "Point", "coordinates": [ 139.070110839147901, 37.921941657223002 ] } },
{ "type": "Feature", "properties": { "内容": "グループホーム白山【認知症対応型共同生活介護】新潟県新潟市中央区上大川前通２番町148-1", "url2": "https://www.kaigokensaku.mhlw.go.jp/15/index.php?action_kouhyou_detail_004_kani=true&JigyosyoCd=1590100689-00&ServiceCd=320&Type=search" }, "geometry": { "type": "Point", "coordinates": [ 139.04322825952454, 37.915117600000016 ] } },
{ "type": "Feature", "properties": { "内容": "グループホームふれあいの杜学校町【認知症対応型共同生活介護】新潟県新潟市中央区学校町通2番町5247番地122", "url2": "https://www.kaigokensaku.mhlw.go.jp/15/index.php?action_kouhyou_detail_004_kani=true&JigyosyoCd=1590101307-00&ServiceCd=320&Type=search" }, "geometry": { "type": "Point", "coordinates": [ 139.031307906745951, 37.919792391034363 ] } },
{ "type": "Feature", "properties": { "内容": "ツクイ新潟関屋【認知症対応型共同生活介護】新潟県新潟市中央区堀割町2-37", "url2": "https://www.kaigokensaku.mhlw.go.jp/15/index.php?action_kouhyou_detail_004_kani=true&JigyosyoCd=1590101703-00&ServiceCd=320&Type=search" }, "geometry": { "type": "Point", "coordinates": [ 139.010245655294796, 37.904247338147016 ] } },
{ "type": "Feature", "properties": { "内容": "女池上山スワンの家【認知症対応型共同生活介護】新潟県新潟市中央区女池上山5丁目9番6号", "url2": "https://www.kaigokensaku.mhlw.go.jp/15/index.php?action_kouhyou_detail_004_kani=true&JigyosyoCd=1590102461-00&ServiceCd=320&Type=search" }, "geometry": { "type": "Point", "coordinates": [ 139.026711804893495, 37.894560319012577 ] } },
{ "type": "Feature", "properties": { "内容": "グループホームふれあいの杜田中町【認知症対応型共同生活介護】新潟県新潟市中央区田中町5179番地28", "url2": "https://www.kaigokensaku.mhlw.go.jp/15/index.php?action_kouhyou_detail_004_kani=true&JigyosyoCd=1590101968-00&ServiceCd=320&Type=search" }, "geometry": { "type": "Point", "coordinates": [ 139.041483699999986, 37.9288521 ] } },
{ "type": "Feature", "properties": { "内容": "グループホームふれあいの杜【認知症対応型共同生活介護】新潟県新潟市中央区古町通11番町1707番", "url2": "https://www.kaigokensaku.mhlw.go.jp/15/index.php?action_kouhyou_detail_004_kani=true&JigyosyoCd=1590100887-00&ServiceCd=320&Type=search" }, "geometry": { "type": "Point", "coordinates": [ 139.046369599999906, 37.9278496 ] } },
{ "type": "Feature", "properties": { "内容": "グループホーム関屋おもと【認知症対応型共同生活介護】新潟県新潟市中央区関屋大川前1丁目2番36号", "url2": "https://www.kaigokensaku.mhlw.go.jp/15/index.php?action_kouhyou_detail_004_kani=true&JigyosyoCd=1590100333-00&ServiceCd=320&Type=search" }, "geometry": { "type": "Point", "coordinates": [ 139.015292499999987, 37.9019322 ] } },
{ "type": "Feature", "properties": { "内容": "グループホーム　しんせい【認知症対応型共同生活介護】新潟県新潟市江南区曽川甲1333番地1", "url2": "https://www.kaigokensaku.mhlw.go.jp/15/index.php?action_kouhyou_detail_004_kani=true&JigyosyoCd=1570102010-00&ServiceCd=320&Type=search" }, "geometry": { "type": "Point", "coordinates": [ 139.049152474574271, 37.867566194268129 ] } },
{ "type": "Feature", "properties": { "内容": "グループホームあけぼの【認知症対応型共同生活介護】新潟県新潟市江南区曙町２丁目５番１９号", "url2": "https://www.kaigokensaku.mhlw.go.jp/15/index.php?action_kouhyou_detail_004_kani=true&JigyosyoCd=1570105914-00&ServiceCd=320&Type=search" }, "geometry": { "type": "Point", "coordinates": [ 139.1187976, 37.8594292 ] } },
{ "type": "Feature", "properties": { "内容": "認知症高齢者グループホーム　おおやちの家【認知症対応型共同生活介護】新潟県新潟市江南区うぐいす２丁目７番５号", "url2": "https://www.kaigokensaku.mhlw.go.jp/15/index.php?action_kouhyou_detail_004_kani=true&JigyosyoCd=1590100051-00&ServiceCd=320&Type=search" }, "geometry": { "type": "Point", "coordinates": [ 139.135237, 37.8773304 ] } },
{ "type": "Feature", "properties": { "内容": "グループホーム酒屋【認知症対応型共同生活介護】新潟県新潟市江南区酒屋町330番地3", "url2": "https://www.kaigokensaku.mhlw.go.jp/15/index.php?action_kouhyou_detail_004_kani=true&JigyosyoCd=1590100879-00&ServiceCd=320&Type=search" }, "geometry": { "type": "Point", "coordinates": [ 139.069074399999948, 37.834927900000011 ] } },
{ "type": "Feature", "properties": { "内容": "ニチイケアセンター新潟東【認知症対応型共同生活介護】新潟県新潟市江南区横越川根町4丁目1番40号", "url2": "https://www.kaigokensaku.mhlw.go.jp/15/index.php?action_kouhyou_detail_004_kani=true&JigyosyoCd=1590100549-00&ServiceCd=320&Type=search" }, "geometry": { "type": "Point", "coordinates": [ 139.135049, 37.8584769 ] } },
{ "type": "Feature", "properties": { "内容": "グループホームスミール向陽【認知症対応型共同生活介護】新潟県新潟市江南区亀田向陽１丁目８番７号", "url2": "https://www.kaigokensaku.mhlw.go.jp/15/index.php?action_kouhyou_detail_004_kani=true&JigyosyoCd=1590100069-00&ServiceCd=320&Type=search" }, "geometry": { "type": "Point", "coordinates": [ 139.110133799999971, 37.8767766 ] } },
{ "type": "Feature", "properties": { "内容": "グループホームこうよう【認知症対応型共同生活介護】新潟県新潟市江南区亀田向陽２－７－１０", "url2": "https://www.kaigokensaku.mhlw.go.jp/15/index.php?action_kouhyou_detail_004_kani=true&JigyosyoCd=1590101000-00&ServiceCd=320&Type=search" }, "geometry": { "type": "Point", "coordinates": [ 139.113276179762266, 37.878066310874331 ] } },
{ "type": "Feature", "properties": { "内容": "グループホーム　スミール亀田【認知症対応型共同生活介護】新潟県新潟市江南区船戸山1丁目1番10号", "url2": "https://www.kaigokensaku.mhlw.go.jp/15/index.php?action_kouhyou_detail_004_kani=true&JigyosyoCd=1590102073-00&ServiceCd=320&Type=search" }, "geometry": { "type": "Point", "coordinates": [ 139.106542707409687, 37.87174454960828 ] } },
{ "type": "Feature", "properties": { "内容": "グループホーム風見鶏【認知症対応型共同生活介護】新潟県新潟市秋葉区柄目木352番地", "url2": "https://www.kaigokensaku.mhlw.go.jp/15/index.php?action_kouhyou_detail_004_kani=true&JigyosyoCd=1570104040-00&ServiceCd=320&Type=search" }, "geometry": { "type": "Point", "coordinates": [ 139.14594539999996, 37.7904873 ] } },
{ "type": "Feature", "properties": { "内容": "グループホームやしろだ【認知症対応型共同生活介護】新潟県新潟市秋葉区矢代田1153番地1", "url2": "https://www.kaigokensaku.mhlw.go.jp/15/index.php?action_kouhyou_detail_004_kani=true&JigyosyoCd=1590100598-00&ServiceCd=320&Type=search" }, "geometry": { "type": "Point", "coordinates": [ 139.090611592586583, 37.749844405706277 ] } },
{ "type": "Feature", "properties": { "内容": "グループホーム　ささえ愛なかよし家【認知症対応型共同生活介護】新潟県新潟市秋葉区中沢町８番２８号", "url2": "https://www.kaigokensaku.mhlw.go.jp/15/index.php?action_kouhyou_detail_004_kani=true&JigyosyoCd=1590100929-00&ServiceCd=320&Type=search" }, "geometry": { "type": "Point", "coordinates": [ 139.123816900000065, 37.7898534 ] } },
{ "type": "Feature", "properties": { "内容": "はあとふるあたご　グループホーム新津【認知症対応型共同生活介護】新潟県新潟市秋葉区荻野町２番２６号", "url2": "https://www.kaigokensaku.mhlw.go.jp/15/index.php?action_kouhyou_detail_004_kani=true&JigyosyoCd=1570104032-00&ServiceCd=320&Type=search" }, "geometry": { "type": "Point", "coordinates": [ 139.106980199999953, 37.8294212 ] } },
{ "type": "Feature", "properties": { "内容": "認知症対応型共同生活介護事業所　グループホームたきや【認知症対応型共同生活介護】新潟県新潟市秋葉区滝谷町４番１９号", "url2": "https://www.kaigokensaku.mhlw.go.jp/15/index.php?action_kouhyou_detail_004_kani=true&JigyosyoCd=1590100432-00&ServiceCd=320&Type=search" }, "geometry": { "type": "Point", "coordinates": [ 139.143458520237829, 37.788836963830683 ] } },
{ "type": "Feature", "properties": { "内容": "グループホームふれあいの杜矢代田【認知症対応型共同生活介護】新潟県新潟市秋葉区矢代田3310-2", "url2": "https://www.kaigokensaku.mhlw.go.jp/15/index.php?action_kouhyou_detail_004_kani=true&JigyosyoCd=1590101174-00&ServiceCd=320&Type=search" }, "geometry": { "type": "Point", "coordinates": [ 139.100625700000023, 37.7526711 ] } },
{ "type": "Feature", "properties": { "内容": "グループホームふれあいの杜新津【認知症対応型共同生活介護】新潟県新潟市秋葉区善道町２丁目１番１号", "url2": "https://www.kaigokensaku.mhlw.go.jp/15/index.php?action_kouhyou_detail_004_kani=true&JigyosyoCd=1590101604-00&ServiceCd=320&Type=search" }, "geometry": { "type": "Point", "coordinates": [ 139.123942255750279, 37.80102204852021 ] } },
{ "type": "Feature", "properties": { "内容": "グループホームあがうら和【認知症対応型共同生活介護】新潟県新潟市秋葉区東金沢1674番地5", "url2": "https://www.kaigokensaku.mhlw.go.jp/15/index.php?action_kouhyou_detail_004_kani=true&JigyosyoCd=1590102008-00&ServiceCd=320&Type=search" }, "geometry": { "type": "Point", "coordinates": [ 139.144195301623228, 37.801793952569163 ] } },
{ "type": "Feature", "properties": { "内容": "グループホーム田島【認知症対応型共同生活介護】新潟県新潟市秋葉区田島46", "url2": "https://www.kaigokensaku.mhlw.go.jp/15/index.php?action_kouhyou_detail_004_kani=true&JigyosyoCd=1590102487-00&ServiceCd=320&Type=search" }, "geometry": { "type": "Point", "coordinates": [ 139.1196404, 37.8291466 ] } },
{ "type": "Feature", "properties": { "内容": "グループホーム翠風園【認知症対応型共同生活介護】新潟県新潟市南区高井東２丁目１３番３３号", "url2": "https://www.kaigokensaku.mhlw.go.jp/15/index.php?action_kouhyou_detail_004_kani=true&JigyosyoCd=1570105112-00&ServiceCd=320&Type=search" }, "geometry": { "type": "Point", "coordinates": [ 139.018212299999959, 37.799838 ] } },
{ "type": "Feature", "properties": { "内容": "グループホームさくらの里【認知症対応型共同生活介護】新潟県新潟市南区茨曽根1723-1", "url2": "https://www.kaigokensaku.mhlw.go.jp/15/index.php?action_kouhyou_detail_004_kani=true&JigyosyoCd=1590100606-00&ServiceCd=320&Type=search" }, "geometry": { "type": "Point", "coordinates": [ 139.000409499999932, 37.7220027 ] } },
{ "type": "Feature", "properties": { "内容": "グループホーム味方【認知症対応型共同生活介護】新潟県新潟市南区味方91番地3", "url2": "https://www.kaigokensaku.mhlw.go.jp/15/index.php?action_kouhyou_detail_004_kani=true&JigyosyoCd=1590101091-00&ServiceCd=320&Type=search" }, "geometry": { "type": "Point", "coordinates": [ 139.008507735490412, 37.773309171957216 ] } },
{ "type": "Feature", "properties": { "内容": "グループホームうすい【認知症対応型共同生活介護】新潟県新潟市南区臼井1435番地3", "url2": "https://www.kaigokensaku.mhlw.go.jp/15/index.php?action_kouhyou_detail_004_kani=true&JigyosyoCd=1570104057-00&ServiceCd=320&Type=search" }, "geometry": { "type": "Point", "coordinates": [ 139.056530400000042, 37.785394 ] } },
{ "type": "Feature", "properties": { "内容": "グループホーム　つつじ白根【認知症対応型共同生活介護】新潟県新潟市南区戸頭1095-4", "url2": "https://www.kaigokensaku.mhlw.go.jp/15/index.php?action_kouhyou_detail_004_kani=true&JigyosyoCd=1590101208-00&ServiceCd=320&Type=search" }, "geometry": { "type": "Point", "coordinates": [ 139.01380984819329, 37.753058416977993 ] } },
{ "type": "Feature", "properties": { "内容": "まいらいふ月潟【認知症対応型共同生活介護】新潟県新潟市南区西萱場50番地1", "url2": "https://www.kaigokensaku.mhlw.go.jp/15/index.php?action_kouhyou_detail_004_kani=true&JigyosyoCd=1590102115-00&ServiceCd=320&Type=search" }, "geometry": { "type": "Point", "coordinates": [ 139.002011654316817, 37.733965484715306 ] } },
{ "type": "Feature", "properties": { "内容": "グループホーム穂波の里【認知症対応型共同生活介護】新潟県新潟市西区新通4727番地", "url2": "https://www.kaigokensaku.mhlw.go.jp/15/index.php?action_kouhyou_detail_004_kani=true&JigyosyoCd=1570102143-00&ServiceCd=320&Type=search" }, "geometry": { "type": "Point", "coordinates": [ 138.972248789549241, 37.862806250680954 ] } },
{ "type": "Feature", "properties": { "内容": "高齢者グループホーム　からし種の家【認知症対応型共同生活介護】新潟県新潟市西区小針西１－４－２２", "url2": "https://www.kaigokensaku.mhlw.go.jp/15/index.php?action_kouhyou_detail_004_kani=true&JigyosyoCd=1570102481-00&ServiceCd=320&Type=search" }, "geometry": { "type": "Point", "coordinates": [ 138.988015200000035, 37.8882246 ] } },
{ "type": "Feature", "properties": { "内容": "にいがたケアセンターそよ風【認知症対応型共同生活介護】新潟県新潟市西区善久４５０－１１", "url2": "https://www.kaigokensaku.mhlw.go.jp/15/index.php?action_kouhyou_detail_004_kani=true&JigyosyoCd=1570102663-00&ServiceCd=320&Type=search" }, "geometry": { "type": "Point", "coordinates": [ 139.012967800000069, 37.8574739 ] } },
{ "type": "Feature", "properties": { "内容": "愛の家グループホーム新潟坂井【認知症対応型共同生活介護】新潟県新潟市西区坂井２丁目１３番３０号", "url2": "https://www.kaigokensaku.mhlw.go.jp/15/index.php?action_kouhyou_detail_004_kani=true&JigyosyoCd=1570102580-00&ServiceCd=320&Type=search" }, "geometry": { "type": "Point", "coordinates": [ 138.973771100000022, 37.8669735 ] } },
{ "type": "Feature", "properties": { "内容": "はあとふるあたごグループホームてらお【認知症対応型共同生活介護】新潟県新潟市西区寺尾1番7号はあとふるあたご複合施設てらお2階", "url2": "https://www.kaigokensaku.mhlw.go.jp/15/index.php?action_kouhyou_detail_004_kani=true&JigyosyoCd=1590102297-00&ServiceCd=320&Type=search" }, "geometry": { "type": "Point", "coordinates": [ 138.9821508, 37.8831501 ] } },
{ "type": "Feature", "properties": { "内容": "グループホームゆうあい【認知症対応型共同生活介護】新潟県新潟市西区上新栄町4丁目4番13号", "url2": "https://www.kaigokensaku.mhlw.go.jp/15/index.php?action_kouhyou_detail_004_kani=true&JigyosyoCd=1570103067-00&ServiceCd=320&Type=search" }, "geometry": { "type": "Point", "coordinates": [ 138.968626, 37.882677400000034 ] } },
{ "type": "Feature", "properties": { "内容": "グループホーム　マナの家【認知症対応型共同生活介護】新潟県新潟市西区西有明町２番５号", "url2": "https://www.kaigokensaku.mhlw.go.jp/15/index.php?action_kouhyou_detail_004_kani=true&JigyosyoCd=1590100697-00&ServiceCd=320&Type=search" }, "geometry": { "type": "Point", "coordinates": [ 138.989233964417991, 37.895016467161469 ] } },
{ "type": "Feature", "properties": { "内容": "グループホームゆうばえ【認知症対応型共同生活介護】新潟県新潟市西区新中浜5丁目2番地1", "url2": "https://www.kaigokensaku.mhlw.go.jp/15/index.php?action_kouhyou_detail_004_kani=true&JigyosyoCd=1590101877-00&ServiceCd=320&Type=search" }, "geometry": { "type": "Point", "coordinates": [ 138.909298954631026, 37.844806110813209 ] } },
{ "type": "Feature", "properties": { "内容": "まいらいふみずき野【認知症対応型共同生活介護】新潟県新潟市西区みずき野1丁目15番22号", "url2": "https://www.kaigokensaku.mhlw.go.jp/15/index.php?action_kouhyou_detail_004_kani=true&JigyosyoCd=1590101075-00&ServiceCd=320&Type=search" }, "geometry": { "type": "Point", "coordinates": [ 138.9045667, 37.8174443 ] } },
{ "type": "Feature", "properties": { "内容": "グループホームうちの【認知症対応型共同生活介護】新潟県新潟市西区五十嵐中島３丁目２２番８号", "url2": "https://www.kaigokensaku.mhlw.go.jp/15/index.php?action_kouhyou_detail_004_kani=true&JigyosyoCd=1590100648-00&ServiceCd=320&Type=search" }, "geometry": { "type": "Point", "coordinates": [ 138.9223806, 37.8493079 ] } },
{ "type": "Feature", "properties": { "内容": "グル－プホ－ム鶴の家【認知症対応型共同生活介護】新潟県新潟市西区小針８丁目６番１８号", "url2": "https://www.kaigokensaku.mhlw.go.jp/15/index.php?action_kouhyou_detail_004_kani=true&JigyosyoCd=1590101471-00&ServiceCd=320&Type=search" }, "geometry": { "type": "Point", "coordinates": [ 138.988549, 37.8805145 ] } },
{ "type": "Feature", "properties": { "内容": "まいらいふ赤塚【認知症対応型共同生活介護】新潟県新潟市西区赤塚1565番地", "url2": "https://www.kaigokensaku.mhlw.go.jp/15/index.php?action_kouhyou_detail_004_kani=true&JigyosyoCd=1590102479-00&ServiceCd=320&Type=search" }, "geometry": { "type": "Point", "coordinates": [ 138.880642200000011, 37.8201146 ] } },
{ "type": "Feature", "properties": { "内容": "グループホームこしん【認知症対応型共同生活介護】新潟県新潟市西区亀貝1780番地", "url2": "https://www.kaigokensaku.mhlw.go.jp/15/index.php?action_kouhyou_detail_004_kani=true&JigyosyoCd=1590102628-00&ServiceCd=320&Type=search" }, "geometry": { "type": "Point", "coordinates": [ 138.985503363516074, 37.877763189507341 ] } },
{ "type": "Feature", "properties": { "内容": "グループホームさかい【認知症対応型共同生活介護】新潟県新潟市西区坂井1450番地1", "url2": "https://www.kaigokensaku.mhlw.go.jp/15/index.php?action_kouhyou_detail_004_kani=true&JigyosyoCd=1590102438-00&ServiceCd=320&Type=search" }, "geometry": { "type": "Point", "coordinates": [ 138.9558333, 37.8655733 ] } },
{ "type": "Feature", "properties": { "内容": "グループホームなかのくち【認知症対応型共同生活介護】新潟県新潟市西蒲区福島311-1", "url2": "https://www.kaigokensaku.mhlw.go.jp/15/index.php?action_kouhyou_detail_004_kani=true&JigyosyoCd=1590100424-00&ServiceCd=320&Type=search" }, "geometry": { "type": "Point", "coordinates": [ 138.960825, 37.72466 ] } },
{ "type": "Feature", "properties": { "内容": "まいらいふ西川【認知症対応型共同生活介護】新潟県新潟市西蒲区川崎１２４６番地２", "url2": "https://www.kaigokensaku.mhlw.go.jp/15/index.php?action_kouhyou_detail_004_kani=true&JigyosyoCd=1590100341-00&ServiceCd=320&Type=search" }, "geometry": { "type": "Point", "coordinates": [ 138.911504899999954, 37.7922752 ] } },
{ "type": "Feature", "properties": { "内容": "まいらいふ岩室【認知症対応型共同生活介護】新潟県新潟市西蒲区西中694番地", "url2": "https://www.kaigokensaku.mhlw.go.jp/15/index.php?action_kouhyou_detail_004_kani=true&JigyosyoCd=1590100523-00&ServiceCd=320&Type=search" }, "geometry": { "type": "Point", "coordinates": [ 138.866987800000061, 37.725334 ] } },
{ "type": "Feature", "properties": { "内容": "ニチイケアセンター巻【認知症対応型共同生活介護】新潟県新潟市西蒲区巻甲423番地", "url2": "https://www.kaigokensaku.mhlw.go.jp/15/index.php?action_kouhyou_detail_004_kani=true&JigyosyoCd=1590100531-00&ServiceCd=320&Type=search" }, "geometry": { "type": "Point", "coordinates": [ 138.883409762257344, 37.758059119840809 ] } },
{ "type": "Feature", "properties": { "内容": "まいらいふ巻【認知症対応型共同生活介護】新潟県新潟市西蒲区葉萱場56番地1", "url2": "https://www.kaigokensaku.mhlw.go.jp/15/index.php?action_kouhyou_detail_004_kani=true&JigyosyoCd=1590101687-00&ServiceCd=320&Type=search" }, "geometry": { "type": "Point", "coordinates": [ 138.88913837931554, 37.767277172112706 ] } },
{ "type": "Feature", "properties": { "内容": "まいらいふ旗屋【認知症対応型共同生活介護】新潟県新潟市西蒲区旗屋93番地1", "url2": "https://www.kaigokensaku.mhlw.go.jp/15/index.php?action_kouhyou_detail_004_kani=true&JigyosyoCd=1590101927-00&ServiceCd=320&Type=search" }, "geometry": { "type": "Point", "coordinates": [ 138.91620179814754, 37.788616015701635 ] } },
{ "type": "Feature", "properties": { "内容": "グループホームなかのくち弐号館【認知症対応型共同生活介護】新潟県新潟市西蒲区福島312-1", "url2": "https://www.kaigokensaku.mhlw.go.jp/15/index.php?action_kouhyou_detail_004_kani=true&JigyosyoCd=1590102099-00&ServiceCd=320&Type=search" }, "geometry": { "type": "Point", "coordinates": [ 138.9606934, 37.724856 ] } },
{ "type": "Feature", "properties": { "内容": "まいらいふ和納【認知症対応型共同生活介護】新潟県新潟市西蒲区和納2丁目39番3号", "url2": "https://www.kaigokensaku.mhlw.go.jp/15/index.php?action_kouhyou_detail_004_kani=true&JigyosyoCd=1590102370-00&ServiceCd=320&Type=search" }, "geometry": { "type": "Point", "coordinates": [ 138.879539232540935, 37.7248258 ] } },
{ "type": "Feature", "properties": { "内容": "グループホーム上除【認知症対応型共同生活介護】新潟県長岡市上除町西1丁目411番地", "url2": "https://www.kaigokensaku.mhlw.go.jp/15/index.php?action_kouhyou_detail_004_kani=true&JigyosyoCd=1570201002-00&ServiceCd=320&Type=search" }, "geometry": { "type": "Point", "coordinates": [ 138.777732300000025, 37.4498719 ] } },
{ "type": "Feature", "properties": { "内容": "愛の家グループホーム長岡悠久【認知症対応型共同生活介護】新潟県長岡市悠久町３－８６８", "url2": "https://www.kaigokensaku.mhlw.go.jp/15/index.php?action_kouhyou_detail_004_kani=true&JigyosyoCd=1590200372-00&ServiceCd=320&Type=search" }, "geometry": { "type": "Point", "coordinates": [ 138.879185300000017, 37.4358555 ] } },
{ "type": "Feature", "properties": { "内容": "グループホームざおう【認知症対応型共同生活介護】新潟県長岡市蔵王1-1-45", "url2": "https://www.kaigokensaku.mhlw.go.jp/15/index.php?action_kouhyou_detail_004_kani=true&JigyosyoCd=1590200661-00&ServiceCd=320&Type=search" }, "geometry": { "type": "Point", "coordinates": [ 138.854479339950558, 37.465214370940366 ] } },
{ "type": "Feature", "properties": { "内容": "グループホームつつじ日越【認知症対応型共同生活介護】新潟県長岡市上除町1907-1グループホームつつじ日越", "url2": "https://www.kaigokensaku.mhlw.go.jp/15/index.php?action_kouhyou_detail_004_kani=true&JigyosyoCd=1590200745-00&ServiceCd=320&Type=search" }, "geometry": { "type": "Point", "coordinates": [ 138.780597550926245, 37.449152305322478 ] } },
{ "type": "Feature", "properties": { "内容": "こしじ太陽館【認知症対応型共同生活介護】新潟県長岡市浦４９１４－１", "url2": "https://www.kaigokensaku.mhlw.go.jp/15/index.php?action_kouhyou_detail_004_kani=true&JigyosyoCd=1570201622-00&ServiceCd=320&Type=search" }, "geometry": { "type": "Point", "coordinates": [ 138.80122, 37.3886758 ] } },
{ "type": "Feature", "properties": { "内容": "グループホーム　あおぞら館【認知症対応型共同生活介護】新潟県長岡市浦5041番地4", "url2": "https://www.kaigokensaku.mhlw.go.jp/15/index.php?action_kouhyou_detail_004_kani=true&JigyosyoCd=1590200398-00&ServiceCd=320&Type=search" }, "geometry": { "type": "Point", "coordinates": [ 138.799993500000028, 37.3883734 ] } },
{ "type": "Feature", "properties": { "内容": "グループホームこぶし摂田屋【認知症対応型共同生活介護】新潟県長岡市摂田屋５丁目９番７３号", "url2": "https://www.kaigokensaku.mhlw.go.jp/15/index.php?action_kouhyou_detail_004_kani=true&JigyosyoCd=1590200430-00&ServiceCd=320&Type=search" }, "geometry": { "type": "Point", "coordinates": [ 138.8379797, 37.4170208 ] } },
{ "type": "Feature", "properties": { "内容": "ニチイケアセンター長岡中島【認知症対応型共同生活介護】新潟県長岡市長岡中島３丁目６番２８号", "url2": "https://www.kaigokensaku.mhlw.go.jp/15/index.php?action_kouhyou_detail_004_kani=true&JigyosyoCd=1590200455-00&ServiceCd=320&Type=search" }, "geometry": { "type": "Point", "coordinates": [ 138.842279700000063, 37.4536244 ] } },
{ "type": "Feature", "properties": { "内容": "グループホーム晴遊庵【認知症対応型共同生活介護】新潟県長岡市大字日越３３７番地", "url2": "https://www.kaigokensaku.mhlw.go.jp/15/index.php?action_kouhyou_detail_004_kani=true&JigyosyoCd=1570200996-00&ServiceCd=320&Type=search" }, "geometry": { "type": "Point", "coordinates": [ 138.781864587835713, 37.437233480298346 ] } },
{ "type": "Feature", "properties": { "内容": "てまりグループホーム【認知症対応型共同生活介護】新潟県長岡市平1丁目3番60号", "url2": "https://www.kaigokensaku.mhlw.go.jp/15/index.php?action_kouhyou_detail_004_kani=true&JigyosyoCd=1570202240-00&ServiceCd=320&Type=search" }, "geometry": { "type": "Point", "coordinates": [ 139.004535, 37.4718537 ] } },
{ "type": "Feature", "properties": { "内容": "グループホーム千秋【認知症対応型共同生活介護】新潟県長岡市千秋２丁目２２１番地１４", "url2": "https://www.kaigokensaku.mhlw.go.jp/15/index.php?action_kouhyou_detail_004_kani=true&JigyosyoCd=1590200158-00&ServiceCd=320&Type=search" }, "geometry": { "type": "Point", "coordinates": [ 138.827126600000042, 37.4562883 ] } },
{ "type": "Feature", "properties": { "内容": "グループホーム千手【認知症対応型共同生活介護】新潟県長岡市千手3-1-14", "url2": "https://www.kaigokensaku.mhlw.go.jp/15/index.php?action_kouhyou_detail_004_kani=true&JigyosyoCd=1590200232-00&ServiceCd=320&Type=search" }, "geometry": { "type": "Point", "coordinates": [ 138.844958600000041, 37.4439292 ] } },
{ "type": "Feature", "properties": { "内容": "認知症対応型共同生活介護グループホームささざき【認知症対応型共同生活介護】新潟県長岡市笹崎2-1-20", "url2": "https://www.kaigokensaku.mhlw.go.jp/15/index.php?action_kouhyou_detail_004_kani=true&JigyosyoCd=1590200448-00&ServiceCd=320&Type=search" }, "geometry": { "type": "Point", "coordinates": [ 138.848944800000027, 37.4275144 ] } },
{ "type": "Feature", "properties": { "内容": "グループホームつつじ【認知症対応型共同生活介護】長岡市新保町668", "url2": "https://www.kaigokensaku.mhlw.go.jp/15/index.php?action_kouhyou_detail_004_kani=true&JigyosyoCd=1590200463-00&ServiceCd=320&Type=search" }, "geometry": { "type": "Point", "coordinates": [ 138.868057264387517, 37.472841573580077 ] } },
{ "type": "Feature", "properties": { "内容": "グループホームみやざわ苑【認知症対応型共同生活介護】新潟県長岡市栃尾宮沢1778番地地域密着型複合施設みやざわ苑", "url2": "https://www.kaigokensaku.mhlw.go.jp/15/index.php?action_kouhyou_detail_004_kani=true&JigyosyoCd=1590200596-00&ServiceCd=320&Type=search" }, "geometry": { "type": "Point", "coordinates": [ 139.007870129638604, 37.460827269886728 ] } },
{ "type": "Feature", "properties": { "内容": "ながおか医療生活協同組合　グループホームにこにこ【認知症対応型共同生活介護】長岡市前田１－１０－３", "url2": "https://www.kaigokensaku.mhlw.go.jp/15/index.php?action_kouhyou_detail_004_kani=true&JigyosyoCd=1570201911-00&ServiceCd=320&Type=search" }, "geometry": { "type": "Point", "coordinates": [ 138.865359200000057, 37.4357555 ] } },
{ "type": "Feature", "properties": { "内容": "ニチイケアセンター長岡　認知症対応型共同生活介護【認知症対応型共同生活介護】新潟県長岡市喜多町１１０７－１", "url2": "https://www.kaigokensaku.mhlw.go.jp/15/index.php?action_kouhyou_detail_004_kani=true&JigyosyoCd=1590200315-00&ServiceCd=320&Type=search" }, "geometry": { "type": "Point", "coordinates": [ 138.8086846, 37.4494556 ] } },
{ "type": "Feature", "properties": { "内容": "グループホーム川崎東【認知症対応型共同生活介護】長岡市川崎町563番地1", "url2": "https://www.kaigokensaku.mhlw.go.jp/15/index.php?action_kouhyou_detail_004_kani=true&JigyosyoCd=1590200505-00&ServiceCd=320&Type=search" }, "geometry": { "type": "Point", "coordinates": [ 138.866913899999986, 37.4586916 ] } },
{ "type": "Feature", "properties": { "内容": "グループホームわしま【認知症対応型共同生活介護】長岡市小島谷3399番地地域密着型複合施設わしま", "url2": "https://www.kaigokensaku.mhlw.go.jp/15/index.php?action_kouhyou_detail_004_kani=true&JigyosyoCd=1590200620-00&ServiceCd=320&Type=search" }, "geometry": { "type": "Point", "coordinates": [ 138.771332431143946, 37.576201473449323 ] } },
{ "type": "Feature", "properties": { "内容": "グループホームこうなん【認知症対応型共同生活介護】新潟県長岡市渡沢町字早田53番地", "url2": "https://www.kaigokensaku.mhlw.go.jp/15/index.php?action_kouhyou_detail_004_kani=true&JigyosyoCd=1570201077-00&ServiceCd=320&Type=search" }, "geometry": { "type": "Point", "coordinates": [ 138.845912570673846, 37.377613493432705 ] } },
{ "type": "Feature", "properties": { "内容": "グループホームけやき【認知症対応型共同生活介護】長岡市槇山町1593番地1", "url2": "https://www.kaigokensaku.mhlw.go.jp/15/index.php?action_kouhyou_detail_004_kani=true&JigyosyoCd=1570201085-00&ServiceCd=320&Type=search" }, "geometry": { "type": "Point", "coordinates": [ 138.837454564418067, 37.4811274682598 ] } },
{ "type": "Feature", "properties": { "内容": "グループホームけやきの杜【認知症対応型共同生活介護】新潟県長岡市上野町1059-2", "url2": "https://www.kaigokensaku.mhlw.go.jp/15/index.php?action_kouhyou_detail_004_kani=true&JigyosyoCd=1590200067-00&ServiceCd=320&Type=search" }, "geometry": { "type": "Point", "coordinates": [ 138.828487413491757, 37.478341956912736 ] } },
{ "type": "Feature", "properties": { "内容": "グループホームまきやま【認知症対応型共同生活介護】新潟県長岡市槇山町1155番地1", "url2": "https://www.kaigokensaku.mhlw.go.jp/15/index.php?action_kouhyou_detail_004_kani=true&JigyosyoCd=1590200075-00&ServiceCd=320&Type=search" }, "geometry": { "type": "Point", "coordinates": [ 138.837229799999932, 37.4803968 ] } },
{ "type": "Feature", "properties": { "内容": "グループホーム花の里かつぼ【認知症対応型共同生活介護】新潟県長岡市水穴町３９３番地", "url2": "https://www.kaigokensaku.mhlw.go.jp/15/index.php?action_kouhyou_detail_004_kani=true&JigyosyoCd=1590200174-00&ServiceCd=320&Type=search" }, "geometry": { "type": "Point", "coordinates": [ 138.920211483992006, 37.474640275845218 ] } },
{ "type": "Feature", "properties": { "内容": "グループホームせったや【認知症対応型共同生活介護】長岡市摂田屋町2701番地14", "url2": "https://www.kaigokensaku.mhlw.go.jp/15/index.php?action_kouhyou_detail_004_kani=true&JigyosyoCd=1590200224-00&ServiceCd=320&Type=search" }, "geometry": { "type": "Point", "coordinates": [ 138.830709878718181, 37.414833643865123 ] } },
{ "type": "Feature", "properties": { "内容": "グループホーム福住【認知症対応型共同生活介護】新潟県長岡市福住２－１－１５", "url2": "https://www.kaigokensaku.mhlw.go.jp/15/index.php?action_kouhyou_detail_004_kani=true&JigyosyoCd=1590200257-00&ServiceCd=320&Type=search" }, "geometry": { "type": "Point", "coordinates": [ 138.857829100000032, 37.451470299999968 ] } },
{ "type": "Feature", "properties": { "内容": "グループホーム中之島【認知症対応型共同生活介護】新潟県長岡市中之島2105番地6", "url2": "https://www.kaigokensaku.mhlw.go.jp/15/index.php?action_kouhyou_detail_004_kani=true&JigyosyoCd=1590200281-00&ServiceCd=320&Type=search" }, "geometry": { "type": "Point", "coordinates": [ 138.87329276638485, 37.536266464758043 ] } },
{ "type": "Feature", "properties": { "内容": "グループホーム新組【認知症対応型共同生活介護】新潟県長岡市新組南町47番地", "url2": "https://www.kaigokensaku.mhlw.go.jp/15/index.php?action_kouhyou_detail_004_kani=true&JigyosyoCd=1590200299-00&ServiceCd=320&Type=search" }, "geometry": { "type": "Point", "coordinates": [ 138.879243024274814, 37.49904079840752 ] } },
{ "type": "Feature", "properties": { "内容": "グループホーム小国あいあい【認知症対応型共同生活介護】新潟県長岡市小国町太郎丸１５２０－１", "url2": "https://www.kaigokensaku.mhlw.go.jp/15/index.php?action_kouhyou_detail_004_kani=true&JigyosyoCd=1590200539-00&ServiceCd=320&Type=search" }, "geometry": { "type": "Point", "coordinates": [ 138.710012, 37.2783667 ] } },
{ "type": "Feature", "properties": { "内容": "愛の家グループホーム長岡琴平【認知症対応型共同生活介護】新潟県長岡市琴平1丁目4番45号", "url2": "https://www.kaigokensaku.mhlw.go.jp/15/index.php?action_kouhyou_detail_004_kani=true&JigyosyoCd=1590200638-00&ServiceCd=320&Type=search" }, "geometry": { "type": "Point", "coordinates": [ 138.863858700000037, 37.4600081 ] } },
{ "type": "Feature", "properties": { "内容": "グループホームサンホーム【認知症対応型共同生活介護】長岡市楡原784番地13", "url2": "https://www.kaigokensaku.mhlw.go.jp/15/index.php?action_kouhyou_detail_004_kani=true&JigyosyoCd=1570202232-00&ServiceCd=320&Type=search" }, "geometry": { "type": "Point", "coordinates": [ 139.001431439950551, 37.495468877304717 ] } },
{ "type": "Feature", "properties": { "内容": "グループホームあさひ【認知症対応型共同生活介護】西裏館3-4-20", "url2": "https://www.kaigokensaku.mhlw.go.jp/15/index.php?action_kouhyou_detail_004_kani=true&JigyosyoCd=1590400204-00&ServiceCd=320&Type=search" }, "geometry": { "type": "Point", "coordinates": [ 138.956364042582607, 37.643932424360237 ] } },
{ "type": "Feature", "properties": { "内容": "グループホーム保内の杜【認知症対応型共同生活介護】新潟県三条市上保内乙５３３番地７", "url2": "https://www.kaigokensaku.mhlw.go.jp/15/index.php?action_kouhyou_detail_004_kani=true&JigyosyoCd=1590400071-00&ServiceCd=320&Type=search" }, "geometry": { "type": "Point", "coordinates": [ 139.018902300000036, 37.6379445 ] } },
{ "type": "Feature", "properties": { "内容": "グループホーム花みずき【認知症対応型共同生活介護】新潟県三条市島潟２２１番１", "url2": "https://www.kaigokensaku.mhlw.go.jp/15/index.php?action_kouhyou_detail_004_kani=true&JigyosyoCd=1590400089-00&ServiceCd=320&Type=search" }, "geometry": { "type": "Point", "coordinates": [ 139.013387535030461, 37.589722973864006 ] } },
{ "type": "Feature", "properties": { "内容": "グループホームふれあいの杜三条【認知症対応型共同生活介護】新潟県三条市大面493-1", "url2": "https://www.kaigokensaku.mhlw.go.jp/15/index.php?action_kouhyou_detail_004_kani=true&JigyosyoCd=1590400121-00&ServiceCd=320&Type=search" }, "geometry": { "type": "Point", "coordinates": [ 138.940712399999938, 37.568045 ] } },
{ "type": "Feature", "properties": { "内容": "グループホーム裏館倶楽部【認知症対応型共同生活介護】西裏館３丁目６番５４号", "url2": "https://www.kaigokensaku.mhlw.go.jp/15/index.php?action_kouhyou_detail_004_kani=true&JigyosyoCd=1590400188-00&ServiceCd=320&Type=search" }, "geometry": { "type": "Point", "coordinates": [ 138.960304491540541, 37.644007877602149 ] } },
{ "type": "Feature", "properties": { "内容": "グループホーム　こころつくし【認知症対応型共同生活介護】新潟県三条市西大崎二丁目四番十号", "url2": "https://www.kaigokensaku.mhlw.go.jp/15/index.php?action_kouhyou_detail_004_kani=true&JigyosyoCd=1570400505-00&ServiceCd=320&Type=search" }, "geometry": { "type": "Point", "coordinates": [ 138.985459600000013, 37.6193212 ] } },
{ "type": "Feature", "properties": { "内容": "はあとふるあたごグループホーム三条【認知症対応型共同生活介護】三条市石上２丁目１５番１号", "url2": "https://www.kaigokensaku.mhlw.go.jp/15/index.php?action_kouhyou_detail_004_kani=true&JigyosyoCd=1570400752-00&ServiceCd=320&Type=search" }, "geometry": { "type": "Point", "coordinates": [ 138.956131, 37.6442613 ] } },
{ "type": "Feature", "properties": { "内容": "三条ケアセンターそよ風【認知症対応型共同生活介護】新潟県三条市島田二丁目四番三号", "url2": "https://www.kaigokensaku.mhlw.go.jp/15/index.php?action_kouhyou_detail_004_kani=true&JigyosyoCd=1570400869-00&ServiceCd=320&Type=search" }, "geometry": { "type": "Point", "coordinates": [ 138.946266, 37.6269964 ] } },
{ "type": "Feature", "properties": { "内容": "愛の家グループホーム三条上須頃【認知症対応型共同生活介護】新潟県三条市上須頃1521-1", "url2": "https://www.kaigokensaku.mhlw.go.jp/15/index.php?action_kouhyou_detail_004_kani=true&JigyosyoCd=1590400097-00&ServiceCd=320&Type=search" }, "geometry": { "type": "Point", "coordinates": [ 138.93364559919732, 37.647619611191928 ] } },
{ "type": "Feature", "properties": { "内容": "愛の家グループホーム柏崎松波【認知症対応型共同生活介護】新潟県柏崎市松波2丁目3番45号", "url2": "https://www.kaigokensaku.mhlw.go.jp/15/index.php?action_kouhyou_detail_004_kani=true&JigyosyoCd=1590500334-00&ServiceCd=320&Type=search" }, "geometry": { "type": "Point", "coordinates": [ 138.5736595, 37.3904887 ] } },
{ "type": "Feature", "properties": { "内容": "愛の家グループホーム柏崎常盤台【認知症対応型共同生活介護】新潟県柏崎市常盤台7番20号", "url2": "https://www.kaigokensaku.mhlw.go.jp/15/index.php?action_kouhyou_detail_004_kani=true&JigyosyoCd=1590500342-00&ServiceCd=320&Type=search" }, "geometry": { "type": "Point", "coordinates": [ 138.5491108, 37.3582719 ] } },
{ "type": "Feature", "properties": { "内容": "愛の家グループホーム柏崎野田【認知症対応型共同生活介護】新潟県柏崎市野田775番地1", "url2": "https://www.kaigokensaku.mhlw.go.jp/15/index.php?action_kouhyou_detail_004_kani=true&JigyosyoCd=1590500359-00&ServiceCd=320&Type=search" }, "geometry": { "type": "Point", "coordinates": [ 138.5668177, 37.277486600000039 ] } },
{ "type": "Feature", "properties": { "内容": "グループホーム　つむぎの家　かのん【認知症対応型共同生活介護】新潟県柏崎市大字加納5890番地", "url2": "https://www.kaigokensaku.mhlw.go.jp/15/index.php?action_kouhyou_detail_004_kani=true&JigyosyoCd=1590500136-00&ServiceCd=320&Type=search" }, "geometry": { "type": "Point", "coordinates": [ 138.619732249845924, 37.332584415312802 ] } },
{ "type": "Feature", "properties": { "内容": "グループホーム鶴の家柏崎西【認知症対応型共同生活介護】新潟県柏崎市中浜１丁目９番２０－１号", "url2": "https://www.kaigokensaku.mhlw.go.jp/15/index.php?action_kouhyou_detail_004_kani=true&JigyosyoCd=1590500300-00&ServiceCd=320&Type=search" }, "geometry": { "type": "Point", "coordinates": [ 138.5419972, 37.3649731 ] } },
{ "type": "Feature", "properties": { "内容": "ツクイ柏崎グループホーム【認知症対応型共同生活介護】柏崎市柳田町7-26", "url2": "https://www.kaigokensaku.mhlw.go.jp/15/index.php?action_kouhyou_detail_004_kani=true&JigyosyoCd=1570500544-00&ServiceCd=320&Type=search" }, "geometry": { "type": "Point", "coordinates": [ 138.579916899999944, 37.3821407 ] } },
{ "type": "Feature", "properties": { "内容": "グループホームまつみ【認知症対応型共同生活介護】新潟県柏崎市松美1丁目5番10号地域密着事業所まつみ", "url2": "https://www.kaigokensaku.mhlw.go.jp/15/index.php?action_kouhyou_detail_004_kani=true&JigyosyoCd=1590500193-00&ServiceCd=320&Type=search" }, "geometry": { "type": "Point", "coordinates": [ 138.575048199999969, 37.3740695 ] } },
{ "type": "Feature", "properties": { "内容": "グル－プホ－ム鶴の家柏崎南【認知症対応型共同生活介護】新潟県柏崎市半田3丁目14番10号", "url2": "https://www.kaigokensaku.mhlw.go.jp/15/index.php?action_kouhyou_detail_004_kani=true&JigyosyoCd=1590500276-00&ServiceCd=320&Type=search" }, "geometry": { "type": "Point", "coordinates": [ 138.578557581089882, 37.358390178792483 ] } },
{ "type": "Feature", "properties": { "内容": "認知症高齢者グループホーム　米山五楽庵【認知症対応型共同生活介護】新潟県柏崎市大字茨目字二ツ池２０７１－１", "url2": "https://www.kaigokensaku.mhlw.go.jp/15/index.php?action_kouhyou_detail_004_kani=true&JigyosyoCd=1570500312-00&ServiceCd=320&Type=search" }, "geometry": { "type": "Point", "coordinates": [ 138.585328256944337, 37.35360440907337 ] } },
{ "type": "Feature", "properties": { "内容": "ももの木かしわざき　グループホーム和奏【認知症対応型共同生活介護】新潟県柏崎市元城町1-46-2", "url2": "https://www.kaigokensaku.mhlw.go.jp/15/index.php?action_kouhyou_detail_004_kani=true&JigyosyoCd=1590500102-00&ServiceCd=320&Type=search" }, "geometry": { "type": "Point", "coordinates": [ 138.554529240475347, 37.350308517502825 ] } },
{ "type": "Feature", "properties": { "内容": "ニチイケアセンター柏崎　ニチイのほほえみ【認知症対応型共同生活介護】新潟県柏崎市西港町3-20", "url2": "https://www.kaigokensaku.mhlw.go.jp/15/index.php?action_kouhyou_detail_004_kani=true&JigyosyoCd=1590500052-00&ServiceCd=320&Type=search" }, "geometry": { "type": "Point", "coordinates": [ 138.548190200000022, 37.3707303 ] } },
{ "type": "Feature", "properties": { "内容": "グループホームひなた【認知症対応型共同生活介護】新潟県柏崎市大字加納5884番地地域密着施設ひなた", "url2": "https://www.kaigokensaku.mhlw.go.jp/15/index.php?action_kouhyou_detail_004_kani=true&JigyosyoCd=1590500250-00&ServiceCd=320&Type=search" }, "geometry": { "type": "Point", "coordinates": [ 138.620284413739, 37.332430427661265 ] } },
{ "type": "Feature", "properties": { "内容": "グループホームしばた【認知症対応型共同生活介護】新潟県新発田市下中山246番１", "url2": "https://www.kaigokensaku.mhlw.go.jp/15/index.php?action_kouhyou_detail_004_kani=true&JigyosyoCd=1570600435-00&ServiceCd=320&Type=search" }, "geometry": { "type": "Point", "coordinates": [ 139.442722600000025, 37.9932648 ] } },
{ "type": "Feature", "properties": { "内容": "グループホームしあわせ広場【認知症対応型共同生活介護】新発田市御幸町4丁目3番1号", "url2": "https://www.kaigokensaku.mhlw.go.jp/15/index.php?action_kouhyou_detail_004_kani=true&JigyosyoCd=1570600997-00&ServiceCd=320&Type=search" }, "geometry": { "type": "Point", "coordinates": [ 139.317118899999969, 37.9435555 ] } },
{ "type": "Feature", "properties": { "内容": "けあビジョンホーム新発田【認知症対応型共同生活介護】新潟県新発田市金塚500番3", "url2": "https://www.kaigokensaku.mhlw.go.jp/15/index.php?action_kouhyou_detail_004_kani=true&JigyosyoCd=1590600217-00&ServiceCd=320&Type=search" }, "geometry": { "type": "Point", "coordinates": [ 139.3747406, 38.020139100000051 ] } },
{ "type": "Feature", "properties": { "内容": "けあビジョンホーム新発田別館【認知症対応型共同生活介護】新潟県新発田市下小中山328-1", "url2": "https://www.kaigokensaku.mhlw.go.jp/15/index.php?action_kouhyou_detail_004_kani=true&JigyosyoCd=1590600225-00&ServiceCd=320&Type=search" }, "geometry": { "type": "Point", "coordinates": [ 139.3747967, 38.0194568 ] } },
{ "type": "Feature", "properties": { "内容": "グループホーム加治川の里【認知症対応型共同生活介護】新発田市向中条2843番地1", "url2": "https://www.kaigokensaku.mhlw.go.jp/15/index.php?action_kouhyou_detail_004_kani=true&JigyosyoCd=1570600948-00&ServiceCd=320&Type=search" }, "geometry": { "type": "Point", "coordinates": [ 139.346554252114856, 37.977429730055043 ] } },
{ "type": "Feature", "properties": { "内容": "グループホーム地利目木【認知症対応型共同生活介護】新発田市佐々木２６１０番地", "url2": "https://www.kaigokensaku.mhlw.go.jp/15/index.php?action_kouhyou_detail_004_kani=true&JigyosyoCd=1570600724-00&ServiceCd=320&Type=search" }, "geometry": { "type": "Point", "coordinates": [ 139.2502055, 37.9520794 ] } },
{ "type": "Feature", "properties": { "内容": "グループホーム陽だまり苑【認知症対応型共同生活介護】新発田市岡田1746番地1", "url2": "https://www.kaigokensaku.mhlw.go.jp/15/index.php?action_kouhyou_detail_004_kani=true&JigyosyoCd=1570600369-00&ServiceCd=320&Type=search" }, "geometry": { "type": "Point", "coordinates": [ 139.359800100000029, 37.9510506 ] } },
{ "type": "Feature", "properties": { "内容": "ほっとしばたケアセンター【認知症対応型共同生活介護】新潟県新発田市豊町三丁目5番11号", "url2": "https://www.kaigokensaku.mhlw.go.jp/15/index.php?action_kouhyou_detail_004_kani=true&JigyosyoCd=1570600914-00&ServiceCd=320&Type=search" }, "geometry": { "type": "Point", "coordinates": [ 139.3412472, 37.9368044 ] } },
{ "type": "Feature", "properties": { "内容": "グループホームつきおか【認知症対応型共同生活介護】新発田市本田丁1466番地7", "url2": "https://www.kaigokensaku.mhlw.go.jp/15/index.php?action_kouhyou_detail_004_kani=true&JigyosyoCd=1590600019-00&ServiceCd=320&Type=search" }, "geometry": { "type": "Point", "coordinates": [ 139.2723631, 37.8896643 ] } },
{ "type": "Feature", "properties": { "内容": "グループホーム富塚・のぞみの里【認知症対応型共同生活介護】新潟県新発田市富塚１３５５", "url2": "https://www.kaigokensaku.mhlw.go.jp/15/index.php?action_kouhyou_detail_004_kani=true&JigyosyoCd=1590600035-00&ServiceCd=320&Type=search" }, "geometry": { "type": "Point", "coordinates": [ 139.29174409999996, 37.9545888 ] } },
{ "type": "Feature", "properties": { "内容": "グループホーム諏訪苑【認知症対応型共同生活介護】新潟県新発田市岡屋敷字諏訪平７５８番地", "url2": "https://www.kaigokensaku.mhlw.go.jp/15/index.php?action_kouhyou_detail_004_kani=true&JigyosyoCd=1590600076-00&ServiceCd=320&Type=search" }, "geometry": { "type": "Point", "coordinates": [ 139.304993200000013, 37.8847775 ] } },
{ "type": "Feature", "properties": { "内容": "グループホーム　いじみの【認知症対応型共同生活介護】新潟県新発田市五十公野4772番地２", "url2": "https://www.kaigokensaku.mhlw.go.jp/15/index.php?action_kouhyou_detail_004_kani=true&JigyosyoCd=1570600666-00&ServiceCd=320&Type=search" }, "geometry": { "type": "Point", "coordinates": [ 139.350302573016393, 37.932473046654074 ] } },
{ "type": "Feature", "properties": { "内容": "グループホーム・ヒルトップくしがた【認知症対応型共同生活介護】新潟県新発田市菅谷３３４５番地１", "url2": "https://www.kaigokensaku.mhlw.go.jp/15/index.php?action_kouhyou_detail_004_kani=true&JigyosyoCd=1590600050-00&ServiceCd=320&Type=search" }, "geometry": { "type": "Point", "coordinates": [ 139.4144986, 37.9824987 ] } },
{ "type": "Feature", "properties": { "内容": "グループホーム深雪【認知症対応型共同生活介護】新潟県小千谷市大字ひ生乙1460番地1", "url2": "https://www.kaigokensaku.mhlw.go.jp/15/index.php?action_kouhyou_detail_004_kani=true&JigyosyoCd=1570800282-00&ServiceCd=320&Type=search" }, "geometry": { "type": "Point", "coordinates": [ 138.807409300000018, 37.306997699999989 ] } },
{ "type": "Feature", "properties": { "内容": "グループホームほのぼの【認知症対応型共同生活介護】新潟県小千谷市大字川井1690番地", "url2": "https://www.kaigokensaku.mhlw.go.jp/15/index.php?action_kouhyou_detail_004_kani=true&JigyosyoCd=1590800015-00&ServiceCd=320&Type=search" }, "geometry": { "type": "Point", "coordinates": [ 138.828393707934538, 37.255593665233569 ] } },
{ "type": "Feature", "properties": { "内容": "グループホームゆきんこ【認知症対応型共同生活介護】新潟県十日町市四日町1332", "url2": "https://www.kaigokensaku.mhlw.go.jp/15/index.php?action_kouhyou_detail_004_kani=true&JigyosyoCd=1571000320-00&ServiceCd=320&Type=search" }, "geometry": { "type": "Point", "coordinates": [ 138.761817599999944, 37.1489237 ] } },
{ "type": "Feature", "properties": { "内容": "グループホームみかん【認知症対応型共同生活介護】新潟県十日町市仁田2311番地4健康倶楽部たちばな", "url2": "https://www.kaigokensaku.mhlw.go.jp/15/index.php?action_kouhyou_detail_004_kani=true&JigyosyoCd=1591000011-00&ServiceCd=320&Type=search" }, "geometry": { "type": "Point", "coordinates": [ 138.747534931911815, 37.205924056935515 ] } },
{ "type": "Feature", "properties": { "内容": "グループホームよしだ【認知症対応型共同生活介護】新潟県十日町市南鐙坂４４６番地１複合型介護施設よしだ", "url2": "https://www.kaigokensaku.mhlw.go.jp/15/index.php?action_kouhyou_detail_004_kani=true&JigyosyoCd=1591000060-00&ServiceCd=320&Type=search" }, "geometry": { "type": "Point", "coordinates": [ 138.7207244, 37.1248953 ] } },
{ "type": "Feature", "properties": { "内容": "グループホームうえの【認知症対応型共同生活介護】新潟県十日町市上野甲８２番地１", "url2": "https://www.kaigokensaku.mhlw.go.jp/15/index.php?action_kouhyou_detail_004_kani=true&JigyosyoCd=1591000128-00&ServiceCd=320&Type=search" }, "geometry": { "type": "Point", "coordinates": [ 138.745808092941587, 37.175321874845594 ] } },
{ "type": "Feature", "properties": { "内容": "ケアガーデン新幸【認知症対応型共同生活介護】見附市新幸町7番18号ケアガーデン新幸", "url2": "https://www.kaigokensaku.mhlw.go.jp/15/index.php?action_kouhyou_detail_004_kani=true&JigyosyoCd=1591100043-00&ServiceCd=320&Type=search" }, "geometry": { "type": "Point", "coordinates": [ 138.892549, 37.5401191 ] } },
{ "type": "Feature", "properties": { "内容": "はあとふるあたごグループホームみつけ【認知症対応型共同生活介護】新潟県見附市庄川町855番地1", "url2": "https://www.kaigokensaku.mhlw.go.jp/15/index.php?action_kouhyou_detail_004_kani=true&JigyosyoCd=1591100159-00&ServiceCd=320&Type=search" }, "geometry": { "type": "Point", "coordinates": [ 138.9525796, 37.5297509 ] } },
{ "type": "Feature", "properties": { "内容": "グループホームすずらんの園【認知症対応型共同生活介護】新潟県見附市田井町115番地1", "url2": "https://www.kaigokensaku.mhlw.go.jp/15/index.php?action_kouhyou_detail_004_kani=true&JigyosyoCd=1591100019-00&ServiceCd=320&Type=search" }, "geometry": { "type": "Point", "coordinates": [ 138.927827900000011, 37.4958167 ] } },
{ "type": "Feature", "properties": { "内容": "グループホームふるまい見附【認知症対応型共同生活介護】新潟県見附市本所1丁目26番25号", "url2": "https://www.kaigokensaku.mhlw.go.jp/15/index.php?action_kouhyou_detail_004_kani=true&JigyosyoCd=1591100134-00&ServiceCd=320&Type=search" }, "geometry": { "type": "Point", "coordinates": [ 138.913905048678345, 37.539434510410246 ] } },
{ "type": "Feature", "properties": { "内容": "みつけケアセンターそよ風【認知症対応型共同生活介護】新潟県見附市本町４丁目２番２５号", "url2": "https://www.kaigokensaku.mhlw.go.jp/15/index.php?action_kouhyou_detail_004_kani=true&JigyosyoCd=1571100344-00&ServiceCd=320&Type=search" }, "geometry": { "type": "Point", "coordinates": [ 138.9247957, 37.5301046 ] } },
{ "type": "Feature", "properties": { "内容": "グループホーム　アットホーム今町【認知症対応型共同生活介護】新潟県見附市今町5-41-37", "url2": "https://www.kaigokensaku.mhlw.go.jp/15/index.php?action_kouhyou_detail_004_kani=true&JigyosyoCd=1591100050-00&ServiceCd=320&Type=search" }, "geometry": { "type": "Point", "coordinates": [ 138.891254634918226, 37.553998703231336 ] } },
{ "type": "Feature", "properties": { "内容": "グループホーム上海府【認知症対応型共同生活介護】村上市吉浦1074番地2", "url2": "https://www.kaigokensaku.mhlw.go.jp/15/index.php?action_kouhyou_detail_004_kani=true&JigyosyoCd=1591200025-00&ServiceCd=320&Type=search" }, "geometry": { "type": "Point", "coordinates": [ 139.451065299999982, 38.3058221 ] } },
{ "type": "Feature", "properties": { "内容": "認知症高齢者グループホームまつかぜ【認知症対応型共同生活介護】新潟県村上市北新保６８３番地１２", "url2": "https://www.kaigokensaku.mhlw.go.jp/15/index.php?action_kouhyou_detail_004_kani=true&JigyosyoCd=1591200066-00&ServiceCd=320&Type=search" }, "geometry": { "type": "Point", "coordinates": [ 139.435343399999965, 38.1708736 ] } },
{ "type": "Feature", "properties": { "内容": "グループホームあらかわ【認知症対応型共同生活介護】新潟県村上市大津3689番地1", "url2": "https://www.kaigokensaku.mhlw.go.jp/15/index.php?action_kouhyou_detail_004_kani=true&JigyosyoCd=1591200173-00&ServiceCd=320&Type=search" }, "geometry": { "type": "Point", "coordinates": [ 139.434563370269728, 38.13096493707129 ] } },
{ "type": "Feature", "properties": { "内容": "ほっとむらかみグループホーム【認知症対応型共同生活介護】新潟県村上市四日市８０２番地１", "url2": "https://www.kaigokensaku.mhlw.go.jp/15/index.php?action_kouhyou_detail_004_kani=true&JigyosyoCd=1591200017-00&ServiceCd=320&Type=search" }, "geometry": { "type": "Point", "coordinates": [ 139.496618, 38.2398386 ] } },
{ "type": "Feature", "properties": { "内容": "認知症高齢者グループホームあさひ【認知症対応型共同生活介護】新潟県　村上市　猿沢　2222番地", "url2": "https://www.kaigokensaku.mhlw.go.jp/15/index.php?action_kouhyou_detail_004_kani=true&JigyosyoCd=1591200058-00&ServiceCd=320&Type=search" }, "geometry": { "type": "Point", "coordinates": [ 139.527544632015946, 38.286871116964925 ] } },
{ "type": "Feature", "properties": { "内容": "グループホーム　たばたまち　ひかり苑【認知症対応型共同生活介護】新潟県村上市田端町8-65", "url2": "https://www.kaigokensaku.mhlw.go.jp/15/index.php?action_kouhyou_detail_004_kani=true&JigyosyoCd=1591200132-00&ServiceCd=320&Type=search" }, "geometry": { "type": "Point", "coordinates": [ 139.464836699999978, 38.2186071 ] } },
{ "type": "Feature", "properties": { "内容": "グループホーム笑顔【認知症対応型共同生活介護】村上市　飯野二丁目　4番　7号", "url2": "https://www.kaigokensaku.mhlw.go.jp/15/index.php?action_kouhyou_detail_004_kani=true&JigyosyoCd=1591200215-00&ServiceCd=320&Type=search" }, "geometry": { "type": "Point", "coordinates": [ 139.4749951, 38.221446300000025 ] } },
{ "type": "Feature", "properties": { "内容": "グループホームしおかぜ【認知症対応型共同生活介護】新潟県村上市勝木８２４－２", "url2": "https://www.kaigokensaku.mhlw.go.jp/15/index.php?action_kouhyou_detail_004_kani=true&JigyosyoCd=1591200090-00&ServiceCd=320&Type=search" }, "geometry": { "type": "Point", "coordinates": [ 139.523792100000037, 38.4915024 ] } },
{ "type": "Feature", "properties": { "内容": "グループホームふるさと【認知症対応型共同生活介護】新潟県村上市中原3920番地1", "url2": "https://www.kaigokensaku.mhlw.go.jp/15/index.php?action_kouhyou_detail_004_kani=true&JigyosyoCd=1591200181-00&ServiceCd=320&Type=search" }, "geometry": { "type": "Point", "coordinates": [ 139.5405591, 38.273148400000011 ] } },
{ "type": "Feature", "properties": { "内容": "グループホームかごやまの里【認知症対応型共同生活介護】新潟県村上市北新保571番地39", "url2": "https://www.kaigokensaku.mhlw.go.jp/15/index.php?action_kouhyou_detail_004_kani=true&JigyosyoCd=1591200223-00&ServiceCd=320&Type=search" }, "geometry": { "type": "Point", "coordinates": [ 139.428921583991951, 38.158469212212658 ] } },
{ "type": "Feature", "properties": { "内容": "グループホームみなみよしだ【認知症対応型共同生活介護】新潟県燕市吉田西太田２６４番地５", "url2": "https://www.kaigokensaku.mhlw.go.jp/15/index.php?action_kouhyou_detail_004_kani=true&JigyosyoCd=1591300031-00&ServiceCd=320&Type=search" }, "geometry": { "type": "Point", "coordinates": [ 138.869756100000018, 37.6721155 ] } },
{ "type": "Feature", "properties": { "内容": "グループホーム　縁【認知症対応型共同生活介護】新潟県燕市分水旭町２丁目２番１７号", "url2": "https://www.kaigokensaku.mhlw.go.jp/15/index.php?action_kouhyou_detail_004_kani=true&JigyosyoCd=1591300049-00&ServiceCd=320&Type=search" }, "geometry": { "type": "Point", "coordinates": [ 138.844979599999988, 37.6279766 ] } },
{ "type": "Feature", "properties": { "内容": "グループホームさわらび【認知症対応型共同生活介護】新潟県燕市佐渡山4130-1", "url2": "https://www.kaigokensaku.mhlw.go.jp/15/index.php?action_kouhyou_detail_004_kani=true&JigyosyoCd=1591300056-00&ServiceCd=320&Type=search" }, "geometry": { "type": "Point", "coordinates": [ 138.91319139999996, 37.7107371 ] } },
{ "type": "Feature", "properties": { "内容": "グループホームあさひ【認知症対応型共同生活介護】新潟県燕市吉田旭町1丁目6-23", "url2": "https://www.kaigokensaku.mhlw.go.jp/15/index.php?action_kouhyou_detail_004_kani=true&JigyosyoCd=1591300098-00&ServiceCd=320&Type=search" }, "geometry": { "type": "Point", "coordinates": [ 138.875641099999939, 37.687761 ] } },
{ "type": "Feature", "properties": { "内容": "まいらいふ吉田【認知症対応型共同生活介護】新潟県燕市吉田旭町４丁目５－２１", "url2": "https://www.kaigokensaku.mhlw.go.jp/15/index.php?action_kouhyou_detail_004_kani=true&JigyosyoCd=1571300449-00&ServiceCd=320&Type=search" }, "geometry": { "type": "Point", "coordinates": [ 138.8736136, 37.684939 ] } },
{ "type": "Feature", "properties": { "内容": "グループホーム仲町【認知症対応型共同生活介護】新潟県燕市仲町2番42号", "url2": "https://www.kaigokensaku.mhlw.go.jp/15/index.php?action_kouhyou_detail_004_kani=true&JigyosyoCd=1591300064-00&ServiceCd=320&Type=search" }, "geometry": { "type": "Point", "coordinates": [ 138.924521642327818, 37.663774931372416 ] } },
{ "type": "Feature", "properties": { "内容": "グループホーム白山町【認知症対応型共同生活介護】燕市白山町3-26-17ふれあいステーション白山町", "url2": "https://www.kaigokensaku.mhlw.go.jp/15/index.php?action_kouhyou_detail_004_kani=true&JigyosyoCd=1591300122-00&ServiceCd=320&Type=search" }, "geometry": { "type": "Point", "coordinates": [ 138.921566362565585, 37.66928950243404 ] } },
{ "type": "Feature", "properties": { "内容": "まいらいふ燕【認知症対応型共同生活介護】新潟県燕市小関1389番地4", "url2": "https://www.kaigokensaku.mhlw.go.jp/15/index.php?action_kouhyou_detail_004_kani=true&JigyosyoCd=1591300239-00&ServiceCd=320&Type=search" }, "geometry": { "type": "Point", "coordinates": [ 138.903652700000066, 37.660574 ] } },
{ "type": "Feature", "properties": { "内容": "グループホーム「楽楽」【認知症対応型共同生活介護】新潟県燕市水道町1丁目13番31号", "url2": "https://www.kaigokensaku.mhlw.go.jp/15/index.php?action_kouhyou_detail_004_kani=true&JigyosyoCd=1571300258-00&ServiceCd=320&Type=search" }, "geometry": { "type": "Point", "coordinates": [ 138.918653662565589, 37.655227235825905 ] } },
{ "type": "Feature", "properties": { "内容": "グループホーム我が家【認知症対応型共同生活介護】新潟県燕市新堀２４４８番地９", "url2": "https://www.kaigokensaku.mhlw.go.jp/15/index.php?action_kouhyou_detail_004_kani=true&JigyosyoCd=1571300589-00&ServiceCd=320&Type=search" }, "geometry": { "type": "Point", "coordinates": [ 138.836132899999939, 37.6380584 ] } },
{ "type": "Feature", "properties": { "内容": "グループホーム長善のさと【認知症対応型共同生活介護】新潟県燕市粟生津55番地", "url2": "https://www.kaigokensaku.mhlw.go.jp/15/index.php?action_kouhyou_detail_004_kani=true&JigyosyoCd=1591300205-00&ServiceCd=320&Type=search" }, "geometry": { "type": "Point", "coordinates": [ 138.870198599999981, 37.6522573 ] } },
{ "type": "Feature", "properties": { "内容": "グループホームひまわり【認知症対応型共同生活介護】新潟県燕市吉田大保町25番15号", "url2": "https://www.kaigokensaku.mhlw.go.jp/15/index.php?action_kouhyou_detail_004_kani=true&JigyosyoCd=1591300312-00&ServiceCd=320&Type=search" }, "geometry": { "type": "Point", "coordinates": [ 138.8830658, 37.6891569 ] } },
{ "type": "Feature", "properties": { "内容": "グループホームつどいの家・桜町【認知症対応型共同生活介護】新潟県燕市分水桜町3丁目3番16号地域生活支援施設つどい", "url2": "https://www.kaigokensaku.mhlw.go.jp/15/index.php?action_kouhyou_detail_004_kani=true&JigyosyoCd=1591300189-00&ServiceCd=320&Type=search" }, "geometry": { "type": "Point", "coordinates": [ 138.839631926856327, 37.626172933527229 ] } },
{ "type": "Feature", "properties": { "内容": "グループホームおしあげ【認知症対応型共同生活介護】新潟県糸魚川市南押上1丁目5番7号グループホームおしあげ", "url2": "https://www.kaigokensaku.mhlw.go.jp/15/index.php?action_kouhyou_detail_004_kani=true&JigyosyoCd=1591500119-00&ServiceCd=320&Type=search" }, "geometry": { "type": "Point", "coordinates": [ 137.878414099999986, 37.0473524 ] } },
{ "type": "Feature", "properties": { "内容": "グループホーム　てらまち【認知症対応型共同生活介護】新潟県糸魚川市寺町3丁目6番4号グループホーム　てらまち", "url2": "https://www.kaigokensaku.mhlw.go.jp/15/index.php?action_kouhyou_detail_004_kani=true&JigyosyoCd=1591500077-00&ServiceCd=320&Type=search" }, "geometry": { "type": "Point", "coordinates": [ 137.868598499999962, 37.0481163 ] } },
{ "type": "Feature", "properties": { "内容": "グループホームうみかわ【認知症対応型共同生活介護】新潟県糸魚川市大字水保1788-1", "url2": "https://www.kaigokensaku.mhlw.go.jp/15/index.php?action_kouhyou_detail_004_kani=true&JigyosyoCd=1591500093-00&ServiceCd=320&Type=search" }, "geometry": { "type": "Point", "coordinates": [ 137.889645, 37.0152449 ] } },
{ "type": "Feature", "properties": { "内容": "グループホームじょんのび３【認知症対応型共同生活介護】新潟県糸魚川市大字須沢２９１４", "url2": "https://www.kaigokensaku.mhlw.go.jp/15/index.php?action_kouhyou_detail_004_kani=true&JigyosyoCd=1571500501-00&ServiceCd=320&Type=search" }, "geometry": { "type": "Point", "coordinates": [ 137.8282054, 37.0354785 ] } },
{ "type": "Feature", "properties": { "内容": "グループホーム　ゆうなぎ【認知症対応型共同生活介護】新潟県　糸魚川市　桜木　45番地1", "url2": "https://www.kaigokensaku.mhlw.go.jp/15/index.php?action_kouhyou_detail_004_kani=true&JigyosyoCd=1571500543-00&ServiceCd=320&Type=search" }, "geometry": { "type": "Point", "coordinates": [ 137.985057899999987, 37.0983436 ] } },
{ "type": "Feature", "properties": { "内容": "けあビジョンホーム糸魚川【認知症対応型共同生活介護】新潟県糸魚川市大字能生2571-1", "url2": "https://www.kaigokensaku.mhlw.go.jp/15/index.php?action_kouhyou_detail_004_kani=true&JigyosyoCd=1591500127-00&ServiceCd=320&Type=search" }, "geometry": { "type": "Point", "coordinates": [ 137.989755288924925, 37.095256885372486 ] } },
{ "type": "Feature", "properties": { "内容": "グループホームエフビー糸魚川【認知症対応型共同生活介護】南押上3-6-16", "url2": "https://www.kaigokensaku.mhlw.go.jp/15/index.php?action_kouhyou_detail_004_kani=true&JigyosyoCd=1591500135-00&ServiceCd=320&Type=search" }, "geometry": { "type": "Point", "coordinates": [ 137.882031499111889, 37.04583505334277 ] } },
{ "type": "Feature", "properties": { "内容": "アグリケアホームいといがわ【認知症対応型共同生活介護】新潟県糸魚川市横町5-9-12", "url2": "https://www.kaigokensaku.mhlw.go.jp/15/index.php?action_kouhyou_detail_004_kani=true&JigyosyoCd=1571500162-00&ServiceCd=320&Type=search" }, "geometry": { "type": "Point", "coordinates": [ 137.848302834532205, 37.042963499113043 ] } },
{ "type": "Feature", "properties": { "内容": "グループホーム　いしづか【認知症対応型共同生活介護】新潟県妙高市石塚町２丁目１０９４番地", "url2": "https://www.kaigokensaku.mhlw.go.jp/15/index.php?action_kouhyou_detail_004_kani=true&JigyosyoCd=1591600091-00&ServiceCd=320&Type=search" }, "geometry": { "type": "Point", "coordinates": [ 138.254958399999964, 37.0378921 ] } },
{ "type": "Feature", "properties": { "内容": "認知症対応型共同生活介護事業部　グループホームてるてる家族【認知症対応型共同生活介護】新潟県妙高市柳井田町4丁目14番1号", "url2": "https://www.kaigokensaku.mhlw.go.jp/15/index.php?action_kouhyou_detail_004_kani=true&JigyosyoCd=1591600026-00&ServiceCd=320&Type=search" }, "geometry": { "type": "Point", "coordinates": [ 138.258265199999983, 37.057907 ] } },
{ "type": "Feature", "properties": { "内容": "グループホーム新井【認知症対応型共同生活介護】妙高市高柳２丁目６番２号", "url2": "https://www.kaigokensaku.mhlw.go.jp/15/index.php?action_kouhyou_detail_004_kani=true&JigyosyoCd=1571600319-00&ServiceCd=320&Type=search" }, "geometry": { "type": "Point", "coordinates": [ 138.263704700000062, 37.0325707 ] } },
{ "type": "Feature", "properties": { "内容": "グループホームはらどおり【認知症対応型共同生活介護】新潟県妙高市大字岡新田301番地", "url2": "https://www.kaigokensaku.mhlw.go.jp/15/index.php?action_kouhyou_detail_004_kani=true&JigyosyoCd=1591600125-00&ServiceCd=320&Type=search" }, "geometry": { "type": "Point", "coordinates": [ 138.252397800000011, 36.949132200000015 ] } },
{ "type": "Feature", "properties": { "内容": "グループホーム妙高愛宕の園【認知症対応型共同生活介護】新潟県妙高市小出雲3丁目12-18グループホーム妙高愛宕の園", "url2": "https://www.kaigokensaku.mhlw.go.jp/15/index.php?action_kouhyou_detail_004_kani=true&JigyosyoCd=1591600166-00&ServiceCd=320&Type=search" }, "geometry": { "type": "Point", "coordinates": [ 138.256450716671765, 37.017326579467976 ] } },
{ "type": "Feature", "properties": { "内容": "特定非営利活動法人　七福神　　グループホーム七福神【認知症対応型共同生活介護】新潟県妙高市末広町1124番地", "url2": "https://www.kaigokensaku.mhlw.go.jp/15/index.php?action_kouhyou_detail_004_kani=true&JigyosyoCd=1571600475-00&ServiceCd=320&Type=search" }, "geometry": { "type": "Point", "coordinates": [ 138.243754500000023, 37.0165776 ] } },
{ "type": "Feature", "properties": { "内容": "グループホームまゆ　池の平【認知症対応型共同生活介護】妙高市関川2351番地", "url2": "https://www.kaigokensaku.mhlw.go.jp/15/index.php?action_kouhyou_detail_004_kani=true&JigyosyoCd=1591600059-00&ServiceCd=320&Type=search" }, "geometry": { "type": "Point", "coordinates": [ 138.180172393254111, 36.870302076405238 ] } },
{ "type": "Feature", "properties": { "内容": "グループホーム　菜の花【認知症対応型共同生活介護】新潟県五泉市東石曾根5651番地", "url2": "https://www.kaigokensaku.mhlw.go.jp/15/index.php?action_kouhyou_detail_004_kani=true&JigyosyoCd=1591700107-00&ServiceCd=320&Type=search" }, "geometry": { "type": "Point", "coordinates": [ 139.190868799999947, 37.7040157 ] } },
{ "type": "Feature", "properties": { "内容": "グループホームありがとうの家【認知症対応型共同生活介護】新潟県五泉市村松甲５６０４番地１", "url2": "https://www.kaigokensaku.mhlw.go.jp/15/index.php?action_kouhyou_detail_004_kani=true&JigyosyoCd=1571700465-00&ServiceCd=320&Type=search" }, "geometry": { "type": "Point", "coordinates": [ 139.180900699999938, 37.6867282 ] } },
{ "type": "Feature", "properties": { "内容": "グループホーム楓の杜【認知症対応型共同生活介護】新潟県五泉市南本町2丁目3番2号", "url2": "https://www.kaigokensaku.mhlw.go.jp/15/index.php?action_kouhyou_detail_004_kani=true&JigyosyoCd=1591700040-00&ServiceCd=320&Type=search" }, "geometry": { "type": "Point", "coordinates": [ 139.175682400000028, 37.7321511 ] } },
{ "type": "Feature", "properties": { "内容": "グループホームありがとうの家小新保【認知症対応型共同生活介護】新潟県五泉市村松１２８９番地１", "url2": "https://www.kaigokensaku.mhlw.go.jp/15/index.php?action_kouhyou_detail_004_kani=true&JigyosyoCd=1591700149-00&ServiceCd=320&Type=search" }, "geometry": { "type": "Point", "coordinates": [ 139.176846620901529, 37.69894436897016 ] } },
{ "type": "Feature", "properties": { "内容": "グループホーム　ふれ愛【認知症対応型共同生活介護】新潟県五泉市船越26-1", "url2": "https://www.kaigokensaku.mhlw.go.jp/15/index.php?action_kouhyou_detail_004_kani=true&JigyosyoCd=1591700198-00&ServiceCd=320&Type=search" }, "geometry": { "type": "Point", "coordinates": [ 139.171192826769641, 37.759793348245687 ] } },
{ "type": "Feature", "properties": { "内容": "グループホームみどりの家【認知症対応型共同生活介護】新潟県五泉市村松甲5600番地1グループホームみどりの家", "url2": "https://www.kaigokensaku.mhlw.go.jp/15/index.php?action_kouhyou_detail_004_kani=true&JigyosyoCd=1591700222-00&ServiceCd=320&Type=search" }, "geometry": { "type": "Point", "coordinates": [ 139.181144499999988, 37.6871194 ] } },
{ "type": "Feature", "properties": { "内容": "けあビジョンホーム五泉【認知症対応型共同生活介護】新潟県五泉市村松丙122-1", "url2": "https://www.kaigokensaku.mhlw.go.jp/15/index.php?action_kouhyou_detail_004_kani=true&JigyosyoCd=1591700255-00&ServiceCd=320&Type=search" }, "geometry": { "type": "Point", "coordinates": [ 139.1854523, 37.6952298 ] } },
{ "type": "Feature", "properties": { "内容": "はあとふるあたごグループホーム五泉【認知症対応型共同生活介護】五泉市太田2丁目1番3号", "url2": "https://www.kaigokensaku.mhlw.go.jp/15/index.php?action_kouhyou_detail_004_kani=true&JigyosyoCd=1571700259-00&ServiceCd=320&Type=search" }, "geometry": { "type": "Point", "coordinates": [ 139.18518376441807, 37.742296930490951 ] } },
{ "type": "Feature", "properties": { "内容": "グループホーム癒しの家「直江津」【認知症対応型共同生活介護】新潟県上越市港町1丁目15-2", "url2": "https://www.kaigokensaku.mhlw.go.jp/15/index.php?action_kouhyou_detail_004_kani=true&JigyosyoCd=1590300057-00&ServiceCd=320&Type=search" }, "geometry": { "type": "Point", "coordinates": [ 138.252410599999962, 37.181372 ] } },
{ "type": "Feature", "properties": { "内容": "グループホーム癒しの家【認知症対応型共同生活介護】新潟県上越市清里区岡嶺新田140番地1", "url2": "https://www.kaigokensaku.mhlw.go.jp/15/index.php?action_kouhyou_detail_004_kani=true&JigyosyoCd=1590300065-00&ServiceCd=320&Type=search" }, "geometry": { "type": "Point", "coordinates": [ 138.328651, 37.0757599 ] } },
{ "type": "Feature", "properties": { "内容": "グループホーム癒しの家「柿崎」【認知症対応型共同生活介護】新潟県上越市柿崎区芋島新田184番地3の内", "url2": "https://www.kaigokensaku.mhlw.go.jp/15/index.php?action_kouhyou_detail_004_kani=true&JigyosyoCd=1590300073-00&ServiceCd=320&Type=search" }, "geometry": { "type": "Point", "coordinates": [ 138.450155699999982, 37.2417348 ] } },
{ "type": "Feature", "properties": { "内容": "グループホーム癒しの家「うらがわら」【認知症対応型共同生活介護】新潟県上越市浦川原区飯室304番地2", "url2": "https://www.kaigokensaku.mhlw.go.jp/15/index.php?action_kouhyou_detail_004_kani=true&JigyosyoCd=1590300081-00&ServiceCd=320&Type=search" }, "geometry": { "type": "Point", "coordinates": [ 138.376364599999988, 37.1663775 ] } },
{ "type": "Feature", "properties": { "内容": "グループホーム宝寿の家【認知症対応型共同生活介護】上越市平成町３3９", "url2": "https://www.kaigokensaku.mhlw.go.jp/15/index.php?action_kouhyou_detail_004_kani=true&JigyosyoCd=1570300531-00&ServiceCd=320&Type=search" }, "geometry": { "type": "Point", "coordinates": [ 138.282990700000028, 37.121694 ] } },
{ "type": "Feature", "properties": { "内容": "グループホーム百花苑【認知症対応型共同生活介護】新潟県上越市昭和町2丁目19番4号", "url2": "https://www.kaigokensaku.mhlw.go.jp/15/index.php?action_kouhyou_detail_004_kani=true&JigyosyoCd=1590300040-00&ServiceCd=320&Type=search" }, "geometry": { "type": "Point", "coordinates": [ 138.234787, 37.1231008 ] } },
{ "type": "Feature", "properties": { "内容": "グループホーム居場所あおの【認知症対応型共同生活介護】新潟県上越市青野2080-1", "url2": "https://www.kaigokensaku.mhlw.go.jp/15/index.php?action_kouhyou_detail_004_kani=true&JigyosyoCd=1590300115-00&ServiceCd=320&Type=search" }, "geometry": { "type": "Point", "coordinates": [ 138.3575942, 37.1635106 ] } },
{ "type": "Feature", "properties": { "内容": "グループホームふれあいの杜上越【認知症対応型共同生活介護】新潟県上越市頸城区榎井346番地1", "url2": "https://www.kaigokensaku.mhlw.go.jp/15/index.php?action_kouhyou_detail_004_kani=true&JigyosyoCd=1590300529-00&ServiceCd=320&Type=search" }, "geometry": { "type": "Point", "coordinates": [ 138.2956421, 37.2009572 ] } },
{ "type": "Feature", "properties": { "内容": "グループホーム大潟【認知症対応型共同生活介護】新潟県上越市大潟区土底浜978-1", "url2": "https://www.kaigokensaku.mhlw.go.jp/15/index.php?action_kouhyou_detail_004_kani=true&JigyosyoCd=1570301299-00&ServiceCd=320&Type=search" }, "geometry": { "type": "Point", "coordinates": [ 138.329496799999987, 37.2300872 ] } },
{ "type": "Feature", "properties": { "内容": "愛の家グループホーム上越吉川【認知症対応型共同生活介護】新潟県上越市吉川区下町1511番地", "url2": "https://www.kaigokensaku.mhlw.go.jp/15/index.php?action_kouhyou_detail_004_kani=true&JigyosyoCd=1590300198-00&ServiceCd=320&Type=search" }, "geometry": { "type": "Point", "coordinates": [ 138.407510099999968, 37.2234747 ] } },
{ "type": "Feature", "properties": { "内容": "グループホームおたて【認知症対応型共同生活介護】新潟県上越市五智２丁目１番３号", "url2": "https://www.kaigokensaku.mhlw.go.jp/15/index.php?action_kouhyou_detail_004_kani=true&JigyosyoCd=1590300230-00&ServiceCd=320&Type=search" }, "geometry": { "type": "Point", "coordinates": [ 138.234132, 37.1717504 ] } },
{ "type": "Feature", "properties": { "内容": "グループホームだいにち【認知症対応型共同生活介護】新潟県上越市大字大日63番地7", "url2": "https://www.kaigokensaku.mhlw.go.jp/15/index.php?action_kouhyou_detail_004_kani=true&JigyosyoCd=1590300511-00&ServiceCd=320&Type=search" }, "geometry": { "type": "Point", "coordinates": [ 138.265604559030152, 37.131733030624211 ] } },
{ "type": "Feature", "properties": { "内容": "グループホームだいにちⅡ【認知症対応型共同生活介護】新潟県上越市大字大日63番地8号", "url2": "https://www.kaigokensaku.mhlw.go.jp/15/index.php?action_kouhyou_detail_004_kani=true&JigyosyoCd=1590300610-00&ServiceCd=320&Type=search" }, "geometry": { "type": "Point", "coordinates": [ 138.267028985211169, 37.132220922219901 ] } },
{ "type": "Feature", "properties": { "内容": "グループホーム安塚やすらぎ荘【認知症対応型共同生活介護】上越市安塚区安塚２５４９－５", "url2": "https://www.kaigokensaku.mhlw.go.jp/15/index.php?action_kouhyou_detail_004_kani=true&JigyosyoCd=1570301778-00&ServiceCd=320&Type=search" }, "geometry": { "type": "Point", "coordinates": [ 138.443788626579732, 37.128351632351567 ] } },
{ "type": "Feature", "properties": { "内容": "グループホームえがお【認知症対応型共同生活介護】新潟県上越市中郷区八斗蒔32-1", "url2": "https://www.kaigokensaku.mhlw.go.jp/15/index.php?action_kouhyou_detail_004_kani=true&JigyosyoCd=1590300214-00&ServiceCd=320&Type=search" }, "geometry": { "type": "Point", "coordinates": [ 138.216470299999969, 36.9755678 ] } },
{ "type": "Feature", "properties": { "内容": "愛の家グループホーム上越石橋【認知症対応型共同生活介護】新潟県上越市石橋２丁目４番４１号", "url2": "https://www.kaigokensaku.mhlw.go.jp/15/index.php?action_kouhyou_detail_004_kani=true&JigyosyoCd=1570301075-00&ServiceCd=320&Type=search" }, "geometry": { "type": "Point", "coordinates": [ 138.234674, 37.1628764 ] } },
{ "type": "Feature", "properties": { "内容": "グループホームだんらん【認知症対応型共同生活介護】新潟県上越市頚城区北方125番地8", "url2": "https://www.kaigokensaku.mhlw.go.jp/15/index.php?action_kouhyou_detail_004_kani=true&JigyosyoCd=1590300156-00&ServiceCd=320&Type=search" }, "geometry": { "type": "Point", "coordinates": [ 138.324274100000025, 37.1900786 ] } },
{ "type": "Feature", "properties": { "内容": "グループホーム　百寿の家【認知症対応型共同生活介護】新潟県上越市下荒浜843番地", "url2": "https://www.kaigokensaku.mhlw.go.jp/15/index.php?action_kouhyou_detail_004_kani=true&JigyosyoCd=1590300263-00&ServiceCd=320&Type=search" }, "geometry": { "type": "Point", "coordinates": [ 138.279993800000057, 37.196046 ] } },
{ "type": "Feature", "properties": { "内容": "グループホームぬくもりの里【認知症対応型共同生活介護】新潟県上越市三和区水科３２１番地", "url2": "https://www.kaigokensaku.mhlw.go.jp/15/index.php?action_kouhyou_detail_004_kani=true&JigyosyoCd=1590300271-00&ServiceCd=320&Type=search" }, "geometry": { "type": "Point", "coordinates": [ 138.342702522090121, 37.099969914394649 ] } },
{ "type": "Feature", "properties": { "内容": "グループホーム春日愛宕の園【認知症対応型共同生活介護】新潟県上越市春日山町3-3-25", "url2": "https://www.kaigokensaku.mhlw.go.jp/15/index.php?action_kouhyou_detail_004_kani=true&JigyosyoCd=1590300651-00&ServiceCd=320&Type=search" }, "geometry": { "type": "Point", "coordinates": [ 138.234302923278818, 37.14557505240996 ] } },
{ "type": "Feature", "properties": { "内容": "グループホーム　あすなろ【認知症対応型共同生活介護】新潟県上越市中郷区藤沢998番地1", "url2": "https://www.kaigokensaku.mhlw.go.jp/15/index.php?action_kouhyou_detail_004_kani=true&JigyosyoCd=1591600133-00&ServiceCd=320&Type=search" }, "geometry": { "type": "Point", "coordinates": [ 138.223730199999977, 36.9809174 ] } },
{ "type": "Feature", "properties": { "内容": "上越ケアセンターそよ風【認知症対応型共同生活介護】上越市安江1丁目3番40号", "url2": "https://www.kaigokensaku.mhlw.go.jp/15/index.php?action_kouhyou_detail_004_kani=true&JigyosyoCd=1570302040-00&ServiceCd=320&Type=search" }, "geometry": { "type": "Point", "coordinates": [ 138.263551600000028, 37.1721595 ] } },
{ "type": "Feature", "properties": { "内容": "愛の家グループホーム上越名立【認知症対応型共同生活介護】新潟県上越市名立区赤野俣659番地1", "url2": "https://www.kaigokensaku.mhlw.go.jp/15/index.php?action_kouhyou_detail_004_kani=true&JigyosyoCd=1590300131-00&ServiceCd=320&Type=search" }, "geometry": { "type": "Point", "coordinates": [ 138.0930754441803, 37.15226774781312 ] } },
{ "type": "Feature", "properties": { "内容": "愛の家グループホーム上越源【認知症対応型共同生活介護】新潟県上越市下源入125番地", "url2": "https://www.kaigokensaku.mhlw.go.jp/15/index.php?action_kouhyou_detail_004_kani=true&JigyosyoCd=1570301042-00&ServiceCd=320&Type=search" }, "geometry": { "type": "Point", "coordinates": [ 138.25748580000004, 37.1629882 ] } },
{ "type": "Feature", "properties": { "内容": "グループホーム敬寿【認知症対応型共同生活介護】上越市新南町２８－３", "url2": "https://www.kaigokensaku.mhlw.go.jp/15/index.php?action_kouhyou_detail_004_kani=true&JigyosyoCd=1570300473-00&ServiceCd=320&Type=search" }, "geometry": { "type": "Point", "coordinates": [ 138.273475738761931, 37.106795261825411 ] } },
{ "type": "Feature", "properties": { "内容": "グループホーム　四季【認知症対応型共同生活介護】新潟県上越市大字今泉字西蓮池1310-9", "url2": "https://www.kaigokensaku.mhlw.go.jp/15/index.php?action_kouhyou_detail_004_kani=true&JigyosyoCd=1590300206-00&ServiceCd=320&Type=search" }, "geometry": { "type": "Point", "coordinates": [ 138.248359352870239, 37.093576007522728 ] } },
{ "type": "Feature", "properties": { "内容": "グループホーム　なかよし寿の家【認知症対応型共同生活介護】新潟県上越市北新保55番地ー３", "url2": "https://www.kaigokensaku.mhlw.go.jp/15/index.php?action_kouhyou_detail_004_kani=true&JigyosyoCd=1570300564-00&ServiceCd=320&Type=search" }, "geometry": { "type": "Point", "coordinates": [ 138.2977879, 37.1453332 ] } },
{ "type": "Feature", "properties": { "内容": "グループホーム南葉【認知症対応型共同生活介護】新潟県上越市茨沢１５６番地1", "url2": "https://www.kaigokensaku.mhlw.go.jp/15/index.php?action_kouhyou_detail_004_kani=true&JigyosyoCd=1570301018-00&ServiceCd=320&Type=search" }, "geometry": { "type": "Point", "coordinates": [ 138.2781417, 37.1118702 ] } },
{ "type": "Feature", "properties": { "内容": "グループホーム三和愛宕の園【認知症対応型共同生活介護】新潟県上越市三和区井ノ口1718番地4", "url2": "https://www.kaigokensaku.mhlw.go.jp/15/index.php?action_kouhyou_detail_004_kani=true&JigyosyoCd=1570301935-00&ServiceCd=320&Type=search" }, "geometry": { "type": "Point", "coordinates": [ 138.350515500000029, 37.1273508 ] } },
{ "type": "Feature", "properties": { "内容": "グループホームおらち【認知症対応型共同生活介護】新潟県上越市春日野1丁目4番地43号グループホームおらち", "url2": "https://www.kaigokensaku.mhlw.go.jp/15/index.php?action_kouhyou_detail_004_kani=true&JigyosyoCd=1590300685-00&ServiceCd=320&Type=search" }, "geometry": { "type": "Point", "coordinates": [ 138.2299746, 37.1483698 ] } },
{ "type": "Feature", "properties": { "内容": "グループホーム高田てらまち【認知症対応型共同生活介護】新潟県上越市寺町３丁目１１番１４号", "url2": "https://www.kaigokensaku.mhlw.go.jp/15/index.php?action_kouhyou_detail_004_kani=true&JigyosyoCd=1590300404-00&ServiceCd=320&Type=search" }, "geometry": { "type": "Point", "coordinates": [ 138.2400631502625, 37.118916714953343 ] } },
{ "type": "Feature", "properties": { "内容": "グループホーム　シンパシー【認知症対応型共同生活介護】新潟県阿賀野市山口１６８５－１", "url2": "https://www.kaigokensaku.mhlw.go.jp/15/index.php?action_kouhyou_detail_004_kani=true&JigyosyoCd=1592100059-00&ServiceCd=320&Type=search" }, "geometry": { "type": "Point", "coordinates": [ 139.2110874, 37.8383141 ] } },
{ "type": "Feature", "properties": { "内容": "ほっとあがのグループホーム【認知症対応型共同生活介護】阿賀野市稲荷町１２番１０号", "url2": "https://www.kaigokensaku.mhlw.go.jp/15/index.php?action_kouhyou_detail_004_kani=true&JigyosyoCd=1592100042-00&ServiceCd=320&Type=search" }, "geometry": { "type": "Point", "coordinates": [ 139.215345399999933, 37.8321955 ] } },
{ "type": "Feature", "properties": { "内容": "グループホームいらかの丘【認知症対応型共同生活介護】新潟県阿賀野市福永１１６７番地５", "url2": "https://www.kaigokensaku.mhlw.go.jp/15/index.php?action_kouhyou_detail_004_kani=true&JigyosyoCd=1592100018-00&ServiceCd=320&Type=search" }, "geometry": { "type": "Point", "coordinates": [ 139.247963199999958, 37.7804499 ] } },
{ "type": "Feature", "properties": { "内容": "社会福祉法人　慈豊会　グループホームおおむろ【認知症対応型共同生活介護】新潟県阿賀野市大室１９５３番地１", "url2": "https://www.kaigokensaku.mhlw.go.jp/15/index.php?action_kouhyou_detail_004_kani=true&JigyosyoCd=1592100067-00&ServiceCd=320&Type=search" }, "geometry": { "type": "Point", "coordinates": [ 139.256172800000058, 37.8082189 ] } },
{ "type": "Feature", "properties": { "内容": "社会福祉法人慈豊会　グループホームまえやま【認知症対応型共同生活介護】阿賀野市前山294番地1", "url2": "https://www.kaigokensaku.mhlw.go.jp/15/index.php?action_kouhyou_detail_004_kani=true&JigyosyoCd=1592100091-00&ServiceCd=320&Type=search" }, "geometry": { "type": "Point", "coordinates": [ 139.191640199999938, 37.8235847 ] } },
{ "type": "Feature", "properties": { "内容": "グループホームななうら【認知症対応型共同生活介護】新潟県佐渡市橘４２番地", "url2": "https://www.kaigokensaku.mhlw.go.jp/15/index.php?action_kouhyou_detail_004_kani=true&JigyosyoCd=1592200057-00&ServiceCd=320&Type=search" }, "geometry": { "type": "Point", "coordinates": [ 138.232420498008764, 37.977569067699264 ] } },
{ "type": "Feature", "properties": { "内容": "ツクイ佐渡かないグループホーム【認知症対応型共同生活介護】新潟県佐渡市吉井本郷字新町144-1", "url2": "https://www.kaigokensaku.mhlw.go.jp/15/index.php?action_kouhyou_detail_004_kani=true&JigyosyoCd=1592200024-00&ServiceCd=320&Type=search" }, "geometry": { "type": "Point", "coordinates": [ 138.39175179250924, 38.046300152965749 ] } },
{ "type": "Feature", "properties": { "内容": "グループホームはたの【認知症対応型共同生活介護】佐渡市寺田５６６番地", "url2": "https://www.kaigokensaku.mhlw.go.jp/15/index.php?action_kouhyou_detail_004_kani=true&JigyosyoCd=1592200032-00&ServiceCd=320&Type=search" }, "geometry": { "type": "Point", "coordinates": [ 138.384312200000068, 37.9923645 ] } },
{ "type": "Feature", "properties": { "内容": "グループホームふれあい館はもち【認知症対応型共同生活介護】新潟県佐渡市羽茂本郷190番地1", "url2": "https://www.kaigokensaku.mhlw.go.jp/15/index.php?action_kouhyou_detail_004_kani=true&JigyosyoCd=1592200206-00&ServiceCd=320&Type=search" }, "geometry": { "type": "Point", "coordinates": [ 138.313601894855964, 37.842374342996166 ] } },
{ "type": "Feature", "properties": { "内容": "グループホームまの【認知症対応型共同生活介護】新潟県佐渡市長石213番地1", "url2": "https://www.kaigokensaku.mhlw.go.jp/15/index.php?action_kouhyou_detail_004_kani=true&JigyosyoCd=1592200040-00&ServiceCd=320&Type=search" }, "geometry": { "type": "Point", "coordinates": [ 138.344277584694737, 37.972053596929264 ] } },
{ "type": "Feature", "properties": { "内容": "グループホームさど【認知症対応型共同生活介護】佐渡市両津湊343番地45", "url2": "https://www.kaigokensaku.mhlw.go.jp/15/index.php?action_kouhyou_detail_004_kani=true&JigyosyoCd=1572200762-00&ServiceCd=320&Type=search" }, "geometry": { "type": "Point", "coordinates": [ 138.4406199, 38.0751757 ] } },
{ "type": "Feature", "properties": { "内容": "けあビジョンホーム佐渡【認知症対応型共同生活介護】新潟県佐渡市吉井本郷576－6けあビジョンホーム佐渡", "url2": "https://www.kaigokensaku.mhlw.go.jp/15/index.php?action_kouhyou_detail_004_kani=true&JigyosyoCd=1592200180-00&ServiceCd=320&Type=search" }, "geometry": { "type": "Point", "coordinates": [ 138.392706433950366, 38.053508893880647 ] } },
{ "type": "Feature", "properties": { "内容": "けあビジョンホーム佐渡八幡【認知症対応型共同生活介護】新潟県佐渡市八幡字中川1466-2けあビジョンホーム佐渡八幡", "url2": "https://www.kaigokensaku.mhlw.go.jp/15/index.php?action_kouhyou_detail_004_kani=true&JigyosyoCd=1592200214-00&ServiceCd=320&Type=search" }, "geometry": { "type": "Point", "coordinates": [ 138.3399971, 37.992752 ] } },
{ "type": "Feature", "properties": { "内容": "けあビジョンホーム佐渡畉田【認知症対応型共同生活介護】新潟県佐渡市畉田55-1", "url2": "https://www.kaigokensaku.mhlw.go.jp/15/index.php?action_kouhyou_detail_004_kani=true&JigyosyoCd=1592200222-00&ServiceCd=320&Type=search" }, "geometry": { "type": "Point", "coordinates": [ 138.371787672213742, 37.986566354843994 ] } },
{ "type": "Feature", "properties": { "内容": "グループホーム　こだま【認知症対応型共同生活介護】新潟県魚沼市十日町243-4", "url2": "https://www.kaigokensaku.mhlw.go.jp/15/index.php?action_kouhyou_detail_004_kani=true&JigyosyoCd=1592300139-00&ServiceCd=320&Type=search" }, "geometry": { "type": "Point", "coordinates": [ 138.94569860635761, 37.193827739206064 ] } },
{ "type": "Feature", "properties": { "内容": "グループホーム　福寿荘【認知症対応型共同生活介護】新潟県魚沼市与五郎新田１３番地７", "url2": "https://www.kaigokensaku.mhlw.go.jp/15/index.php?action_kouhyou_detail_004_kani=true&JigyosyoCd=1572300125-00&ServiceCd=320&Type=search" }, "geometry": { "type": "Point", "coordinates": [ 138.932610699999941, 37.2379886 ] } },
{ "type": "Feature", "properties": { "内容": "グループホームぶなの木【認知症対応型共同生活介護】新潟県魚沼市井口新田６７３－１", "url2": "https://www.kaigokensaku.mhlw.go.jp/15/index.php?action_kouhyou_detail_004_kani=true&JigyosyoCd=1592300048-00&ServiceCd=320&Type=search" }, "geometry": { "type": "Point", "coordinates": [ 138.980443, 37.229126 ] } },
{ "type": "Feature", "properties": { "内容": "グループホーム　そわん【認知症対応型共同生活介護】新潟県魚沼市井口新田950-2", "url2": "https://www.kaigokensaku.mhlw.go.jp/15/index.php?action_kouhyou_detail_004_kani=true&JigyosyoCd=1592300030-00&ServiceCd=320&Type=search" }, "geometry": { "type": "Point", "coordinates": [ 138.969158, 37.229148 ] } },
{ "type": "Feature", "properties": { "内容": "グループホームぶなの里【認知症対応型共同生活介護】新潟県魚沼市井口新田３８－４", "url2": "https://www.kaigokensaku.mhlw.go.jp/15/index.php?action_kouhyou_detail_004_kani=true&JigyosyoCd=1592300105-00&ServiceCd=320&Type=search" }, "geometry": { "type": "Point", "coordinates": [ 138.979594764231933, 37.230950751029184 ] } },
{ "type": "Feature", "properties": { "内容": "グループホーム　すまいる【認知症対応型共同生活介護】新潟県魚沼市山田293-1グループホームすまいる", "url2": "https://www.kaigokensaku.mhlw.go.jp/15/index.php?action_kouhyou_detail_004_kani=true&JigyosyoCd=1592300097-00&ServiceCd=320&Type=search" }, "geometry": { "type": "Point", "coordinates": [ 138.997601199999963, 37.2511183 ] } },
{ "type": "Feature", "properties": { "内容": "リバーサイドすまいる【認知症対応型共同生活介護】新潟県魚沼市並柳12-2", "url2": "https://www.kaigokensaku.mhlw.go.jp/15/index.php?action_kouhyou_detail_004_kani=true&JigyosyoCd=1592300162-00&ServiceCd=320&Type=search" }, "geometry": { "type": "Point", "coordinates": [ 138.973907444774881, 37.260583020812419 ] } },
{ "type": "Feature", "properties": { "内容": "グループホームやまびこ【認知症対応型共同生活介護】新潟県南魚沼市石打３１１－１", "url2": "https://www.kaigokensaku.mhlw.go.jp/15/index.php?action_kouhyou_detail_004_kani=true&JigyosyoCd=1592400103-00&ServiceCd=320&Type=search" }, "geometry": { "type": "Point", "coordinates": [ 138.809224, 36.9772946 ] } },
{ "type": "Feature", "properties": { "内容": "グループホームつくしんぼ【認知症対応型共同生活介護】新潟県南魚沼市早川２０１番地1", "url2": "https://www.kaigokensaku.mhlw.go.jp/15/index.php?action_kouhyou_detail_004_kani=true&JigyosyoCd=1592400111-00&ServiceCd=320&Type=search" }, "geometry": { "type": "Point", "coordinates": [ 138.873319400000014, 37.0263429 ] } },
{ "type": "Feature", "properties": { "内容": "雲洞グループホームつばき園【認知症対応型共同生活介護】新潟県南魚沼市雲洞623-5", "url2": "https://www.kaigokensaku.mhlw.go.jp/15/index.php?action_kouhyou_detail_004_kani=true&JigyosyoCd=1592400046-00&ServiceCd=320&Type=search" }, "geometry": { "type": "Point", "coordinates": [ 138.887162399999966, 37.0322732 ] } },
{ "type": "Feature", "properties": { "内容": "萌気園グループホーム「ふきのとう」【認知症対応型共同生活介護】新潟県南魚沼市市野江甲２－３", "url2": "https://www.kaigokensaku.mhlw.go.jp/15/index.php?action_kouhyou_detail_004_kani=true&JigyosyoCd=1572400172-00&ServiceCd=320&Type=search" }, "geometry": { "type": "Point", "coordinates": [ 138.910244867593548, 37.158405317448633 ] } },
{ "type": "Feature", "properties": { "内容": "グループホーム桐の花【認知症対応型共同生活介護】南魚沼市浦佐５１４１－５", "url2": "https://www.kaigokensaku.mhlw.go.jp/15/index.php?action_kouhyou_detail_004_kani=true&JigyosyoCd=1572400479-00&ServiceCd=320&Type=search" }, "geometry": { "type": "Point", "coordinates": [ 138.93568, 37.1669355 ] } },
{ "type": "Feature", "properties": { "内容": "グループホーム越南「薬師」【認知症対応型共同生活介護】新潟県南魚沼市五日町2322", "url2": "https://www.kaigokensaku.mhlw.go.jp/15/index.php?action_kouhyou_detail_004_kani=true&JigyosyoCd=1572400164-00&ServiceCd=320&Type=search" }, "geometry": { "type": "Point", "coordinates": [ 138.903120901366094, 37.124556801396686 ] } },
{ "type": "Feature", "properties": { "内容": "グループホーム大空【認知症対応型共同生活介護】新潟県南魚沼市目来田８６－４", "url2": "https://www.kaigokensaku.mhlw.go.jp/15/index.php?action_kouhyou_detail_004_kani=true&JigyosyoCd=1572400628-00&ServiceCd=320&Type=search" }, "geometry": { "type": "Point", "coordinates": [ 138.8451569, 37.032465900000012 ] } },
{ "type": "Feature", "properties": { "内容": "グループホーム悠々の杜【認知症対応型共同生活介護】新潟県南魚沼市坂戸6-3", "url2": "https://www.kaigokensaku.mhlw.go.jp/15/index.php?action_kouhyou_detail_004_kani=true&JigyosyoCd=1592400087-00&ServiceCd=320&Type=search" }, "geometry": { "type": "Point", "coordinates": [ 138.88231989999997, 37.0593255 ] } },
{ "type": "Feature", "properties": { "内容": "グループホーム花水木【認知症対応型共同生活介護】新潟県南魚沼市六日町１１４１番地１", "url2": "https://www.kaigokensaku.mhlw.go.jp/15/index.php?action_kouhyou_detail_004_kani=true&JigyosyoCd=1592400145-00&ServiceCd=320&Type=search" }, "geometry": { "type": "Point", "coordinates": [ 138.876337400000011, 37.0572283 ] } },
{ "type": "Feature", "properties": { "内容": "塩沢グループホームゆきつばき【認知症対応型共同生活介護】新潟県南魚沼市塩沢2417", "url2": "https://www.kaigokensaku.mhlw.go.jp/15/index.php?action_kouhyou_detail_004_kani=true&JigyosyoCd=1592400236-00&ServiceCd=320&Type=search" }, "geometry": { "type": "Point", "coordinates": [ 138.848527748796045, 37.040083255648923 ] } },
{ "type": "Feature", "properties": { "内容": "グループホームまごころ【認知症対応型共同生活介護】新潟県胎内市大出730番地1", "url2": "https://www.kaigokensaku.mhlw.go.jp/15/index.php?action_kouhyou_detail_004_kani=true&JigyosyoCd=1592500126-00&ServiceCd=320&Type=search" }, "geometry": { "type": "Point", "coordinates": [ 139.390770920237742, 38.103079440359409 ] } },
{ "type": "Feature", "properties": { "内容": "グループホーム　はるか【認知症対応型共同生活介護】新潟県胎内市東本町22-31共生型福祉拠点施設まち・らぼ", "url2": "https://www.kaigokensaku.mhlw.go.jp/15/index.php?action_kouhyou_detail_004_kani=true&JigyosyoCd=1592500134-00&ServiceCd=320&Type=search" }, "geometry": { "type": "Point", "coordinates": [ 139.410915, 38.0584661 ] } },
{ "type": "Feature", "properties": { "内容": "グループホームどっこんの家【認知症対応型共同生活介護】新潟県胎内市十二天９１番地１", "url2": "https://www.kaigokensaku.mhlw.go.jp/15/index.php?action_kouhyou_detail_004_kani=true&JigyosyoCd=1592500043-00&ServiceCd=320&Type=search" }, "geometry": { "type": "Point", "coordinates": [ 139.408751, 38.0920596 ] } },
{ "type": "Feature", "properties": { "内容": "グループホームちゅーりっぷ苑つばき【認知症対応型共同生活介護】新潟県胎内市協和町1831-1", "url2": "https://www.kaigokensaku.mhlw.go.jp/15/index.php?action_kouhyou_detail_004_kani=true&JigyosyoCd=1592500209-00&ServiceCd=320&Type=search" }, "geometry": { "type": "Point", "coordinates": [ 139.402210698711428, 38.064780451615448 ] } },
{ "type": "Feature", "properties": { "内容": "グループホーム黒川【認知症対応型共同生活介護】新潟県胎内市下館1523番地", "url2": "https://www.kaigokensaku.mhlw.go.jp/15/index.php?action_kouhyou_detail_004_kani=true&JigyosyoCd=1592500019-00&ServiceCd=320&Type=search" }, "geometry": { "type": "Point", "coordinates": [ 139.446149776956815, 38.082435247888846 ] } },
{ "type": "Feature", "properties": { "内容": "グループホーム　ちゅーりっぷ苑・さくら【認知症対応型共同生活介護】新潟県胎内市協和町837－1", "url2": "https://www.kaigokensaku.mhlw.go.jp/15/index.php?action_kouhyou_detail_004_kani=true&JigyosyoCd=1592500183-00&ServiceCd=320&Type=search" }, "geometry": { "type": "Point", "coordinates": [ 139.402892799999989, 38.0627719 ] } },
{ "type": "Feature", "properties": { "内容": "グループホーム　ウエルネス中条【認知症対応型共同生活介護】胎内市表町6-17-12", "url2": "https://www.kaigokensaku.mhlw.go.jp/15/index.php?action_kouhyou_detail_004_kani=true&JigyosyoCd=1592500035-00&ServiceCd=320&Type=search" }, "geometry": { "type": "Point", "coordinates": [ 139.3989494, 38.048642 ] } },
{ "type": "Feature", "properties": { "内容": "グループホーム　せいろう【認知症対応型共同生活介護】北蒲原郡聖籠町大字大夫2204番地1", "url2": "https://www.kaigokensaku.mhlw.go.jp/15/index.php?action_kouhyou_detail_004_kani=true&JigyosyoCd=1595000017-00&ServiceCd=320&Type=search" }, "geometry": { "type": "Point", "coordinates": [ 139.276486100000056, 37.969022600000017 ] } },
{ "type": "Feature", "properties": { "内容": "グループホーム　こいて【認知症対応型共同生活介護】新潟県西蒲原郡弥彦村大字矢作4623番地", "url2": "https://www.kaigokensaku.mhlw.go.jp/15/index.php?action_kouhyou_detail_004_kani=true&JigyosyoCd=1595200013-00&ServiceCd=320&Type=search" }, "geometry": { "type": "Point", "coordinates": [ 138.855609800000025, 37.6986313 ] } },
{ "type": "Feature", "properties": { "内容": "グループホーム　陽だまりの家【認知症対応型共同生活介護】新潟県南蒲原郡田上町大字保明新田字中浦８０６番１", "url2": "https://www.kaigokensaku.mhlw.go.jp/15/index.php?action_kouhyou_detail_004_kani=true&JigyosyoCd=1595300011-00&ServiceCd=320&Type=search" }, "geometry": { "type": "Point", "coordinates": [ 139.038668040722627, 37.688769431687206 ] } },
{ "type": "Feature", "properties": { "内容": "グループホームえんなか【認知症対応型共同生活介護】新潟県東蒲原郡阿賀町京ノ瀬966-1", "url2": "https://www.kaigokensaku.mhlw.go.jp/15/index.php?action_kouhyou_detail_004_kani=true&JigyosyoCd=1595400126-00&ServiceCd=320&Type=search" }, "geometry": { "type": "Point", "coordinates": [ 139.4371619, 37.690285 ] } },
{ "type": "Feature", "properties": { "内容": "認知症対応型共同生活介護　ハーティプラザみかわ【認知症対応型共同生活介護】新潟県東蒲原郡阿賀町吉津3729番地2", "url2": "https://www.kaigokensaku.mhlw.go.jp/15/index.php?action_kouhyou_detail_004_kani=true&JigyosyoCd=1595400068-00&ServiceCd=320&Type=search" }, "geometry": { "type": "Point", "coordinates": [ 139.376154589332572, 37.718475799251557 ] } },
{ "type": "Feature", "properties": { "内容": "認知症対応型共同生活介護事業所　どんぐり【認知症対応型共同生活介護】新潟県東蒲原郡阿賀町九島5525番地", "url2": "https://www.kaigokensaku.mhlw.go.jp/15/index.php?action_kouhyou_detail_004_kani=true&JigyosyoCd=1595400092-00&ServiceCd=320&Type=search" }, "geometry": { "type": "Point", "coordinates": [ 139.469635599999947, 37.6432339 ] } },
{ "type": "Feature", "properties": { "内容": "グループホーム　奥阿賀　大輪の里【認知症対応型共同生活介護】新潟県東蒲原郡阿賀町鹿瀬１１６０３番地", "url2": "https://www.kaigokensaku.mhlw.go.jp/15/index.php?action_kouhyou_detail_004_kani=true&JigyosyoCd=1595400027-00&ServiceCd=320&Type=search" }, "geometry": { "type": "Point", "coordinates": [ 139.467671663229368, 37.708897020660231 ] } },
{ "type": "Feature", "properties": { "内容": "グループホームかめさんの家【認知症対応型共同生活介護】新潟県三島郡出雲崎町大字船橋４７９番地２", "url2": "https://www.kaigokensaku.mhlw.go.jp/15/index.php?action_kouhyou_detail_004_kani=true&JigyosyoCd=1575500531-00&ServiceCd=320&Type=search" }, "geometry": { "type": "Point", "coordinates": [ 138.705323099999987, 37.5135342 ] } },
{ "type": "Feature", "properties": { "内容": "グループホーム雪割草【認知症対応型共同生活介護】新潟県南魚沼郡湯沢町大字土樽１５１番地１１６", "url2": "https://www.kaigokensaku.mhlw.go.jp/15/index.php?action_kouhyou_detail_004_kani=true&JigyosyoCd=1595800010-00&ServiceCd=320&Type=search" }, "geometry": { "type": "Point", "coordinates": [ 138.837605100000019, 36.9273483 ] } },
{ "type": "Feature", "properties": { "内容": "グループホームライフィニティ津南【認知症対応型共同生活介護】新潟県中魚沼郡津南町外丸丁1458", "url2": "https://www.kaigokensaku.mhlw.go.jp/15/index.php?action_kouhyou_detail_004_kani=true&JigyosyoCd=1575900210-00&ServiceCd=320&Type=search" }, "geometry": { "type": "Point", "coordinates": [ 138.639895700000011, 37.0231724 ] } },
{ "type": "Feature", "properties": { "内容": "グループホームいなほ【認知症対応型共同生活介護】新潟県津南町大字下船渡己5910-1", "url2": "https://www.kaigokensaku.mhlw.go.jp/15/index.php?action_kouhyou_detail_004_kani=true&JigyosyoCd=1575900236-00&ServiceCd=320&Type=search" }, "geometry": { "type": "Point", "coordinates": [ 138.674261900000033, 37.0129967 ] } },
{ "type": "Feature", "properties": { "内容": "グループホーム　ももの舎【認知症対応型共同生活介護】新潟県刈羽郡刈羽村刈羽３５７４－１", "url2": "https://www.kaigokensaku.mhlw.go.jp/15/index.php?action_kouhyou_detail_004_kani=true&JigyosyoCd=1596000024-00&ServiceCd=320&Type=search" }, "geometry": { "type": "Point", "coordinates": [ 138.614214800000013, 37.421153 ] } },
{ "type": "Feature", "properties": { "内容": "グループホームせきかわ【認知症対応型共同生活介護】新潟県岩船郡関川村大字湯沢1826-2", "url2": "https://www.kaigokensaku.mhlw.go.jp/15/index.php?action_kouhyou_detail_004_kani=true&JigyosyoCd=1576400566-00&ServiceCd=320&Type=search" }, "geometry": { "type": "Point", "coordinates": [ 139.577602599999977, 38.0899534 ] } }
]
}
