{
"type": "FeatureCollection",
"name": "geo_15_訪問看護",
"crs": { "type": "name", "properties": { "name": "urn:ogc:def:crs:OGC:1.3:CRS84" } },
"features": [
{ "type": "Feature", "properties": { "内容": "尾山訪問看護ステーション【訪問看護】新潟県新潟市北区木崎754番地", "url": "https://www.kaigokensaku.mhlw.go.jp/15/index.php?action_kouhyou_detail_004_kani=true&JigyosyoCd=1565090048-00&ServiceCd=130&Type=search", "url2": "https://www.aiko.or.jp" }, "geometry": { "type": "Point", "coordinates": [ 139.173014599999988, 37.9306468 ] } },
{ "type": "Feature", "properties": { "内容": "訪問看護ステーションふくふく【訪問看護】新潟県新潟市北区松浜本町2丁目3-4", "url": "https://www.kaigokensaku.mhlw.go.jp/15/index.php?action_kouhyou_detail_004_kani=true&JigyosyoCd=1560191361-00&ServiceCd=130&Type=search", "url2": "http//www.houkan-fukufuku.com" }, "geometry": { "type": "Point", "coordinates": [ 139.142434099999946, 37.949126900000017 ] } },
{ "type": "Feature", "properties": { "内容": "豊栄訪問看護ステーション【訪問看護】新潟県新潟市北区石動1-11-1豊栄病院　2階", "url": "https://www.kaigokensaku.mhlw.go.jp/15/index.php?action_kouhyou_detail_004_kani=true&JigyosyoCd=1560190363-00&ServiceCd=130&Type=search", "url2": "http://www.toyosaka-hospital.jp/" }, "geometry": { "type": "Point", "coordinates": [ 139.213788499999964, 37.9224926 ] } },
{ "type": "Feature", "properties": { "内容": "すこやか医院【訪問看護】新潟県新潟市北区須戸695番地1", "url": "https://www.kaigokensaku.mhlw.go.jp/15/index.php?action_kouhyou_detail_004_kani=true&JigyosyoCd=1510124454-00&ServiceCd=130&Type=search", "url2": "http://www.sukoyakaiin.com" }, "geometry": { "type": "Point", "coordinates": [ 139.186992, 37.916879 ] } },
{ "type": "Feature", "properties": { "内容": "医心館訪問看護ステーション新潟Ⅲ【訪問看護】新潟県新潟市東区はなみずき３丁目１番２３号", "url": "https://www.kaigokensaku.mhlw.go.jp/15/index.php?action_kouhyou_detail_004_kani=true&JigyosyoCd=1560191304-00&ServiceCd=130&Type=search", "url2": null }, "geometry": { "type": "Point", "coordinates": [ 139.1011316, 37.9140834 ] } },
{ "type": "Feature", "properties": { "内容": "訪問看護ステーションよいとこ【訪問看護】新潟県新潟市東区石山4丁目15番18号", "url": "https://www.kaigokensaku.mhlw.go.jp/15/index.php?action_kouhyou_detail_004_kani=true&JigyosyoCd=1560191007-00&ServiceCd=130&Type=search", "url2": "https://kango-yoitoko.com" }, "geometry": { "type": "Point", "coordinates": [ 139.0989128, 37.8937285 ] } },
{ "type": "Feature", "properties": { "内容": "訪問看護ステーション　ケアの森　東新潟【訪問看護】新潟県新潟市東区大形本町5丁目8-11", "url": "https://www.kaigokensaku.mhlw.go.jp/15/index.php?action_kouhyou_detail_004_kani=true&JigyosyoCd=1560191577-00&ServiceCd=130&Type=search", "url2": "https://carenomori.com" }, "geometry": { "type": "Point", "coordinates": [ 139.122759399999978, 37.921379 ] } },
{ "type": "Feature", "properties": { "内容": "脳とこころの訪問看護ステーション竹尾【訪問看護】新潟県新潟市東区はなみずき3丁目3番1号蔦屋書店竹尾インター店内", "url": "https://www.kaigokensaku.mhlw.go.jp/15/index.php?action_kouhyou_detail_004_kani=true&JigyosyoCd=1560191569-00&ServiceCd=130&Type=search", "url2": "http://noutokokoro.jp/" }, "geometry": { "type": "Point", "coordinates": [ 139.103136299999989, 37.9143552 ] } },
{ "type": "Feature", "properties": { "内容": "SOMPOケア　新潟　訪問看護【訪問看護】新潟県新潟市東区紫竹5丁目26番1号1階", "url": "https://www.kaigokensaku.mhlw.go.jp/15/index.php?action_kouhyou_detail_004_kani=true&JigyosyoCd=1560190926-00&ServiceCd=130&Type=search", "url2": "https://www.sompocare.com" }, "geometry": { "type": "Point", "coordinates": [ 139.0811367, 37.906221700000017 ] } },
{ "type": "Feature", "properties": { "内容": "訪問看護ステーション山木戸【訪問看護】新潟県新潟市東区山木戸5丁目11番4号", "url": "https://www.kaigokensaku.mhlw.go.jp/15/index.php?action_kouhyou_detail_004_kani=true&JigyosyoCd=1560191353-00&ServiceCd=130&Type=search", "url2": "http://yamakido.gokinjo-home.jp" }, "geometry": { "type": "Point", "coordinates": [ 139.087530500000014, 37.918864499999984 ] } },
{ "type": "Feature", "properties": { "内容": "訪問看護ステーションなじょも【訪問看護】新潟県新潟市東区竹尾4-13-3なじょも", "url": "https://www.kaigokensaku.mhlw.go.jp/15/index.php?action_kouhyou_detail_004_kani=true&JigyosyoCd=1560190637-00&ServiceCd=130&Type=search", "url2": "https://kido.iryo-coop.com/" }, "geometry": { "type": "Point", "coordinates": [ 139.099229899999983, 37.9154234 ] } },
{ "type": "Feature", "properties": { "内容": "訪問看護ステーション新松崎【訪問看護】新潟県新潟市東区新松崎1-1-2", "url": "https://www.kaigokensaku.mhlw.go.jp/15/index.php?action_kouhyou_detail_004_kani=true&JigyosyoCd=1560191387-00&ServiceCd=130&Type=search", "url2": "https://ogatafukushi.or.jp/" }, "geometry": { "type": "Point", "coordinates": [ 139.115355908598332, 37.929540850226431 ] } },
{ "type": "Feature", "properties": { "内容": "すずらん訪問看護ステーション【訪問看護】新潟県新潟市東区河渡甲140番地", "url": "https://www.kaigokensaku.mhlw.go.jp/15/index.php?action_kouhyou_detail_004_kani=true&JigyosyoCd=1560190058-00&ServiceCd=130&Type=search", "url2": "http://www.ngt-kuwana.or.jp/" }, "geometry": { "type": "Point", "coordinates": [ 139.100814200000059, 37.9489804 ] } },
{ "type": "Feature", "properties": { "内容": "臨港訪問看護ステーション【訪問看護】新潟県新潟市東区桃山町1-114-3", "url": "https://www.kaigokensaku.mhlw.go.jp/15/index.php?action_kouhyou_detail_004_kani=true&JigyosyoCd=1560190041-00&ServiceCd=130&Type=search", "url2": null }, "geometry": { "type": "Point", "coordinates": [ 139.076441100000011, 37.9457603 ] } },
{ "type": "Feature", "properties": { "内容": "訪問看護ステーションハロ【訪問看護】新潟県新潟市東区藤見町2丁目15番2号", "url": "https://www.kaigokensaku.mhlw.go.jp/15/index.php?action_kouhyou_detail_004_kani=true&JigyosyoCd=1560191650-00&ServiceCd=130&Type=search", "url2": "https://halo-homecare.jp/" }, "geometry": { "type": "Point", "coordinates": [ 139.0979365, 37.9328216 ] } },
{ "type": "Feature", "properties": { "内容": "ご近所訪看リハビリステーション紫竹山【訪問看護】新潟県新潟市中央区紫竹山2-4-38紫竹山ビル403号", "url": "https://www.kaigokensaku.mhlw.go.jp/15/index.php?action_kouhyou_detail_004_kani=true&JigyosyoCd=1560191049-00&ServiceCd=130&Type=search", "url2": "https://houmonkango-gkhk.com" }, "geometry": { "type": "Point", "coordinates": [ 139.0666, 37.9013699 ] } },
{ "type": "Feature", "properties": { "内容": "あいりす訪問看護ステーション【訪問看護】新潟県新潟市中央区関屋本村町1丁目148番2", "url": "https://www.kaigokensaku.mhlw.go.jp/15/index.php?action_kouhyou_detail_004_kani=true&JigyosyoCd=1560190744-00&ServiceCd=130&Type=search", "url2": null }, "geometry": { "type": "Point", "coordinates": [ 139.020195534034997, 37.912448613086561 ] } },
{ "type": "Feature", "properties": { "内容": "ひまわり訪問看護ステーション【訪問看護】新潟県新潟市中央区上所中1丁目10番24号", "url": "https://www.kaigokensaku.mhlw.go.jp/15/index.php?action_kouhyou_detail_004_kani=true&JigyosyoCd=1560191247-00&ServiceCd=130&Type=search", "url2": "https://seiwa-kai.jp/himawari_nursing/" }, "geometry": { "type": "Point", "coordinates": [ 139.0355898, 37.9062352 ] } },
{ "type": "Feature", "properties": { "内容": "ツクイ新潟訪問看護ステーション【訪問看護】新潟県新潟市中央区長潟1204-1", "url": "https://www.kaigokensaku.mhlw.go.jp/15/index.php?action_kouhyou_detail_004_kani=true&JigyosyoCd=1560191056-00&ServiceCd=130&Type=search", "url2": "https://www.tsukui.net/home-care/5009/" }, "geometry": { "type": "Point", "coordinates": [ 139.066230457925315, 37.883581249395 ] } },
{ "type": "Feature", "properties": { "内容": "訪問看護ステーション悠ライフ新潟【訪問看護】新潟県新潟市中央区沼垂西３丁目8-6ナーシングホーム悠ライフ新潟", "url": "https://www.kaigokensaku.mhlw.go.jp/15/index.php?action_kouhyou_detail_004_kani=true&JigyosyoCd=1560191437-00&ServiceCd=130&Type=search", "url2": "https://www.kaigo.kind-life-japan.com/" }, "geometry": { "type": "Point", "coordinates": [ 139.0641473, 37.9246983 ] } },
{ "type": "Feature", "properties": { "内容": "訪問看護ステーション春日和新潟【訪問看護】新潟県新潟市中央区上所中3丁目14番13号上所メディカルセンター２F", "url": "https://www.kaigokensaku.mhlw.go.jp/15/index.php?action_kouhyou_detail_004_kani=true&JigyosyoCd=1560191148-00&ServiceCd=130&Type=search", "url2": "https://www.worldstay.jp/" }, "geometry": { "type": "Point", "coordinates": [ 139.035240798963571, 37.903394993013485 ] } },
{ "type": "Feature", "properties": { "内容": "ゆいの木訪問看護リハビリステーション【訪問看護】新潟県新潟市中央区古町通10番町1725番地", "url": "https://www.kaigokensaku.mhlw.go.jp/15/index.php?action_kouhyou_detail_004_kani=true&JigyosyoCd=1560191213-00&ServiceCd=130&Type=search", "url2": null }, "geometry": { "type": "Point", "coordinates": [ 139.0462756, 37.9265754 ] } },
{ "type": "Feature", "properties": { "内容": "ナースステーションはなことば新潟【訪問看護】新潟県新潟市中央区湖南5－13クレストコート公園前A102", "url": "https://www.kaigokensaku.mhlw.go.jp/15/index.php?action_kouhyou_detail_004_kani=true&JigyosyoCd=1560191163-00&ServiceCd=130&Type=search", "url2": "https://hanakotoba.co.jp/" }, "geometry": { "type": "Point", "coordinates": [ 139.039309877431151, 37.878433748542633 ] } },
{ "type": "Feature", "properties": { "内容": "できじま訪問看護ステーション【訪問看護】新潟県新潟市中央区東出来島1-30", "url": "https://www.kaigokensaku.mhlw.go.jp/15/index.php?action_kouhyou_detail_004_kani=true&JigyosyoCd=1560191098-00&ServiceCd=130&Type=search", "url2": "http://www.aiko.or.jp" }, "geometry": { "type": "Point", "coordinates": [ 139.029905899999989, 37.9034232 ] } },
{ "type": "Feature", "properties": { "内容": "とやの訪問看護ステーション【訪問看護】新潟県新潟市中央区鳥屋野４５０－３", "url": "https://www.kaigokensaku.mhlw.go.jp/15/index.php?action_kouhyou_detail_004_kani=true&JigyosyoCd=1560191171-00&ServiceCd=130&Type=search", "url2": "https://www.jinseikai.jp/visit/" }, "geometry": { "type": "Point", "coordinates": [ 139.0343877, 37.886206 ] } },
{ "type": "Feature", "properties": { "内容": "医心館訪問看護ステーション新潟【訪問看護】新潟県新潟市中央区女池上山2丁目13-32", "url": "https://www.kaigokensaku.mhlw.go.jp/15/index.php?action_kouhyou_detail_004_kani=true&JigyosyoCd=1560190959-00&ServiceCd=130&Type=search", "url2": null }, "geometry": { "type": "Point", "coordinates": [ 139.028695, 37.890815 ] } },
{ "type": "Feature", "properties": { "内容": "医心館訪問看護ステーション新潟Ⅱ【訪問看護】新潟県新潟市中央区鐙西1丁目10番24号", "url": "https://www.kaigokensaku.mhlw.go.jp/15/index.php?action_kouhyou_detail_004_kani=true&JigyosyoCd=1560191155-00&ServiceCd=130&Type=search", "url2": null }, "geometry": { "type": "Point", "coordinates": [ 139.065347066314729, 37.902119708839251 ] } },
{ "type": "Feature", "properties": { "内容": "学研ココファン・ナーシング新潟【訪問看護】新潟県新潟市中央区鳥屋野南３丁目25番16号", "url": "https://www.kaigokensaku.mhlw.go.jp/15/index.php?action_kouhyou_detail_004_kani=true&JigyosyoCd=1560191486-00&ServiceCd=130&Type=search", "url2": null }, "geometry": { "type": "Point", "coordinates": [ 139.028915599999976, 37.8840195 ] } },
{ "type": "Feature", "properties": { "内容": "脳とこころの訪問看護ステーション【訪問看護】新潟県新潟市中央区幸西3-1-6蔦屋書店新潟万代内", "url": "https://www.kaigokensaku.mhlw.go.jp/15/index.php?action_kouhyou_detail_004_kani=true&JigyosyoCd=1560190942-00&ServiceCd=130&Type=search", "url2": "http://noutokokoro.jp/" }, "geometry": { "type": "Point", "coordinates": [ 139.047821398217025, 37.911708013356495 ] } },
{ "type": "Feature", "properties": { "内容": "ウイング関屋訪問看護ステーション【訪問看護】新潟県新潟市中央区関屋田町１－６－２MD関屋ビル", "url": "https://www.kaigokensaku.mhlw.go.jp/15/index.php?action_kouhyou_detail_004_kani=true&JigyosyoCd=1560190892-00&ServiceCd=130&Type=search", "url2": "http://www.maj.co.jp" }, "geometry": { "type": "Point", "coordinates": [ 139.025974499999961, 37.915109 ] } },
{ "type": "Feature", "properties": { "内容": "訪問看護ステーションるぴなす【訪問看護】新潟県新潟市中央区高志2丁目20番10号", "url": "https://www.kaigokensaku.mhlw.go.jp/15/index.php?action_kouhyou_detail_004_kani=true&JigyosyoCd=1560190488-00&ServiceCd=130&Type=search", "url2": "http://smc-kanwa.jp/lupinus01.html" }, "geometry": { "type": "Point", "coordinates": [ 139.076769750193108, 37.898683900595834 ] } },
{ "type": "Feature", "properties": { "内容": "浜浦町訪問看護ステーション【訪問看護】新潟県新潟市中央区浜浦町１丁目１８１番地３", "url": "https://www.kaigokensaku.mhlw.go.jp/15/index.php?action_kouhyou_detail_004_kani=true&JigyosyoCd=1560190140-00&ServiceCd=130&Type=search", "url2": "https://horikawa-clinic.com" }, "geometry": { "type": "Point", "coordinates": [ 139.012381300000015, 37.9107591 ] } },
{ "type": "Feature", "properties": { "内容": "みどり訪問看護リハビリステーション【訪問看護】新潟県新潟市中央区神道寺2-4-24", "url": "https://www.kaigokensaku.mhlw.go.jp/15/index.php?action_kouhyou_detail_004_kani=true&JigyosyoCd=1560190132-00&ServiceCd=130&Type=search", "url2": "http://www.midori-gr.jp/houmon/" }, "geometry": { "type": "Point", "coordinates": [ 139.056220601852374, 37.897536051442913 ] } },
{ "type": "Feature", "properties": { "内容": "社会医療法人新潟勤労者医療協会はまなす訪問看護ステーション【訪問看護】新潟県新潟市中央区入船町3-3629-1", "url": "https://www.kaigokensaku.mhlw.go.jp/15/index.php?action_kouhyou_detail_004_kani=true&JigyosyoCd=1560190082-00&ServiceCd=130&Type=search", "url2": "https://niigata-min.or.jp/funae/about/" }, "geometry": { "type": "Point", "coordinates": [ 139.056407300000046, 37.9343712 ] } },
{ "type": "Feature", "properties": { "内容": "医療法人恒仁会　新潟南訪問看護ステーション【訪問看護】新潟県新潟市中央区鳥屋野2009番地3", "url": "https://www.kaigokensaku.mhlw.go.jp/15/index.php?action_kouhyou_detail_004_kani=true&JigyosyoCd=1560190074-00&ServiceCd=130&Type=search", "url2": "http://www.niigataminami-hp.com" }, "geometry": { "type": "Point", "coordinates": [ 139.031573095522816, 37.882909450729954 ] } },
{ "type": "Feature", "properties": { "内容": "ちいきてらす訪問看護ステーション【訪問看護】新潟県新潟市中央区西堀通５番町８５５番地５フロンティア古町ビル5F", "url": "https://www.kaigokensaku.mhlw.go.jp/15/index.php?action_kouhyou_detail_004_kani=true&JigyosyoCd=1560191254-00&ServiceCd=130&Type=search", "url2": "https://www.chiiki-terrace.co.jp" }, "geometry": { "type": "Point", "coordinates": [ 139.0420153, 37.922245100000026 ] } },
{ "type": "Feature", "properties": { "内容": "公益社団法人新潟県看護協会訪問看護ステーションにいがた【訪問看護】新潟県新潟市中央区川岸町３丁目３３番地2イズミサンリバー川岸1F-C", "url": "https://www.kaigokensaku.mhlw.go.jp/15/index.php?action_kouhyou_detail_004_kani=true&JigyosyoCd=1560190025-00&ServiceCd=130&Type=search", "url2": "http://www.niigata-kango.com/" }, "geometry": { "type": "Point", "coordinates": [ 139.022983899999986, 37.9074637 ] } },
{ "type": "Feature", "properties": { "内容": "東新潟訪問看護ステーション【訪問看護】新潟県新潟市中央区姥ヶ山274番地1東新潟病院内　１階", "url": "https://www.kaigokensaku.mhlw.go.jp/15/index.php?action_kouhyou_detail_004_kani=true&JigyosyoCd=1560190009-00&ServiceCd=130&Type=search", "url2": "http://www.higashi-niigata-hp.or.jp" }, "geometry": { "type": "Point", "coordinates": [ 139.079628587195202, 37.884771507621643 ] } },
{ "type": "Feature", "properties": { "内容": "訪問看護リベル　新潟駅南【訪問看護】新潟県新潟市中央区南笹口1丁目9番11号", "url": "https://www.kaigokensaku.mhlw.go.jp/15/index.php?action_kouhyou_detail_004_kani=true&JigyosyoCd=1560191635-00&ServiceCd=130&Type=search", "url2": null }, "geometry": { "type": "Point", "coordinates": [ 139.0685774, 37.9084471 ] } },
{ "type": "Feature", "properties": { "内容": "訪問看護ステーションほんちょう【訪問看護】新潟県新潟市江南区亀田本町４－３－４", "url": "https://www.kaigokensaku.mhlw.go.jp/15/index.php?action_kouhyou_detail_004_kani=true&JigyosyoCd=1560190389-00&ServiceCd=130&Type=search", "url2": "http://oshiki-clinic.com" }, "geometry": { "type": "Point", "coordinates": [ 139.108137199999959, 37.8673359 ] } },
{ "type": "Feature", "properties": { "内容": "訪問看護ステーション　アイナ【訪問看護】新潟県新潟市江南区平賀70番地", "url": "https://www.kaigokensaku.mhlw.go.jp/15/index.php?action_kouhyou_detail_004_kani=true&JigyosyoCd=1560191312-00&ServiceCd=130&Type=search", "url2": "https://sunlife-mai.com" }, "geometry": { "type": "Point", "coordinates": [ 139.04093142023774, 37.843068962503246 ] } },
{ "type": "Feature", "properties": { "内容": "訪問看護ステーション　サンフラワー【訪問看護】新潟県新潟市江南区亀田大月2丁目4番38号1", "url": "https://www.kaigokensaku.mhlw.go.jp/15/index.php?action_kouhyou_detail_004_kani=true&JigyosyoCd=1560191023-00&ServiceCd=130&Type=search", "url2": "http://kounanfamily.com/sunflower/" }, "geometry": { "type": "Point", "coordinates": [ 139.102387139425645, 37.882375815837811 ] } },
{ "type": "Feature", "properties": { "内容": "あいびい訪問看護ステーション【訪問看護】新潟県新潟市江南区曽野木２丁目２番９号", "url": "https://www.kaigokensaku.mhlw.go.jp/15/index.php?action_kouhyou_detail_004_kani=true&JigyosyoCd=1560191494-00&ServiceCd=130&Type=search", "url2": "https://www.i-vy.jp" }, "geometry": { "type": "Point", "coordinates": [ 139.039149100000031, 37.8645224 ] } },
{ "type": "Feature", "properties": { "内容": "ゆきよし訪問看護ステーション【訪問看護】新潟県新潟市江南区稲葉1-4-3", "url": "https://www.kaigokensaku.mhlw.go.jp/15/index.php?action_kouhyou_detail_004_kani=true&JigyosyoCd=1560190561-00&ServiceCd=130&Type=search", "url2": "http://www.rnhj.jp/" }, "geometry": { "type": "Point", "coordinates": [ 139.114422276092114, 37.875872572949696 ] } },
{ "type": "Feature", "properties": { "内容": "訪問看護ステーションかめだ【訪問看護】新潟県新潟市江南区早通6-7-34", "url": "https://www.kaigokensaku.mhlw.go.jp/15/index.php?action_kouhyou_detail_004_kani=true&JigyosyoCd=1560190371-00&ServiceCd=130&Type=search", "url2": "http://www.ijn.or.jp/" }, "geometry": { "type": "Point", "coordinates": [ 139.08132, 37.8635908 ] } },
{ "type": "Feature", "properties": { "内容": "訪問看護ステーションABCリビング新潟【訪問看護】新潟県新潟市江南区亀田中島四丁目4番16号9", "url": "https://www.kaigokensaku.mhlw.go.jp/15/index.php?action_kouhyou_detail_004_kani=true&JigyosyoCd=1560191627-00&ServiceCd=130&Type=search", "url2": null }, "geometry": { "type": "Point", "coordinates": [ 139.101461699999987, 37.888877 ] } },
{ "type": "Feature", "properties": { "内容": "こはるの木訪問看護リハビリステーション【訪問看護】新潟県新潟市秋葉区北上3丁目5-17", "url": "https://www.kaigokensaku.mhlw.go.jp/15/index.php?action_kouhyou_detail_004_kani=true&JigyosyoCd=1560190983-00&ServiceCd=130&Type=search", "url2": "https://www.koharunoki.jp" }, "geometry": { "type": "Point", "coordinates": [ 139.125599152857887, 37.810177349110049 ] } },
{ "type": "Feature", "properties": { "内容": "はあとふるあたご　訪問看護ステーション【訪問看護】新潟県新潟市秋葉区車場897番地1", "url": "https://www.kaigokensaku.mhlw.go.jp/15/index.php?action_kouhyou_detail_004_kani=true&JigyosyoCd=1560190918-00&ServiceCd=130&Type=search", "url2": "https://heartfull.jp/" }, "geometry": { "type": "Point", "coordinates": [ 139.099869256826224, 37.834793337920409 ] } },
{ "type": "Feature", "properties": { "内容": "訪問看護ステーションにいつ【訪問看護】新潟県新潟市秋葉区日宝町5番25号", "url": "https://www.kaigokensaku.mhlw.go.jp/15/index.php?action_kouhyou_detail_004_kani=true&JigyosyoCd=1560190348-00&ServiceCd=130&Type=search", "url2": "http://www.niitsu-mch.jp" }, "geometry": { "type": "Point", "coordinates": [ 139.126794199999949, 37.7968165 ] } },
{ "type": "Feature", "properties": { "内容": "下越訪問看護ステーション【訪問看護】新潟県新潟市秋葉区東金沢1674番地1ケアセンターかえつ", "url": "https://www.kaigokensaku.mhlw.go.jp/15/index.php?action_kouhyou_detail_004_kani=true&JigyosyoCd=1560190306-00&ServiceCd=130&Type=search", "url2": null }, "geometry": { "type": "Point", "coordinates": [ 139.144710761315878, 37.802167067866229 ] } },
{ "type": "Feature", "properties": { "内容": "すみれ訪問看護ステーション【訪問看護】新潟県新潟市南区大通1丁目1番27号", "url": "https://www.kaigokensaku.mhlw.go.jp/15/index.php?action_kouhyou_detail_004_kani=true&JigyosyoCd=1560190884-00&ServiceCd=130&Type=search", "url2": null }, "geometry": { "type": "Point", "coordinates": [ 139.018535, 37.8398564 ] } },
{ "type": "Feature", "properties": { "内容": "しろね訪問看護ステーション【訪問看護】新潟県新潟市南区大通黄金4丁目14番地2", "url": "https://www.kaigokensaku.mhlw.go.jp/15/index.php?action_kouhyou_detail_004_kani=true&JigyosyoCd=1560190520-00&ServiceCd=130&Type=search", "url2": "http://www.jojinkai.com/shirone/" }, "geometry": { "type": "Point", "coordinates": [ 139.0196469, 37.8232135 ] } },
{ "type": "Feature", "properties": { "内容": "新潟白根総合病院訪問看護ステーション【訪問看護】新潟県新潟市南区上下諏訪木770番地１", "url": "https://www.kaigokensaku.mhlw.go.jp/15/index.php?action_kouhyou_detail_004_kani=true&JigyosyoCd=1560190355-00&ServiceCd=130&Type=search", "url2": "http://www.healthcoop-shirone.or.jp" }, "geometry": { "type": "Point", "coordinates": [ 139.019742550926139, 37.760135857812394 ] } },
{ "type": "Feature", "properties": { "内容": "西蒲中央病院みさと訪問看護ステーション【訪問看護】新潟県新潟市西区寺尾台2丁目４－４６", "url": "https://www.kaigokensaku.mhlw.go.jp/15/index.php?action_kouhyou_detail_004_kani=true&JigyosyoCd=1560191015-00&ServiceCd=130&Type=search", "url2": "http://www.misatokai.or.jp" }, "geometry": { "type": "Point", "coordinates": [ 138.977258200000051, 37.8835905 ] } },
{ "type": "Feature", "properties": { "内容": "あいしーゆー訪問看護ケアステーション【訪問看護】新潟県新潟市西区五十嵐一の町６３７９番地１３９", "url": "https://www.kaigokensaku.mhlw.go.jp/15/index.php?action_kouhyou_detail_004_kani=true&JigyosyoCd=1560191403-00&ServiceCd=130&Type=search", "url2": "https://esttra.com/" }, "geometry": { "type": "Point", "coordinates": [ 138.945787599999989, 37.87589858110131 ] } },
{ "type": "Feature", "properties": { "内容": "ナースアンドケア訪問看護ステーション【訪問看護】新潟県新潟市西区松美台１６－２１", "url": "https://www.kaigokensaku.mhlw.go.jp/15/index.php?action_kouhyou_detail_004_kani=true&JigyosyoCd=1560190876-00&ServiceCd=130&Type=search", "url2": null }, "geometry": { "type": "Point", "coordinates": [ 138.990326200000027, 37.891829 ] } },
{ "type": "Feature", "properties": { "内容": "独立行政法人国立病院機構西新潟中央病院訪問看護ステーション【訪問看護】新潟県新潟市西区真砂1丁目14番1号", "url": "https://www.kaigokensaku.mhlw.go.jp/15/index.php?action_kouhyou_detail_004_kani=true&JigyosyoCd=1560190835-00&ServiceCd=130&Type=search", "url2": "https://nishiniigata.hosp.go.jp/" }, "geometry": { "type": "Point", "coordinates": [ 138.985257, 37.8905021 ] } },
{ "type": "Feature", "properties": { "内容": "ケアライフ訪問看護リハビリステーション【訪問看護】新潟県新潟市西区小針6丁目6番6号福舞ビル102", "url": "https://www.kaigokensaku.mhlw.go.jp/15/index.php?action_kouhyou_detail_004_kani=true&JigyosyoCd=1560190843-00&ServiceCd=130&Type=search", "url2": null }, "geometry": { "type": "Point", "coordinates": [ 138.992741699999982, 37.8847555 ] } },
{ "type": "Feature", "properties": { "内容": "脳とこころの訪問看護ステーション西新潟【訪問看護】新潟県新潟市西区小針4丁目9番1号株式会社トップカルチャー本社内", "url": "https://www.kaigokensaku.mhlw.go.jp/15/index.php?action_kouhyou_detail_004_kani=true&JigyosyoCd=1560191239-00&ServiceCd=130&Type=search", "url2": "http://noutokokoro.jp/" }, "geometry": { "type": "Point", "coordinates": [ 138.997090899999989, 37.8857571 ] } },
{ "type": "Feature", "properties": { "内容": "ALPHASさわやか苑新潟訪問看護ステーション【訪問看護】新潟県新潟市西区緒立流通2丁目2番地13", "url": "https://www.kaigokensaku.mhlw.go.jp/15/index.php?action_kouhyou_detail_004_kani=true&JigyosyoCd=1560191478-00&ServiceCd=130&Type=search", "url2": "http://nmi-net.com" }, "geometry": { "type": "Point", "coordinates": [ 138.98604370000001, 37.858476 ] } },
{ "type": "Feature", "properties": { "内容": "新潟こばり訪問看護ステーション【訪問看護】新潟県新潟市西区小針3丁目27番11号新潟医療センター　B棟３階", "url": "https://www.kaigokensaku.mhlw.go.jp/15/index.php?action_kouhyou_detail_004_kani=true&JigyosyoCd=1560190504-00&ServiceCd=130&Type=search", "url2": "http://www.niigata-medical.jp/" }, "geometry": { "type": "Point", "coordinates": [ 138.998637337295577, 37.887580443243714 ] } },
{ "type": "Feature", "properties": { "内容": "訪問看護ステーションゆうばえ【訪問看護】新潟県新潟市西区内野上新町11810番地3", "url": "https://www.kaigokensaku.mhlw.go.jp/15/index.php?action_kouhyou_detail_004_kani=true&JigyosyoCd=1560190280-00&ServiceCd=130&Type=search", "url2": "http://niigata-min.or.jp/yuubae/" }, "geometry": { "type": "Point", "coordinates": [ 138.913006799999948, 37.8498492 ] } },
{ "type": "Feature", "properties": { "内容": "すなやま訪問看護ステーション【訪問看護】新潟県新潟市西区坂井砂山3-8-2", "url": "https://www.kaigokensaku.mhlw.go.jp/15/index.php?action_kouhyou_detail_004_kani=true&JigyosyoCd=1560190090-00&ServiceCd=130&Type=search", "url2": "https://sunayama.or.jp/houkan/" }, "geometry": { "type": "Point", "coordinates": [ 138.9553952, 37.8704026 ] } },
{ "type": "Feature", "properties": { "内容": "エミシア訪問看護ステーション【訪問看護】新潟県新潟市西区寺尾東３－１４－４６住宅型有料老人ホームボヌール寺尾内", "url": "https://www.kaigokensaku.mhlw.go.jp/15/index.php?action_kouhyou_detail_004_kani=true&JigyosyoCd=1560190645-00&ServiceCd=130&Type=search", "url2": null }, "geometry": { "type": "Point", "coordinates": [ 138.9721346, 37.8746588 ] } },
{ "type": "Feature", "properties": { "内容": "訪問看護ステーションもも【訪問看護】新潟県新潟市西区寺尾北1-12-50フィールドA104・202", "url": "https://www.kaigokensaku.mhlw.go.jp/15/index.php?action_kouhyou_detail_004_kani=true&JigyosyoCd=1560191346-00&ServiceCd=130&Type=search", "url2": null }, "geometry": { "type": "Point", "coordinates": [ 138.970649189549249, 37.885610330981251 ] } },
{ "type": "Feature", "properties": { "内容": "医療法人美郷会こころはすクリニック【訪問看護】新潟県新潟市西区小針4丁目39-28", "url": "https://www.kaigokensaku.mhlw.go.jp/15/index.php?action_kouhyou_detail_004_kani=true&JigyosyoCd=1510125543-00&ServiceCd=130&Type=search", "url2": "http://www.misatokai.or.jp/kokorohasu/index.html" }, "geometry": { "type": "Point", "coordinates": [ 138.99723419999998, 37.8830535 ] } },
{ "type": "Feature", "properties": { "内容": "訪問看護ステーションにじいろ【訪問看護】新潟県新潟市西区小新南1丁目20番14号", "url": "https://www.kaigokensaku.mhlw.go.jp/15/index.php?action_kouhyou_detail_004_kani=true&JigyosyoCd=1560190793-00&ServiceCd=130&Type=search", "url2": "http://www.houkan-niji.com/" }, "geometry": { "type": "Point", "coordinates": [ 138.9899024, 37.8688409 ] } },
{ "type": "Feature", "properties": { "内容": "済生会新潟訪問看護ステーション【訪問看護】新潟県新潟市西区寺地280-7済生会新潟病院　B棟2階", "url": "https://www.kaigokensaku.mhlw.go.jp/15/index.php?action_kouhyou_detail_004_kani=true&JigyosyoCd=1560190223-00&ServiceCd=130&Type=search", "url2": "http://www.ngt.saiseikai.or.jp/section/station" }, "geometry": { "type": "Point", "coordinates": [ 139.004953200000045, 37.8789461 ] } },
{ "type": "Feature", "properties": { "内容": "訪問看護ステーション　新潟寺尾【訪問看護】新潟県新潟市西区寺尾上5丁目18番17号", "url": "https://www.kaigokensaku.mhlw.go.jp/15/index.php?action_kouhyou_detail_004_kani=true&JigyosyoCd=1560190801-00&ServiceCd=130&Type=search", "url2": "https://www.aoikai.jp/niigataterao/" }, "geometry": { "type": "Point", "coordinates": [ 138.963071799999966, 37.8737639 ] } },
{ "type": "Feature", "properties": { "内容": "信楽園訪問看護ステーション【訪問看護】新潟県新潟市西区新通南3-3-11", "url": "https://www.kaigokensaku.mhlw.go.jp/15/index.php?action_kouhyou_detail_004_kani=true&JigyosyoCd=1560190017-00&ServiceCd=130&Type=search", "url2": "http://www.shinrakuen.com/section/item/houmonkango.html" }, "geometry": { "type": "Point", "coordinates": [ 138.956355546032711, 37.857625173931616 ] } },
{ "type": "Feature", "properties": { "内容": "訪問看護リベル　新潟大学前【訪問看護】新潟県新潟市西区坂井929番地サンクレスト新大303号室", "url": "https://www.kaigokensaku.mhlw.go.jp/15/index.php?action_kouhyou_detail_004_kani=true&JigyosyoCd=1560191619-00&ServiceCd=130&Type=search", "url2": null }, "geometry": { "type": "Point", "coordinates": [ 138.9596335, 37.8693109 ] } },
{ "type": "Feature", "properties": { "内容": "ソエルガーデン新潟西訪問看護【訪問看護】新潟県新潟市西区五十嵐中島3丁目1番19号", "url": "https://www.kaigokensaku.mhlw.go.jp/15/index.php?action_kouhyou_detail_004_kani=true&JigyosyoCd=1560191643-00&ServiceCd=130&Type=search", "url2": "http://www.carepartner.com/service/soerugarden/" }, "geometry": { "type": "Point", "coordinates": [ 138.923574934254447, 37.850198638189291 ] } },
{ "type": "Feature", "properties": { "内容": "訪問看護ステーションteamこねくと【訪問看護】新潟県新潟市西区平島1301番地中野プラザ206号室", "url": "https://www.kaigokensaku.mhlw.go.jp/15/index.php?action_kouhyou_detail_004_kani=true&JigyosyoCd=1560191593-00&ServiceCd=130&Type=search", "url2": "https://houkan.wakuwakuconect.com/" }, "geometry": { "type": "Point", "coordinates": [ 139.009017, 37.8904577 ] } },
{ "type": "Feature", "properties": { "内容": "メディカルサポートあたご訪問看護ステーション【訪問看護】新潟県新潟市西蒲区巻甲2678番地1", "url": "https://www.kaigokensaku.mhlw.go.jp/15/index.php?action_kouhyou_detail_004_kani=true&JigyosyoCd=1560190975-00&ServiceCd=130&Type=search", "url2": "http://www.atago.or.jp" }, "geometry": { "type": "Point", "coordinates": [ 138.889213546691622, 37.759873122645416 ] } },
{ "type": "Feature", "properties": { "内容": "にいがた訪問看護ステーション【訪問看護】新潟県新潟市西蒲区巻甲4363番地新潟西蒲メディカルセンター病院内", "url": "https://www.kaigokensaku.mhlw.go.jp/15/index.php?action_kouhyou_detail_004_kani=true&JigyosyoCd=1560190587-00&ServiceCd=130&Type=search", "url2": "https://www.jojinkai.com/niigata/visiting-nursing-station/" }, "geometry": { "type": "Point", "coordinates": [ 138.894031309956318, 37.754042663153662 ] } },
{ "type": "Feature", "properties": { "内容": "西蒲中央病院訪問看護ステーション【訪問看護】新潟県新潟市西蒲区旗屋731番地", "url": "https://www.kaigokensaku.mhlw.go.jp/15/index.php?action_kouhyou_detail_004_kani=true&JigyosyoCd=1560190512-00&ServiceCd=130&Type=search", "url2": "http://www.misatokai.or.jp" }, "geometry": { "type": "Point", "coordinates": [ 138.923964238236977, 37.790864129097791 ] } },
{ "type": "Feature", "properties": { "内容": "岩室リハビリテーション病院訪問看護ステーション【訪問看護】新潟県新潟市西蒲区岩室温泉772-1", "url": "https://www.kaigokensaku.mhlw.go.jp/15/index.php?action_kouhyou_detail_004_kani=true&JigyosyoCd=1560190397-00&ServiceCd=130&Type=search", "url2": "http://iwamurohp.jp/" }, "geometry": { "type": "Point", "coordinates": [ 138.839031200000022, 37.7324411 ] } },
{ "type": "Feature", "properties": { "内容": "訪問看護ステーション　たんぽぽ【訪問看護】新潟県　新潟市　西蒲区　赤鏥１００４－７", "url": "https://www.kaigokensaku.mhlw.go.jp/15/index.php?action_kouhyou_detail_004_kani=true&JigyosyoCd=1560190421-00&ServiceCd=130&Type=search", "url2": null }, "geometry": { "type": "Point", "coordinates": [ 138.893506300000013, 37.7467906 ] } },
{ "type": "Feature", "properties": { "内容": "さくら心の訪問看護ステーション【訪問看護】新潟県長岡市亀貝町1719-1", "url": "https://www.kaigokensaku.mhlw.go.jp/15/index.php?action_kouhyou_detail_004_kani=true&JigyosyoCd=1560290270-00&ServiceCd=130&Type=search", "url2": "https://sakura556.com/" }, "geometry": { "type": "Point", "coordinates": [ 138.8825929, 37.4733715 ] } },
{ "type": "Feature", "properties": { "内容": "旭岡木口クリニック【訪問看護】新潟県長岡市旭岡2丁目２０７番地", "url": "https://www.kaigokensaku.mhlw.go.jp/15/index.php?action_kouhyou_detail_004_kani=true&JigyosyoCd=1510214370-00&ServiceCd=130&Type=search", "url2": "http://www.kiguchiclinic.com" }, "geometry": { "type": "Point", "coordinates": [ 138.856829418385331, 37.426042779370967 ] } },
{ "type": "Feature", "properties": { "内容": "公益社団法人新潟県看護協会　訪問看護ステーションさんわ【訪問看護】長岡市三和3丁目4番16号", "url": "https://www.kaigokensaku.mhlw.go.jp/15/index.php?action_kouhyou_detail_004_kani=true&JigyosyoCd=1560290106-00&ServiceCd=130&Type=search", "url2": null }, "geometry": { "type": "Point", "coordinates": [ 138.839234600000026, 37.4337774 ] } },
{ "type": "Feature", "properties": { "内容": "訪問看護ステーションみつごうや【訪問看護】新潟県長岡市緑町２丁目４－５", "url": "https://www.kaigokensaku.mhlw.go.jp/15/index.php?action_kouhyou_detail_004_kani=true&JigyosyoCd=1560290056-00&ServiceCd=130&Type=search", "url2": "http://www.sutokukai.or.jp/cssc/" }, "geometry": { "type": "Point", "coordinates": [ 138.818468949629278, 37.449038234358966 ] } },
{ "type": "Feature", "properties": { "内容": "訪問看護ステーションすまいる【訪問看護】新潟県長岡市前田1-6-7", "url": "https://www.kaigokensaku.mhlw.go.jp/15/index.php?action_kouhyou_detail_004_kani=true&JigyosyoCd=1560290072-00&ServiceCd=130&Type=search", "url2": "http://www.nagaoka-iryou-seikyou.jp/" }, "geometry": { "type": "Point", "coordinates": [ 138.860666053395107, 37.437222326363681 ] } },
{ "type": "Feature", "properties": { "内容": "長岡中央訪問看護ステーション【訪問看護】長岡市川崎町2041", "url": "https://www.kaigokensaku.mhlw.go.jp/15/index.php?action_kouhyou_detail_004_kani=true&JigyosyoCd=1560290080-00&ServiceCd=130&Type=search", "url2": "http://www.nagachu.jp" }, "geometry": { "type": "Point", "coordinates": [ 138.878565803041027, 37.451547623650491 ] } },
{ "type": "Feature", "properties": { "内容": "訪問看護かえりえ長岡【訪問看護】新潟県長岡市中島7-1-8", "url": "https://www.kaigokensaku.mhlw.go.jp/15/index.php?action_kouhyou_detail_004_kani=true&JigyosyoCd=1560290296-00&ServiceCd=130&Type=search", "url2": "https://search.yasashiite.com/detail/homonkango_nagaoka/" }, "geometry": { "type": "Point", "coordinates": [ 138.850834245368986, 37.457658792512966 ] } },
{ "type": "Feature", "properties": { "内容": "たちかわ訪問看護ステーション【訪問看護】新潟県長岡市大字日越３３７番地", "url": "https://www.kaigokensaku.mhlw.go.jp/15/index.php?action_kouhyou_detail_004_kani=true&JigyosyoCd=1560290031-00&ServiceCd=130&Type=search", "url2": "http://www.tatikawa.or.jp" }, "geometry": { "type": "Point", "coordinates": [ 138.7811994, 37.4365903 ] } },
{ "type": "Feature", "properties": { "内容": "こぶし訪問看護ステーション【訪問看護】長岡市深沢町2278番地８", "url": "https://www.kaigokensaku.mhlw.go.jp/15/index.php?action_kouhyou_detail_004_kani=true&JigyosyoCd=1560290049-00&ServiceCd=130&Type=search", "url2": "http://www.kobushien.com" }, "geometry": { "type": "Point", "coordinates": [ 138.772739199999933, 37.4249052 ] } },
{ "type": "Feature", "properties": { "内容": "吉田病院長町訪問看護ステーション【訪問看護】長岡市長町１丁目1668", "url": "https://www.kaigokensaku.mhlw.go.jp/15/index.php?action_kouhyou_detail_004_kani=true&JigyosyoCd=1560290122-00&ServiceCd=130&Type=search", "url2": "http://www.yoshida-h.or.jp" }, "geometry": { "type": "Point", "coordinates": [ 138.854665502516127, 37.453320444404994 ] } },
{ "type": "Feature", "properties": { "内容": "こぶし訪問看護ステーション大島【訪問看護】新潟県長岡市大島町字谷内甲1161番地サポートセンター大島", "url": "https://www.kaigokensaku.mhlw.go.jp/15/index.php?action_kouhyou_detail_004_kani=true&JigyosyoCd=1560290213-00&ServiceCd=130&Type=search", "url2": "http://www.kobushien.com/" }, "geometry": { "type": "Point", "coordinates": [ 138.8167032, 37.4481141 ] } },
{ "type": "Feature", "properties": { "内容": "てまり訪問看護ステーション【訪問看護】新潟県長岡市平1丁目3番60号", "url": "https://www.kaigokensaku.mhlw.go.jp/15/index.php?action_kouhyou_detail_004_kani=true&JigyosyoCd=1560290163-00&ServiceCd=130&Type=search", "url2": "http://www.temari-care.com" }, "geometry": { "type": "Point", "coordinates": [ 139.00459937301639, 37.472207070227569 ] } },
{ "type": "Feature", "properties": { "内容": "脳とこころの訪問看護ステーション長岡【訪問看護】新潟県長岡市花園南1-36蔦屋書店長岡花園店内", "url": "https://www.kaigokensaku.mhlw.go.jp/15/index.php?action_kouhyou_detail_004_kani=true&JigyosyoCd=1560290247-00&ServiceCd=130&Type=search", "url2": "http://www.noutokokoro.jp/" }, "geometry": { "type": "Point", "coordinates": [ 138.8627734, 37.4296278 ] } },
{ "type": "Feature", "properties": { "内容": "訪問看護ステーション　フォレスト【訪問看護】新潟県長岡市関原町２丁目１３６番地", "url": "https://www.kaigokensaku.mhlw.go.jp/15/index.php?action_kouhyou_detail_004_kani=true&JigyosyoCd=1560290254-00&ServiceCd=130&Type=search", "url2": "http://llc-quent.com/" }, "geometry": { "type": "Point", "coordinates": [ 138.774318334970275, 37.453695146292681 ] } },
{ "type": "Feature", "properties": { "内容": "ALPHASさわやか苑長岡訪問看護ステーション【訪問看護】新潟県長岡市荻野1丁目7番14号", "url": "https://www.kaigokensaku.mhlw.go.jp/15/index.php?action_kouhyou_detail_004_kani=true&JigyosyoCd=1560290262-00&ServiceCd=130&Type=search", "url2": "https://nmi-net.com" }, "geometry": { "type": "Point", "coordinates": [ 138.835493907694314, 37.472712480899283 ] } },
{ "type": "Feature", "properties": { "内容": "訪問看護ステーション　トータルケア長岡【訪問看護】新潟県長岡市古正寺2-93メゾンド・ド・ヌーベル102", "url": "https://www.kaigokensaku.mhlw.go.jp/15/index.php?action_kouhyou_detail_004_kani=true&JigyosyoCd=1560290288-00&ServiceCd=130&Type=search", "url2": "https://lecaldo.co.jp/total-care-nagaoka/" }, "geometry": { "type": "Point", "coordinates": [ 138.821124759524565, 37.456136400550811 ] } },
{ "type": "Feature", "properties": { "内容": "グッドタイム訪問看護ステーション・長岡【訪問看護】新潟県長岡市下々条２丁目1373-1グッドタイムホーム・長岡", "url": "https://www.kaigokensaku.mhlw.go.jp/15/index.php?action_kouhyou_detail_004_kani=true&JigyosyoCd=1560290320-00&ServiceCd=130&Type=search", "url2": "https://www.sousei.net/cogroup/%e6%a0%aa%e5%bc%8f%e4%bc%9a%e7%a4%be-%e5%89%b5%e7%94%9f%e4%ba%8b%e6%a5%ad%e5%9b%a3/" }, "geometry": { "type": "Point", "coordinates": [ 138.8634537, 37.4846623 ] } },
{ "type": "Feature", "properties": { "内容": "ふるまい訪問看護県央【訪問看護】新潟県三条市下須頃172番地パストラル須頃101号室", "url": "https://www.kaigokensaku.mhlw.go.jp/15/index.php?action_kouhyou_detail_004_kani=true&JigyosyoCd=1560490151-00&ServiceCd=130&Type=search", "url2": null }, "geometry": { "type": "Point", "coordinates": [ 138.93955933991316, 37.642129697620312 ] } },
{ "type": "Feature", "properties": { "内容": "三条東訪問看護ステーション【訪問看護】三条市北入蔵２丁目１７番２７号三条東病院内", "url": "https://www.kaigokensaku.mhlw.go.jp/15/index.php?action_kouhyou_detail_004_kani=true&JigyosyoCd=1560490011-00&ServiceCd=130&Type=search", "url2": "http://www.tachibanakoyokai.or.jp" }, "geometry": { "type": "Point", "coordinates": [ 138.985139900000036, 37.6320693 ] } },
{ "type": "Feature", "properties": { "内容": "済生会三条訪問看護ステーション【訪問看護】新潟県三条市大野畑６番８６－１１号", "url": "https://www.kaigokensaku.mhlw.go.jp/15/index.php?action_kouhyou_detail_004_kani=true&JigyosyoCd=1560490029-00&ServiceCd=130&Type=search", "url2": "https://www.saisanhp.com/related/" }, "geometry": { "type": "Point", "coordinates": [ 138.940569987870418, 37.627203706904979 ] } },
{ "type": "Feature", "properties": { "内容": "あさひ訪問看護リハビリステーション【訪問看護】新潟県三条市西本成寺1丁目36-25あさひガーデン内", "url": "https://www.kaigokensaku.mhlw.go.jp/15/index.php?action_kouhyou_detail_004_kani=true&JigyosyoCd=1560490078-00&ServiceCd=130&Type=search", "url2": "http://houkan.asahicommons.co.jp" }, "geometry": { "type": "Point", "coordinates": [ 138.939218198716503, 37.619859836461359 ] } },
{ "type": "Feature", "properties": { "内容": "日の丸観光タクシー株式会社　さくら訪問看護リハビリステーション【訪問看護】新潟県三条市東三条１－６－１４日の丸観光タクシー株式会社　２階", "url": "https://www.kaigokensaku.mhlw.go.jp/15/index.php?action_kouhyou_detail_004_kani=true&JigyosyoCd=1560490102-00&ServiceCd=130&Type=search", "url2": "http://sakura.hinomarukankou.co.jp/" }, "geometry": { "type": "Point", "coordinates": [ 138.973418700000025, 37.6306858 ] } },
{ "type": "Feature", "properties": { "内容": "ナーシングヴィラあさひ【訪問看護】新潟県三条市南新保10番24号ナーシングヴィラあさひ", "url": "https://www.kaigokensaku.mhlw.go.jp/15/index.php?action_kouhyou_detail_004_kani=true&JigyosyoCd=1560490144-00&ServiceCd=130&Type=search", "url2": "http://asahicommons.co.jp/" }, "geometry": { "type": "Point", "coordinates": [ 138.961379635581977, 37.624598687684511 ] } },
{ "type": "Feature", "properties": { "内容": "訪問看護リハビリステーション　みるら【訪問看護】三条市新光町２９番地５４号", "url": "https://www.kaigokensaku.mhlw.go.jp/15/index.php?action_kouhyou_detail_004_kani=true&JigyosyoCd=1560490052-00&ServiceCd=130&Type=search", "url2": "https://ankh-myrrh.jp/nursestation/" }, "geometry": { "type": "Point", "coordinates": [ 138.9628109, 37.6440837 ] } },
{ "type": "Feature", "properties": { "内容": "訪問看護ステーションあすも【訪問看護】新潟県三条市東裏館2-13-15", "url": "https://www.kaigokensaku.mhlw.go.jp/15/index.php?action_kouhyou_detail_004_kani=true&JigyosyoCd=1560490086-00&ServiceCd=130&Type=search", "url2": "https://www.asmo-x.co.jp" }, "geometry": { "type": "Point", "coordinates": [ 138.958253199999945, 37.638201 ] } },
{ "type": "Feature", "properties": { "内容": "ウェルビー訪問看護ステーション【訪問看護】新潟県三条市荻堀1182－1", "url": "https://www.kaigokensaku.mhlw.go.jp/15/index.php?action_kouhyou_detail_004_kani=true&JigyosyoCd=1560490128-00&ServiceCd=130&Type=search", "url2": "http://wellhoukan.com" }, "geometry": { "type": "Point", "coordinates": [ 139.0298405, 37.5730861 ] } },
{ "type": "Feature", "properties": { "内容": "ゆたか訪問看護ステーション【訪問看護】柏崎市扇町3番37号扇町介護保険事業センター", "url": "https://www.kaigokensaku.mhlw.go.jp/15/index.php?action_kouhyou_detail_004_kani=true&JigyosyoCd=1560590000-00&ServiceCd=130&Type=search", "url2": "http://www.syakyou.jp" }, "geometry": { "type": "Point", "coordinates": [ 138.570867554504446, 37.365795871613841 ] } },
{ "type": "Feature", "properties": { "内容": "訪問看護かえりえ柏崎【訪問看護】新潟県柏崎市田中13-14", "url": "https://www.kaigokensaku.mhlw.go.jp/15/index.php?action_kouhyou_detail_004_kani=true&JigyosyoCd=1560590083-00&ServiceCd=130&Type=search", "url2": "https://search.yasashiite.com/detail/houmonkango_kashiwazaki/" }, "geometry": { "type": "Point", "coordinates": [ 138.5671159, 37.3610789 ] } },
{ "type": "Feature", "properties": { "内容": "訪問看護ステーション柏崎【訪問看護】新潟県柏崎市北半田二丁目11番3号柏崎総合医療センター", "url": "https://www.kaigokensaku.mhlw.go.jp/15/index.php?action_kouhyou_detail_004_kani=true&JigyosyoCd=1560590018-00&ServiceCd=130&Type=search", "url2": "http://www.kashiwazaki-ghmc.jp/" }, "geometry": { "type": "Point", "coordinates": [ 138.577556700000059, 37.3625655 ] } },
{ "type": "Feature", "properties": { "内容": "よねやま訪問看護ステーション【訪問看護】新潟県柏崎市大字茨目字二ツ池2071－1", "url": "https://www.kaigokensaku.mhlw.go.jp/15/index.php?action_kouhyou_detail_004_kani=true&JigyosyoCd=1560590026-00&ServiceCd=130&Type=search", "url2": "http://www.tatikawa.or.jp" }, "geometry": { "type": "Point", "coordinates": [ 138.586882597068438, 37.353350688203392 ] } },
{ "type": "Feature", "properties": { "内容": "公益社団法人新潟県看護協会　訪問看護ステーションつくし【訪問看護】新潟県柏崎市茨目１丁目９番２３号", "url": "https://www.kaigokensaku.mhlw.go.jp/15/index.php?action_kouhyou_detail_004_kani=true&JigyosyoCd=1560590034-00&ServiceCd=130&Type=search", "url2": "http://www.niigata-kango.com" }, "geometry": { "type": "Point", "coordinates": [ 138.580658294534373, 37.360671658387439 ] } },
{ "type": "Feature", "properties": { "内容": "独立行政法人国立病院機構新潟病院　訪問看護ステーションゆきさくら【訪問看護】新潟県柏崎市赤坂町３番５２号", "url": "https://www.kaigokensaku.mhlw.go.jp/15/index.php?action_kouhyou_detail_004_kani=true&JigyosyoCd=1560590067-00&ServiceCd=130&Type=search", "url2": "https://niigata.hosp.go.jp/" }, "geometry": { "type": "Point", "coordinates": [ 138.536806584795499, 37.358840420343043 ] } },
{ "type": "Feature", "properties": { "内容": "ナースステーションはなことば柏崎【訪問看護】新潟県柏崎市松美2丁目５－57グリーンビル朋友102号室", "url": "https://www.kaigokensaku.mhlw.go.jp/15/index.php?action_kouhyou_detail_004_kani=true&JigyosyoCd=1560590059-00&ServiceCd=130&Type=search", "url2": "https://www.hanakotoba.co.jp" }, "geometry": { "type": "Point", "coordinates": [ 138.5776700330658, 37.377567788543409 ] } },
{ "type": "Feature", "properties": { "内容": "ご近所訪看リハビリステーション新発田【訪問看護】新潟県新発田市東新町4丁目1番10号", "url": "https://www.kaigokensaku.mhlw.go.jp/15/index.php?action_kouhyou_detail_004_kani=true&JigyosyoCd=1560690099-00&ServiceCd=130&Type=search", "url2": "https://houmonkango-gkhk.com/" }, "geometry": { "type": "Point", "coordinates": [ 139.345729, 37.9491272 ] } },
{ "type": "Feature", "properties": { "内容": "一般財団法人下越総合健康開発センター訪問看護ステーション【訪問看護】新発田市本町4－16－83一般財団法人下越総合健康開発センター　健康増進センター内", "url": "https://www.kaigokensaku.mhlw.go.jp/15/index.php?action_kouhyou_detail_004_kani=true&JigyosyoCd=1560690016-00&ServiceCd=130&Type=search", "url2": "http://www.kenkokaihatu.or.jp" }, "geometry": { "type": "Point", "coordinates": [ 139.338077230688441, 37.948030393283375 ] } },
{ "type": "Feature", "properties": { "内容": "医療法人社団訪問看護ステーションランジュ【訪問看護】新潟県新発田市中央町４丁目４６８-１２チサンマンション５０１号", "url": "https://www.kaigokensaku.mhlw.go.jp/15/index.php?action_kouhyou_detail_004_kani=true&JigyosyoCd=1560690024-00&ServiceCd=130&Type=search", "url2": "http://takeuchikai.net/" }, "geometry": { "type": "Point", "coordinates": [ 139.326228212689216, 37.950990721496034 ] } },
{ "type": "Feature", "properties": { "内容": "とようら訪問看護ステーション【訪問看護】新潟県新発田市荒町甲1611番地8", "url": "https://www.kaigokensaku.mhlw.go.jp/15/index.php?action_kouhyou_detail_004_kani=true&JigyosyoCd=1560690057-00&ServiceCd=130&Type=search", "url2": "http://www.aiko.or.jp" }, "geometry": { "type": "Point", "coordinates": [ 139.321045450787295, 37.935878721665048 ] } },
{ "type": "Feature", "properties": { "内容": "なかじょう訪問看護ステーション新発田【訪問看護】新潟県新発田市豊町4-1-15", "url": "https://www.kaigokensaku.mhlw.go.jp/15/index.php?action_kouhyou_detail_004_kani=true&JigyosyoCd=1560690065-00&ServiceCd=130&Type=search", "url2": "http://www.o-nakajou.com/" }, "geometry": { "type": "Point", "coordinates": [ 139.341469333729492, 37.938832554895008 ] } },
{ "type": "Feature", "properties": { "内容": "医療法人社団M＆Bコラボレーション北越病院訪問看護ステーション【訪問看護】新潟県新発田市緑町2丁目20番19号", "url": "https://www.kaigokensaku.mhlw.go.jp/15/index.php?action_kouhyou_detail_004_kani=true&JigyosyoCd=1560690115-00&ServiceCd=130&Type=search", "url2": null }, "geometry": { "type": "Point", "coordinates": [ 139.3313344, 37.9619294 ] } },
{ "type": "Feature", "properties": { "内容": "訪問看護ステーション新発田【訪問看護】新潟県新発田市大栄町7丁目6－9", "url": "https://www.kaigokensaku.mhlw.go.jp/15/index.php?action_kouhyou_detail_004_kani=true&JigyosyoCd=1560690107-00&ServiceCd=130&Type=search", "url2": "https://cocokihana.com/" }, "geometry": { "type": "Point", "coordinates": [ 139.326386797445224, 37.943921343856758 ] } },
{ "type": "Feature", "properties": { "内容": "小千谷訪問看護ステーションひまわり【訪問看護】新潟県小千谷市大字平沢新田111番地小千谷総合病院", "url": "https://www.kaigokensaku.mhlw.go.jp/15/index.php?action_kouhyou_detail_004_kani=true&JigyosyoCd=1560890020-00&ServiceCd=130&Type=search", "url2": null }, "geometry": { "type": "Point", "coordinates": [ 138.792948792625083, 37.321487810667101 ] } },
{ "type": "Feature", "properties": { "内容": "訪問看護おはぎ【訪問看護】新潟県加茂市神明町2丁目7番2号", "url": "https://www.kaigokensaku.mhlw.go.jp/15/index.php?action_kouhyou_detail_004_kani=true&JigyosyoCd=1560990028-00&ServiceCd=130&Type=search", "url2": "https://ohagi-reboot.com/" }, "geometry": { "type": "Point", "coordinates": [ 139.058971500000013, 37.6633341 ] } },
{ "type": "Feature", "properties": { "内容": "新潟県立松代病院【訪問看護】十日町市松代3592番地2", "url": "https://www.kaigokensaku.mhlw.go.jp/15/index.php?action_kouhyou_detail_004_kani=true&JigyosyoCd=1511010579-00&ServiceCd=130&Type=search", "url2": "http://www.matsudai-hp.server-shared.com/" }, "geometry": { "type": "Point", "coordinates": [ 138.614831908598262, 37.135064515023736 ] } },
{ "type": "Feature", "properties": { "内容": "あい訪問看護ステーション【訪問看護】新潟県十日町市千代田町１番地６古田島ビル３階", "url": "https://www.kaigokensaku.mhlw.go.jp/15/index.php?action_kouhyou_detail_004_kani=true&JigyosyoCd=1561090083-00&ServiceCd=130&Type=search", "url2": null }, "geometry": { "type": "Point", "coordinates": [ 138.7532251, 37.1352106 ] } },
{ "type": "Feature", "properties": { "内容": "訪問看護ステーションリーフ【訪問看護】新潟県十日町市住吉町１０９番地", "url": "https://www.kaigokensaku.mhlw.go.jp/15/index.php?action_kouhyou_detail_004_kani=true&JigyosyoCd=1561090091-00&ServiceCd=130&Type=search", "url2": "https://vnsleaf.org/" }, "geometry": { "type": "Point", "coordinates": [ 138.74985841194723, 37.134449407436165 ] } },
{ "type": "Feature", "properties": { "内容": "十日町市訪問看護ステーション　おむすび【訪問看護】新潟県十日町市高田町3丁目南４４２番地医療福祉総合センター", "url": "https://www.kaigokensaku.mhlw.go.jp/15/index.php?action_kouhyou_detail_004_kani=true&JigyosyoCd=1561090109-00&ServiceCd=130&Type=search", "url2": "https://www.city.tokamachi.lg.jp/soshiki/shiminfukushibu/tiikikeasuishinka/2/gyomu/5817.html" }, "geometry": { "type": "Point", "coordinates": [ 138.7518278, 37.1317682 ] } },
{ "type": "Feature", "properties": { "内容": "訪問看護ステーション春日和見附【訪問看護】新潟県見附市本町4丁目2番33号", "url": "https://www.kaigokensaku.mhlw.go.jp/15/index.php?action_kouhyou_detail_004_kani=true&JigyosyoCd=1561190040-00&ServiceCd=130&Type=search", "url2": null }, "geometry": { "type": "Point", "coordinates": [ 138.925123719167829, 37.529923078087513 ] } },
{ "type": "Feature", "properties": { "内容": "ふるまい訪問看護リハビリステーション【訪問看護】新潟県見附市本所1丁目25番52号", "url": "https://www.kaigokensaku.mhlw.go.jp/15/index.php?action_kouhyou_detail_004_kani=true&JigyosyoCd=1561190024-00&ServiceCd=130&Type=search", "url2": "https://www.hurumai.com" }, "geometry": { "type": "Point", "coordinates": [ 138.914656320901486, 37.538605258134922 ] } },
{ "type": "Feature", "properties": { "内容": "公益社団法人新潟県看護協会訪問看護ステーションみつけ【訪問看護】新潟県見附市学校町１丁目５－４２", "url": "https://www.kaigokensaku.mhlw.go.jp/15/index.php?action_kouhyou_detail_004_kani=true&JigyosyoCd=1561190016-00&ServiceCd=130&Type=search", "url2": "http://www.niigata-kango.com/" }, "geometry": { "type": "Point", "coordinates": [ 138.9205849, 37.5324403 ] } },
{ "type": "Feature", "properties": { "内容": "村上市岩船郡医師会　訪問看護ステーションふる里【訪問看護】村上市若葉町10番7号", "url": "https://www.kaigokensaku.mhlw.go.jp/15/index.php?action_kouhyou_detail_004_kani=true&JigyosyoCd=1561290014-00&ServiceCd=130&Type=search", "url2": "http://www.mura-furusato.sakura.ne.jp/" }, "geometry": { "type": "Point", "coordinates": [ 139.4693939, 38.2271921 ] } },
{ "type": "Feature", "properties": { "内容": "山北徳新会病院【訪問看護】新潟県村上市勝木1340-1", "url": "https://www.kaigokensaku.mhlw.go.jp/15/index.php?action_kouhyou_detail_004_kani=true&JigyosyoCd=1511210971-00&ServiceCd=130&Type=search", "url2": "https://sanpoku-hp.or.jp/" }, "geometry": { "type": "Point", "coordinates": [ 139.516442899999987, 38.4905512 ] } },
{ "type": "Feature", "properties": { "内容": "訪問看護ステーションむらかみ【訪問看護】村上市緑町五丁目８番１号", "url": "https://www.kaigokensaku.mhlw.go.jp/15/index.php?action_kouhyou_detail_004_kani=true&JigyosyoCd=1561290022-00&ServiceCd=130&Type=search", "url2": "http://www.mgh.jp" }, "geometry": { "type": "Point", "coordinates": [ 139.461510364418018, 38.218655286704831 ] } },
{ "type": "Feature", "properties": { "内容": "訪問看護ステーションかけはし【訪問看護】新潟県村上市緑町1丁目10-19-5", "url": "https://www.kaigokensaku.mhlw.go.jp/15/index.php?action_kouhyou_detail_004_kani=true&JigyosyoCd=1561290030-00&ServiceCd=130&Type=search", "url2": "https://houmon-kakehasi.com" }, "geometry": { "type": "Point", "coordinates": [ 139.458133973818974, 38.224478302909731 ] } },
{ "type": "Feature", "properties": { "内容": "村上ナーシングセンター【訪問看護】新潟県村上市山居町１丁目４番２９号TMビル3階", "url": "https://www.kaigokensaku.mhlw.go.jp/15/index.php?action_kouhyou_detail_004_kani=true&JigyosyoCd=1561290055-00&ServiceCd=130&Type=search", "url2": "https://www.aiko.or.jp/" }, "geometry": { "type": "Point", "coordinates": [ 139.4687104, 38.2152558 ] } },
{ "type": "Feature", "properties": { "内容": "ゆっくり訪問看護ステーション【訪問看護】新潟県村上市松山201-1看護小規模多機能型居宅介護事業所ゆっくり・サービス付き高齢者住宅ラシュレ", "url": "https://www.kaigokensaku.mhlw.go.jp/15/index.php?action_kouhyou_detail_004_kani=true&JigyosyoCd=1561290048-00&ServiceCd=130&Type=search", "url2": "http://www.shinkohkai.jp" }, "geometry": { "type": "Point", "coordinates": [ 139.4568534, 38.217219 ] } },
{ "type": "Feature", "properties": { "内容": "在宅看護センターゆるハピ【訪問看護】新潟県村上市山居町1－15－17ラメール俱楽部駅前D", "url": "https://www.kaigokensaku.mhlw.go.jp/15/index.php?action_kouhyou_detail_004_kani=true&JigyosyoCd=1561290063-00&ServiceCd=130&Type=search", "url2": "https://sites.google.com/yuru-happy.com/yuru-happy" }, "geometry": { "type": "Point", "coordinates": [ 139.4655744, 38.2176218 ] } },
{ "type": "Feature", "properties": { "内容": "訪問看護リハビリステーション吉田病院ナーシングセンター【訪問看護】新潟県燕市吉田大保町32番14号新潟県立吉田病院", "url": "https://www.kaigokensaku.mhlw.go.jp/15/index.php?action_kouhyou_detail_004_kani=true&JigyosyoCd=1561390087-00&ServiceCd=130&Type=search", "url2": "https://yoshida-hp.jp" }, "geometry": { "type": "Point", "coordinates": [ 138.8849073, 37.6871896 ] } },
{ "type": "Feature", "properties": { "内容": "careyouth訪問看護リハビリステーション【訪問看護】新潟県燕市白山町１丁目1番23号", "url": "https://www.kaigokensaku.mhlw.go.jp/15/index.php?action_kouhyou_detail_004_kani=true&JigyosyoCd=1561390095-00&ServiceCd=130&Type=search", "url2": "https://careyouth.jp" }, "geometry": { "type": "Point", "coordinates": [ 138.920486308598328, 37.665851483062333 ] } },
{ "type": "Feature", "properties": { "内容": "「楽楽」訪問看護ステーション【訪問看護】新潟県燕市大曲３００２番地", "url": "https://www.kaigokensaku.mhlw.go.jp/15/index.php?action_kouhyou_detail_004_kani=true&JigyosyoCd=1561390012-00&ServiceCd=130&Type=search", "url2": null }, "geometry": { "type": "Point", "coordinates": [ 138.918426274482755, 37.648893072048033 ] } },
{ "type": "Feature", "properties": { "内容": "ぶんすい訪問看護ステーション【訪問看護】新潟県燕市笈ヶ島104-5介護老人保健施設ぶんすい", "url": "https://www.kaigokensaku.mhlw.go.jp/15/index.php?action_kouhyou_detail_004_kani=true&JigyosyoCd=1561390020-00&ServiceCd=130&Type=search", "url2": "https://www.roukenbunsui.jp" }, "geometry": { "type": "Point", "coordinates": [ 138.847096299999947, 37.6197971 ] } },
{ "type": "Feature", "properties": { "内容": "富永草野訪問看護ステーション【訪問看護】新潟県燕市富永216番地1", "url": "https://www.kaigokensaku.mhlw.go.jp/15/index.php?action_kouhyou_detail_004_kani=true&JigyosyoCd=1561390046-00&ServiceCd=130&Type=search", "url2": "https://www.shihatsudo.or.jp" }, "geometry": { "type": "Point", "coordinates": [ 138.889683600000012, 37.6959077 ] } },
{ "type": "Feature", "properties": { "内容": "訪問看護ステーション・桜井【訪問看護】新潟県燕市新堀1138番地1分水健康福祉プラザ", "url": "https://www.kaigokensaku.mhlw.go.jp/15/index.php?action_kouhyou_detail_004_kani=true&JigyosyoCd=1561390061-00&ServiceCd=130&Type=search", "url2": "http://www.sakurai-fukushi.or.jp/bunsuigaiyou.html" }, "geometry": { "type": "Point", "coordinates": [ 138.837155, 37.6380529 ] } },
{ "type": "Feature", "properties": { "内容": "吉田訪問看護ステーション【訪問看護】新潟県燕市吉田大保町25番15号ひまわりの園相談センター", "url": "https://www.kaigokensaku.mhlw.go.jp/15/index.php?action_kouhyou_detail_004_kani=true&JigyosyoCd=1561390004-00&ServiceCd=130&Type=search", "url2": "http://yoshihuku.com/" }, "geometry": { "type": "Point", "coordinates": [ 138.883412300000032, 37.6890361 ] } },
{ "type": "Feature", "properties": { "内容": "訪問看護ステーション　つむぎ【訪問看護】新潟県糸魚川市横町4-2-11", "url": "https://www.kaigokensaku.mhlw.go.jp/15/index.php?action_kouhyou_detail_004_kani=true&JigyosyoCd=1561590041-00&ServiceCd=130&Type=search", "url2": "https://enishi-ito.com/" }, "geometry": { "type": "Point", "coordinates": [ 137.84999504722137, 37.040848274284784 ] } },
{ "type": "Feature", "properties": { "内容": "訪問看護ステーションいといがわ【訪問看護】糸魚川市竹ヶ花４５７番地１", "url": "https://www.kaigokensaku.mhlw.go.jp/15/index.php?action_kouhyou_detail_004_kani=true&JigyosyoCd=1561590017-00&ServiceCd=130&Type=search", "url2": "https://www.itoigawa-hp.jp/" }, "geometry": { "type": "Point", "coordinates": [ 137.888402, 37.0489106 ] } },
{ "type": "Feature", "properties": { "内容": "訪問看護フラワー【訪問看護】新潟県糸魚川市須沢２９７０レオネクストブルーオーシャン102号室", "url": "https://www.kaigokensaku.mhlw.go.jp/15/index.php?action_kouhyou_detail_004_kani=true&JigyosyoCd=1561590066-00&ServiceCd=130&Type=search", "url2": null }, "geometry": { "type": "Point", "coordinates": [ 137.83278488841782, 37.033853129561891 ] } },
{ "type": "Feature", "properties": { "内容": "訪問看護ステ－ションけいなん【訪問看護】新潟県妙高市田町2-4-7", "url": "https://www.kaigokensaku.mhlw.go.jp/15/index.php?action_kouhyou_detail_004_kani=true&JigyosyoCd=1561690015-00&ServiceCd=130&Type=search", "url2": "http://www.keinansogo.jp" }, "geometry": { "type": "Point", "coordinates": [ 138.2522841, 37.0213689 ] } },
{ "type": "Feature", "properties": { "内容": "訪問看護ステーションクオレ【訪問看護】妙高市石塚町１丁目１４番８号", "url": "https://www.kaigokensaku.mhlw.go.jp/15/index.php?action_kouhyou_detail_004_kani=true&JigyosyoCd=1561690023-00&ServiceCd=130&Type=search", "url2": null }, "geometry": { "type": "Point", "coordinates": [ 138.25090339999997, 37.0333008 ] } },
{ "type": "Feature", "properties": { "内容": "五泉訪問看護ステーション【訪問看護】新潟県五泉市太田489番地１", "url": "https://www.kaigokensaku.mhlw.go.jp/15/index.php?action_kouhyou_detail_004_kani=true&JigyosyoCd=1561790013-00&ServiceCd=130&Type=search", "url2": "http://www.sinjinkai.or.jp/gamma/station/index.htm" }, "geometry": { "type": "Point", "coordinates": [ 139.183591511962021, 37.745549743451562 ] } },
{ "type": "Feature", "properties": { "内容": "みらいともす訪問看護ステーション【訪問看護】新潟県五泉市村松乙２５９－３", "url": "https://www.kaigokensaku.mhlw.go.jp/15/index.php?action_kouhyou_detail_004_kani=true&JigyosyoCd=1561790021-00&ServiceCd=130&Type=search", "url2": "http://www.miraitomosu1122.com" }, "geometry": { "type": "Point", "coordinates": [ 139.175486662565618, 37.692834112250097 ] } },
{ "type": "Feature", "properties": { "内容": "新潟県立柿崎病院【訪問看護】新潟県上越市柿崎区柿崎６４１２－１", "url": "https://www.kaigokensaku.mhlw.go.jp/15/index.php?action_kouhyou_detail_004_kani=true&JigyosyoCd=1510312505-00&ServiceCd=130&Type=search", "url2": "http://kakizaki-hp.niigata.jp" }, "geometry": { "type": "Point", "coordinates": [ 138.393330318524107, 37.277846566779587 ] } },
{ "type": "Feature", "properties": { "内容": "訪問看護ステーション　みのり【訪問看護】新潟県上越市大字春日山町1丁目5番5号", "url": "https://www.kaigokensaku.mhlw.go.jp/15/index.php?action_kouhyou_detail_004_kani=true&JigyosyoCd=1560390104-00&ServiceCd=130&Type=search", "url2": "http://minori.life/" }, "geometry": { "type": "Point", "coordinates": [ 138.222224243510112, 37.143942208969079 ] } },
{ "type": "Feature", "properties": { "内容": "訪問看護ステーション癒しの家【訪問看護】新潟県上越市清里区岡野町761", "url": "https://www.kaigokensaku.mhlw.go.jp/15/index.php?action_kouhyou_detail_004_kani=true&JigyosyoCd=1560390146-00&ServiceCd=130&Type=search", "url2": "http://www.gh-iyashinoie.com" }, "geometry": { "type": "Point", "coordinates": [ 138.331932, 37.0825697 ] } },
{ "type": "Feature", "properties": { "内容": "知命堂病院訪問看護ステーション【訪問看護】新潟県上越市西城町3丁目6番31号", "url": "https://www.kaigokensaku.mhlw.go.jp/15/index.php?action_kouhyou_detail_004_kani=true&JigyosyoCd=1560390039-00&ServiceCd=130&Type=search", "url2": "http://www.chimeido.jp" }, "geometry": { "type": "Point", "coordinates": [ 138.248155399999973, 37.1150858 ] } },
{ "type": "Feature", "properties": { "内容": "訪問看護ステーションテンダー上越【訪問看護】新潟県上越市大道福田560番地", "url": "https://www.kaigokensaku.mhlw.go.jp/15/index.php?action_kouhyou_detail_004_kani=true&JigyosyoCd=1560390062-00&ServiceCd=130&Type=search", "url2": "http://joetsu-hp.jp/" }, "geometry": { "type": "Point", "coordinates": [ 138.249564292241985, 37.147045683868335 ] } },
{ "type": "Feature", "properties": { "内容": "訪問看護ステーションココロ上越高田駅前【訪問看護】新潟県上越市本町6丁目1-19千代田生命ビル", "url": "https://www.kaigokensaku.mhlw.go.jp/15/index.php?action_kouhyou_detail_004_kani=true&JigyosyoCd=1560390138-00&ServiceCd=130&Type=search", "url2": "https://houmonkango-kokoro.com/" }, "geometry": { "type": "Point", "coordinates": [ 138.24505224721554, 37.116222853313438 ] } },
{ "type": "Feature", "properties": { "内容": "医心館訪問看護ステーション上越Ⅱ【訪問看護】新潟県上越市上源入646番2", "url": "https://www.kaigokensaku.mhlw.go.jp/15/index.php?action_kouhyou_detail_004_kani=true&JigyosyoCd=1560390237-00&ServiceCd=130&Type=search", "url2": null }, "geometry": { "type": "Point", "coordinates": [ 138.25638570000001, 37.1594093 ] } },
{ "type": "Feature", "properties": { "内容": "訪問看護だいにち【訪問看護】新潟県上越市大字大日34番地5", "url": "https://www.kaigokensaku.mhlw.go.jp/15/index.php?action_kouhyou_detail_004_kani=true&JigyosyoCd=1560390005-00&ServiceCd=130&Type=search", "url2": "http://www.riborn.co.jp" }, "geometry": { "type": "Point", "coordinates": [ 138.264577799999984, 37.1322755 ] } },
{ "type": "Feature", "properties": { "内容": "医心館訪問看護ステーション上越【訪問看護】新潟県上越市下門前1698番", "url": "https://www.kaigokensaku.mhlw.go.jp/15/index.php?action_kouhyou_detail_004_kani=true&JigyosyoCd=1560390187-00&ServiceCd=130&Type=search", "url2": null }, "geometry": { "type": "Point", "coordinates": [ 138.257735494753206, 37.155126855134235 ] } },
{ "type": "Feature", "properties": { "内容": "ふもと訪問看護ステーション【訪問看護】上越市中央1-23-26", "url": "https://www.kaigokensaku.mhlw.go.jp/15/index.php?action_kouhyou_detail_004_kani=true&JigyosyoCd=1560390047-00&ServiceCd=130&Type=search", "url2": "http://www.fumotokai-hp.com/" }, "geometry": { "type": "Point", "coordinates": [ 138.2460059, 37.1743699 ] } },
{ "type": "Feature", "properties": { "内容": "センター病院訪問看護ステーション【訪問看護】新潟県上越市南高田町6番9号", "url": "https://www.kaigokensaku.mhlw.go.jp/15/index.php?action_kouhyou_detail_004_kani=true&JigyosyoCd=1560390088-00&ServiceCd=130&Type=search", "url2": "http://www.j-icen.or.jp/" }, "geometry": { "type": "Point", "coordinates": [ 138.246562, 37.0957384 ] } },
{ "type": "Feature", "properties": { "内容": "さくらメディカル訪問看護ステーション高田【訪問看護】新潟県上越市鴨島2-1-9", "url": "https://www.kaigokensaku.mhlw.go.jp/15/index.php?action_kouhyou_detail_004_kani=true&JigyosyoCd=1560390112-00&ServiceCd=130&Type=search", "url2": "http://www.sakura-medical.com/" }, "geometry": { "type": "Point", "coordinates": [ 138.269589600000018, 37.111250700000049 ] } },
{ "type": "Feature", "properties": { "内容": "訪問看護ステーション　キャッスル高田【訪問看護】新潟県上越市西城町2丁目8番30号", "url": "https://www.kaigokensaku.mhlw.go.jp/15/index.php?action_kouhyou_detail_004_kani=true&JigyosyoCd=1560390120-00&ServiceCd=130&Type=search", "url2": "http://www.nishishiro-hp.or.jp" }, "geometry": { "type": "Point", "coordinates": [ 138.251124800000071, 37.1109505 ] } },
{ "type": "Feature", "properties": { "内容": "訪問看護かえりえ上越【訪問看護】新潟県上越市春日野1丁目4番39号", "url": "https://www.kaigokensaku.mhlw.go.jp/15/index.php?action_kouhyou_detail_004_kani=true&JigyosyoCd=1560390179-00&ServiceCd=130&Type=search", "url2": "https://search.yasashiite.com/detail/homonkango_joetsu/" }, "geometry": { "type": "Point", "coordinates": [ 138.229494437434397, 37.148358830892562 ] } },
{ "type": "Feature", "properties": { "内容": "訪問看護ステーションひまわり【訪問看護】新潟県上越市木田1丁目13番16号シャルムハウス1階", "url": "https://www.kaigokensaku.mhlw.go.jp/15/index.php?action_kouhyou_detail_004_kani=true&JigyosyoCd=1560390195-00&ServiceCd=130&Type=search", "url2": "https://www.hvn-himawari.com/" }, "geometry": { "type": "Point", "coordinates": [ 138.236673700000011, 37.1430528 ] } },
{ "type": "Feature", "properties": { "内容": "訪問看護ステーション虹【訪問看護】新潟県上越市子安1199番地", "url": "https://www.kaigokensaku.mhlw.go.jp/15/index.php?action_kouhyou_detail_004_kani=true&JigyosyoCd=1560390211-00&ServiceCd=130&Type=search", "url2": "https://hmk-houmonkangoniji.co.jp/" }, "geometry": { "type": "Point", "coordinates": [ 138.2747856, 37.1088225 ] } },
{ "type": "Feature", "properties": { "内容": "ツクイ新潟訪問看護ステーション【訪問看護】新潟県上越市西城町3丁目5-24上越大同生命ビル602号室", "url": "https://www.kaigokensaku.mhlw.go.jp/15/index.php?action_kouhyou_detail_004_kani=true&JigyosyoCd=1560390229-00&ServiceCd=130&Type=search", "url2": "https://www.tsukui.net/home-care/5067/" }, "geometry": { "type": "Point", "coordinates": [ 138.2491205, 37.1147117 ] } },
{ "type": "Feature", "properties": { "内容": "アクア上越中田原訪問看護【訪問看護】新潟県上越市中田原122-1", "url": "https://www.kaigokensaku.mhlw.go.jp/15/index.php?action_kouhyou_detail_004_kani=true&JigyosyoCd=1560390245-00&ServiceCd=130&Type=search", "url2": null }, "geometry": { "type": "Point", "coordinates": [ 138.238361717491784, 37.096072198485309 ] } },
{ "type": "Feature", "properties": { "内容": "訪問看護ステーションきずな【訪問看護】新潟県上越市木田3-8-44", "url": "https://www.kaigokensaku.mhlw.go.jp/15/index.php?action_kouhyou_detail_004_kani=true&JigyosyoCd=1560390070-00&ServiceCd=130&Type=search", "url2": "http://www.kizuna-i.com" }, "geometry": { "type": "Point", "coordinates": [ 138.242547942820806, 37.139536148068686 ] } },
{ "type": "Feature", "properties": { "内容": "訪問看護ステーションふくいく【訪問看護】新潟県阿賀野市里８８３", "url": "https://www.kaigokensaku.mhlw.go.jp/15/index.php?action_kouhyou_detail_004_kani=true&JigyosyoCd=1562190031-00&ServiceCd=130&Type=search", "url2": "https://www.fukuiku.co.jp/" }, "geometry": { "type": "Point", "coordinates": [ 139.242365, 37.82108 ] } },
{ "type": "Feature", "properties": { "内容": "あがの市民病院　訪問看護ステーション【訪問看護】新潟県阿賀野市岡山町１３－２３", "url": "https://www.kaigokensaku.mhlw.go.jp/15/index.php?action_kouhyou_detail_004_kani=true&JigyosyoCd=1562190015-00&ServiceCd=130&Type=search", "url2": null }, "geometry": { "type": "Point", "coordinates": [ 139.2216168, 37.8336511 ] } },
{ "type": "Feature", "properties": { "内容": "さど訪問看護ステーション【訪問看護】新潟県佐渡市千種145番地1佐渡調剤薬局ビル２階", "url": "https://www.kaigokensaku.mhlw.go.jp/15/index.php?action_kouhyou_detail_004_kani=true&JigyosyoCd=1562290013-00&ServiceCd=130&Type=search", "url2": null }, "geometry": { "type": "Point", "coordinates": [ 138.366454400000066, 38.0195662 ] } },
{ "type": "Feature", "properties": { "内容": "どんぐり訪問看護ステーション【訪問看護】新潟県佐渡市真野新町448", "url": "https://www.kaigokensaku.mhlw.go.jp/15/index.php?action_kouhyou_detail_004_kani=true&JigyosyoCd=1562290054-00&ServiceCd=130&Type=search", "url2": null }, "geometry": { "type": "Point", "coordinates": [ 138.344342899999987, 37.9633209 ] } },
{ "type": "Feature", "properties": { "内容": "訪問看護ステーション春日和小出【訪問看護】新潟県魚沼市諏訪町1-12MeCS上村ビル", "url": "https://www.kaigokensaku.mhlw.go.jp/15/index.php?action_kouhyou_detail_004_kani=true&JigyosyoCd=1562390060-00&ServiceCd=130&Type=search", "url2": "http://www.worldstay.jp" }, "geometry": { "type": "Point", "coordinates": [ 138.960014400000034, 37.232459400000046 ] } },
{ "type": "Feature", "properties": { "内容": "訪問看護ステーションこいで【訪問看護】新潟県魚沼市原虫野４３３番地３", "url": "https://www.kaigokensaku.mhlw.go.jp/15/index.php?action_kouhyou_detail_004_kani=true&JigyosyoCd=1562390011-00&ServiceCd=130&Type=search", "url2": "http://www.uonokai.or.jp/" }, "geometry": { "type": "Point", "coordinates": [ 138.963511899999958, 37.2139553 ] } },
{ "type": "Feature", "properties": { "内容": "小出病院訪問看護・リハビリステーション　さくら【訪問看護】新潟県魚沼市日渡新田34番地魚沼市立小出病院", "url": "https://www.kaigokensaku.mhlw.go.jp/15/index.php?action_kouhyou_detail_004_kani=true&JigyosyoCd=1562390052-00&ServiceCd=130&Type=search", "url2": "https://www.uonuma-medical.jp" }, "geometry": { "type": "Point", "coordinates": [ 138.959254299999969, 37.2370953 ] } },
{ "type": "Feature", "properties": { "内容": "南魚沼市訪問看護ステーション【訪問看護】新潟県南魚沼市東泉田８９８番地1", "url": "https://www.kaigokensaku.mhlw.go.jp/15/index.php?action_kouhyou_detail_004_kani=true&JigyosyoCd=1562490027-00&ServiceCd=130&Type=search", "url2": "http://www.minamiuonumahp.jp" }, "geometry": { "type": "Point", "coordinates": [ 138.876666762468574, 37.052736388648526 ] } },
{ "type": "Feature", "properties": { "内容": "訪問看護ステーションライフィニティ石打【訪問看護】新潟県南魚沼市上一日市９４番地", "url": "https://www.kaigokensaku.mhlw.go.jp/15/index.php?action_kouhyou_detail_004_kani=true&JigyosyoCd=1562490050-00&ServiceCd=130&Type=search", "url2": "https://lifinity.jp/ishiuchi/" }, "geometry": { "type": "Point", "coordinates": [ 138.813120086031148, 36.995473293665576 ] } },
{ "type": "Feature", "properties": { "内容": "ゆきぐに大和訪問看護ステーション【訪問看護】新潟県南魚沼市浦佐4115番地", "url": "https://www.kaigokensaku.mhlw.go.jp/15/index.php?action_kouhyou_detail_004_kani=true&JigyosyoCd=1562490068-00&ServiceCd=130&Type=search", "url2": "https://www.yukigunihp.jp/" }, "geometry": { "type": "Point", "coordinates": [ 138.9373708, 37.1711928 ] } },
{ "type": "Feature", "properties": { "内容": "訪問看護ステーション中条愛広苑【訪問看護】新潟県胎内市西本町12番1号（中条中央病院内）", "url": "https://www.kaigokensaku.mhlw.go.jp/15/index.php?action_kouhyou_detail_004_kani=true&JigyosyoCd=1562590016-00&ServiceCd=130&Type=search", "url2": "http://www.aiko.or.jp" }, "geometry": { "type": "Point", "coordinates": [ 139.395198599999986, 38.0519572 ] } },
{ "type": "Feature", "properties": { "内容": "訪問看護ステーションラポ【訪問看護】新潟県胎内市野中490-3シンワヒルズA", "url": "https://www.kaigokensaku.mhlw.go.jp/15/index.php?action_kouhyou_detail_004_kani=true&JigyosyoCd=1562590024-00&ServiceCd=130&Type=search", "url2": "https://keanasrapo.com/" }, "geometry": { "type": "Point", "coordinates": [ 139.412439899999981, 38.0601275 ] } },
{ "type": "Feature", "properties": { "内容": "田上町訪問看護ステーション【訪問看護】南蒲原郡田上町大字原ヶ崎新田3071番地", "url": "https://www.kaigokensaku.mhlw.go.jp/15/index.php?action_kouhyou_detail_004_kani=true&JigyosyoCd=1565390018-00&ServiceCd=130&Type=search", "url2": "https://www.town.tagami.niigata.jp/kenkou/homonkango/" }, "geometry": { "type": "Point", "coordinates": [ 139.057651399999941, 37.6982541 ] } },
{ "type": "Feature", "properties": { "内容": "新潟県立津川病院【訪問看護】新潟県東蒲原郡阿賀町津川200番地", "url": "https://www.kaigokensaku.mhlw.go.jp/15/index.php?action_kouhyou_detail_004_kani=true&JigyosyoCd=1515410130-00&ServiceCd=130&Type=search", "url2": "http://tsugawa-hospital.sakura.ne.jp/" }, "geometry": { "type": "Point", "coordinates": [ 139.462843199999952, 37.6788794 ] } },
{ "type": "Feature", "properties": { "内容": "阿賀町訪問看護ステーション【訪問看護】新潟県東蒲原郡阿賀町向鹿瀬1154番地", "url": "https://www.kaigokensaku.mhlw.go.jp/15/index.php?action_kouhyou_detail_004_kani=true&JigyosyoCd=1565490008-00&ServiceCd=130&Type=search", "url2": null }, "geometry": { "type": "Point", "coordinates": [ 139.483865899999955, 37.6979833 ] } }
]
}
