{
"type": "FeatureCollection",
"name": "geo_15_訪問リハビリテーション",
"crs": { "type": "name", "properties": { "name": "urn:ogc:def:crs:OGC:1.3:CRS84" } },
"features": [
{ "type": "Feature", "properties": { "内容": "訪問リハビリテーション江風苑【訪問リハビリテーション】新潟県新潟市北区大迎1330番地", "url": "https://www.kaigokensaku.mhlw.go.jp/15/index.php?action_kouhyou_detail_004_kani=true&JigyosyoCd=1570113413-00&ServiceCd=140&Type=search", "url2": "https://www.rehabilicenter100.jp" }, "geometry": { "type": "Point", "coordinates": [ 139.172361200000068, 37.8840024 ] } },
{ "type": "Feature", "properties": { "内容": "新潟リハビリテーション病院　訪問リハビリきざき【訪問リハビリテーション】新潟県新潟市北区木崎761番地新潟リハビリテーション病院二階", "url": "https://www.kaigokensaku.mhlw.go.jp/15/index.php?action_kouhyou_detail_004_kani=true&JigyosyoCd=1510122581-00&ServiceCd=140&Type=search", "url2": "http://www.niigata-reha.jp" }, "geometry": { "type": "Point", "coordinates": [ 139.17281730000002, 37.9313189 ] } },
{ "type": "Feature", "properties": { "内容": "新潟臨港病院【訪問リハビリテーション】新潟県新潟市東区桃山町1丁目114番地3", "url": "https://www.kaigokensaku.mhlw.go.jp/15/index.php?action_kouhyou_detail_004_kani=true&JigyosyoCd=1510121518-00&ServiceCd=140&Type=search", "url2": "https://ngt-rinkohc.jp/rinko/" }, "geometry": { "type": "Point", "coordinates": [ 139.0763201, 37.9456969 ] } },
{ "type": "Feature", "properties": { "内容": "桑名病院【訪問リハビリテーション】新潟県新潟市東区河渡甲140番地", "url": "https://www.kaigokensaku.mhlw.go.jp/15/index.php?action_kouhyou_detail_004_kani=true&JigyosyoCd=1570106573-00&ServiceCd=140&Type=search", "url2": "http://www.ngt-kuwana.or.jp/?page_id=44" }, "geometry": { "type": "Point", "coordinates": [ 139.100814200000059, 37.9489804 ] } },
{ "type": "Feature", "properties": { "内容": "新潟医療生活協同組合木戸病院【訪問リハビリテーション】新潟県新潟市東区竹尾４丁目１３番３号", "url": "https://www.kaigokensaku.mhlw.go.jp/15/index.php?action_kouhyou_detail_004_kani=true&JigyosyoCd=1510125642-00&ServiceCd=140&Type=search", "url2": "http://kido.iryo-coop.com/" }, "geometry": { "type": "Point", "coordinates": [ 139.099175880950952, 37.915646011701853 ] } },
{ "type": "Feature", "properties": { "内容": "新潟南病院【訪問リハビリテーション】新潟県新潟市中央区鳥屋野2007番地6", "url": "https://www.kaigokensaku.mhlw.go.jp/15/index.php?action_kouhyou_detail_004_kani=true&JigyosyoCd=1510127002-00&ServiceCd=140&Type=search", "url2": "http://www.niigataminami-hp.com/" }, "geometry": { "type": "Point", "coordinates": [ 139.03249438788842, 37.883627061545475 ] } },
{ "type": "Feature", "properties": { "内容": "介護老人保健施設　千歳園【訪問リハビリテーション】新潟県新潟市中央区新光町1番地33", "url": "https://www.kaigokensaku.mhlw.go.jp/15/index.php?action_kouhyou_detail_004_kani=true&JigyosyoCd=1570110559-00&ServiceCd=140&Type=search", "url2": "http://www.nice-hp.or.jp/chitose/" }, "geometry": { "type": "Point", "coordinates": [ 139.024983300000031, 37.9047377 ] } },
{ "type": "Feature", "properties": { "内容": "総合リハビリテーションセンター・みどり病院【訪問リハビリテーション】新潟県新潟市中央区神道寺2-5-1", "url": "https://www.kaigokensaku.mhlw.go.jp/15/index.php?action_kouhyou_detail_004_kani=true&JigyosyoCd=1510121237-00&ServiceCd=140&Type=search", "url2": "http://www.midori-gr.jp" }, "geometry": { "type": "Point", "coordinates": [ 139.055042023942633, 37.896770410125846 ] } },
{ "type": "Feature", "properties": { "内容": "押木内科神経内科医院【訪問リハビリテーション】新潟県新潟市江南区亀田本町4-3-4", "url": "https://www.kaigokensaku.mhlw.go.jp/15/index.php?action_kouhyou_detail_004_kani=true&JigyosyoCd=1570106656-00&ServiceCd=140&Type=search", "url2": "http://www.oshiki-clinic.com" }, "geometry": { "type": "Point", "coordinates": [ 139.108137199999987, 37.8673359 ] } },
{ "type": "Feature", "properties": { "内容": "ゆきよしクリニック【訪問リハビリテーション】新潟県新潟市江南区稲葉１－４－３", "url": "https://www.kaigokensaku.mhlw.go.jp/15/index.php?action_kouhyou_detail_004_kani=true&JigyosyoCd=1510123001-00&ServiceCd=140&Type=search", "url2": "https://www.rnhj.jp/yukiyoshi/" }, "geometry": { "type": "Point", "coordinates": [ 139.114305599999966, 37.8758297 ] } },
{ "type": "Feature", "properties": { "内容": "新津医療センター病院【訪問リハビリテーション】新潟県新潟市秋葉区古田610番地", "url": "https://www.kaigokensaku.mhlw.go.jp/15/index.php?action_kouhyou_detail_004_kani=true&JigyosyoCd=1510122094-00&ServiceCd=140&Type=search", "url2": "https://www.niitsu-mch.jp" }, "geometry": { "type": "Point", "coordinates": [ 139.1023869, 37.7908137 ] } },
{ "type": "Feature", "properties": { "内容": "下越病院【訪問リハビリテーション】新潟県新潟市秋葉区東金沢1459番地１", "url": "https://www.kaigokensaku.mhlw.go.jp/15/index.php?action_kouhyou_detail_004_kani=true&JigyosyoCd=1510125865-00&ServiceCd=140&Type=search", "url2": "http://niigata-min.or.jp/kaetsu/" }, "geometry": { "type": "Point", "coordinates": [ 139.145569068200643, 37.803506452511442 ] } },
{ "type": "Feature", "properties": { "内容": "聖園病院【訪問リハビリテーション】新潟県新潟市西区青山7-9-10", "url": "https://www.kaigokensaku.mhlw.go.jp/15/index.php?action_kouhyou_detail_004_kani=true&JigyosyoCd=1510117755-00&ServiceCd=140&Type=search", "url2": "https://www.misono-hp.or.jp" }, "geometry": { "type": "Point", "coordinates": [ 138.9921726, 37.8982152 ] } },
{ "type": "Feature", "properties": { "内容": "新潟県厚生農業協同組合連合会新潟医療センター【訪問リハビリテーション】新潟県新潟市西区小針3丁目27番11号新潟医療センター", "url": "https://www.kaigokensaku.mhlw.go.jp/15/index.php?action_kouhyou_detail_004_kani=true&JigyosyoCd=1510125162-00&ServiceCd=140&Type=search", "url2": "http://www.niigata-medical.jp/" }, "geometry": { "type": "Point", "coordinates": [ 138.998572444041429, 37.887605297951794 ] } },
{ "type": "Feature", "properties": { "内容": "おぐま整形外科クリニック【訪問リハビリテーション】新潟県新潟市西区小新5-8-9", "url": "https://www.kaigokensaku.mhlw.go.jp/15/index.php?action_kouhyou_detail_004_kani=true&JigyosyoCd=1510126590-00&ServiceCd=140&Type=search", "url2": "https://oguma-seikei.jp/" }, "geometry": { "type": "Point", "coordinates": [ 139.001981171163948, 37.881462936173186 ] } },
{ "type": "Feature", "properties": { "内容": "介護老人保健施設　いわむろの里【訪問リハビリテーション】新潟県新潟市西蒲区橋本97番地1", "url": "https://www.kaigokensaku.mhlw.go.jp/15/index.php?action_kouhyou_detail_004_kani=true&JigyosyoCd=1570114932-00&ServiceCd=140&Type=search", "url2": "http://www.niwell.or.jp" }, "geometry": { "type": "Point", "coordinates": [ 138.8401767, 37.7326018 ] } },
{ "type": "Feature", "properties": { "内容": "西蒲中央病院【訪問リハビリテーション】新潟県新潟市西蒲区旗屋731番地", "url": "https://www.kaigokensaku.mhlw.go.jp/15/index.php?action_kouhyou_detail_004_kani=true&JigyosyoCd=1510123316-00&ServiceCd=140&Type=search", "url2": "http://www.misatokai.or.jp/" }, "geometry": { "type": "Point", "coordinates": [ 138.924306200000046, 37.7910454 ] } },
{ "type": "Feature", "properties": { "内容": "長岡西病院【訪問リハビリテーション】新潟県長岡市三ツ郷屋町371番地1", "url": "https://www.kaigokensaku.mhlw.go.jp/15/index.php?action_kouhyou_detail_004_kani=true&JigyosyoCd=1510212267-00&ServiceCd=140&Type=search", "url2": "http://www.sutokukai.or.jp/nagaokanishi-hp" }, "geometry": { "type": "Point", "coordinates": [ 138.815543, 37.4501287 ] } },
{ "type": "Feature", "properties": { "内容": "ながおか医療生活協同組合　生協かんだ診療所【訪問リハビリテーション】新潟県長岡市西新町2-3-22", "url": "https://www.kaigokensaku.mhlw.go.jp/15/index.php?action_kouhyou_detail_004_kani=true&JigyosyoCd=1510213067-00&ServiceCd=140&Type=search", "url2": "http://www.nagaoka-iryou-seikyou.jp" }, "geometry": { "type": "Point", "coordinates": [ 138.855131799999981, 37.4655491 ] } },
{ "type": "Feature", "properties": { "内容": "ほんだファミリークリニック【訪問リハビリテーション】新潟県長岡市青葉台３丁目１６-６", "url": "https://www.kaigokensaku.mhlw.go.jp/15/index.php?action_kouhyou_detail_004_kani=true&JigyosyoCd=1510213356-00&ServiceCd=140&Type=search", "url2": null }, "geometry": { "type": "Point", "coordinates": [ 138.754613315344244, 37.442030751003664 ] } },
{ "type": "Feature", "properties": { "内容": "ながおか生協診療所【訪問リハビリテーション】新潟県長岡市前田1丁目6番7号", "url": "https://www.kaigokensaku.mhlw.go.jp/15/index.php?action_kouhyou_detail_004_kani=true&JigyosyoCd=1510212515-00&ServiceCd=140&Type=search", "url2": "http://www.nagaoka-iryou-seikyou.jp" }, "geometry": { "type": "Point", "coordinates": [ 138.860595800000027, 37.4372664 ] } },
{ "type": "Feature", "properties": { "内容": "訪問リハビリテーション悠遊苑【訪問リハビリテーション】新潟県長岡市大字日越337番地", "url": "https://www.kaigokensaku.mhlw.go.jp/15/index.php?action_kouhyou_detail_004_kani=true&JigyosyoCd=1570203925-00&ServiceCd=140&Type=search", "url2": null }, "geometry": { "type": "Point", "coordinates": [ 138.7809744, 37.4367182 ] } },
{ "type": "Feature", "properties": { "内容": "川瀬神経内科クリニック【訪問リハビリテーション】新潟県三条市東本成寺20番８号", "url": "https://www.kaigokensaku.mhlw.go.jp/15/index.php?action_kouhyou_detail_004_kani=true&JigyosyoCd=1510411216-00&ServiceCd=140&Type=search", "url2": "http://www.kawase-nc.or.jp/" }, "geometry": { "type": "Point", "coordinates": [ 138.948491, 37.616217199999966 ] } },
{ "type": "Feature", "properties": { "内容": "マザリー三条　訪問リハビリテーション【訪問リハビリテーション】新潟県三条市北入蔵２丁目28番1号", "url": "https://www.kaigokensaku.mhlw.go.jp/15/index.php?action_kouhyou_detail_004_kani=true&JigyosyoCd=1570401933-00&ServiceCd=140&Type=search", "url2": "http://www.tachibanakoyokai.or.jp/motherly/index.html" }, "geometry": { "type": "Point", "coordinates": [ 138.985241217253844, 37.632742844640291 ] } },
{ "type": "Feature", "properties": { "内容": "ウェルビー訪問リハビリステーション【訪問リハビリテーション】新潟県三条市荻堀1182-1下田保険センター内", "url": "https://www.kaigokensaku.mhlw.go.jp/15/index.php?action_kouhyou_detail_004_kani=true&JigyosyoCd=1570401941-00&ServiceCd=140&Type=search", "url2": "http://wellhoukan.com/" }, "geometry": { "type": "Point", "coordinates": [ 139.029711753967291, 37.573217902889027 ] } },
{ "type": "Feature", "properties": { "内容": "柏崎厚生病院　訪問リハビリテーション【訪問リハビリテーション】新潟県柏崎市大字茨目字二ツ池2071－1", "url": "https://www.kaigokensaku.mhlw.go.jp/15/index.php?action_kouhyou_detail_004_kani=true&JigyosyoCd=1570500742-00&ServiceCd=140&Type=search", "url2": "http://www.tatikawa.or.jp" }, "geometry": { "type": "Point", "coordinates": [ 138.586857116082825, 37.3533528203156 ] } },
{ "type": "Feature", "properties": { "内容": "北越病院【訪問リハビリテーション】新発田市緑町２－２０－１９", "url": "https://www.kaigokensaku.mhlw.go.jp/15/index.php?action_kouhyou_detail_004_kani=true&JigyosyoCd=1510611443-00&ServiceCd=140&Type=search", "url2": "http://www.mbc.or.jp/hokuetu/" }, "geometry": { "type": "Point", "coordinates": [ 139.331466500000033, 37.9620011 ] } },
{ "type": "Feature", "properties": { "内容": "介護老人保健施設さくら苑　訪問リハビリテーション【訪問リハビリテーション】新潟県加茂市千刈2丁目8番13号", "url": "https://www.kaigokensaku.mhlw.go.jp/15/index.php?action_kouhyou_detail_004_kani=true&JigyosyoCd=1570900223-00&ServiceCd=140&Type=search", "url2": "http://www.jojinkai.com/shirone/" }, "geometry": { "type": "Point", "coordinates": [ 139.050935699999968, 37.666055199999938 ] } },
{ "type": "Feature", "properties": { "内容": "メディカルフォレスト十日町中央クリニック【訪問リハビリテーション】新潟県十日町市稲荷町3丁目南1番9", "url": "https://www.kaigokensaku.mhlw.go.jp/15/index.php?action_kouhyou_detail_004_kani=true&JigyosyoCd=1511010702-00&ServiceCd=140&Type=search", "url2": "https://tokamachi-chuo-clinic.jp/" }, "geometry": { "type": "Point", "coordinates": [ 138.7545734, 37.1351747 ] } },
{ "type": "Feature", "properties": { "内容": "社会福祉法人　清津福祉会　上村診療所【訪問リハビリテーション】新潟県十日町市田中ロ468番地1", "url": "https://www.kaigokensaku.mhlw.go.jp/15/index.php?action_kouhyou_detail_004_kani=true&JigyosyoCd=1511010694-00&ServiceCd=140&Type=search", "url2": "https://kiyotufukusikai.jimdofree.com" }, "geometry": { "type": "Point", "coordinates": [ 138.696846349275887, 37.054285148227088 ] } },
{ "type": "Feature", "properties": { "内容": "医療法人新光会村上記念病院【訪問リハビリテーション】新潟県村上市松山204番地1", "url": "https://www.kaigokensaku.mhlw.go.jp/15/index.php?action_kouhyou_detail_004_kani=true&JigyosyoCd=1511210716-00&ServiceCd=140&Type=search", "url2": "http://murakamikinen-hp.jp/" }, "geometry": { "type": "Point", "coordinates": [ 139.456846, 38.2178015 ] } },
{ "type": "Feature", "properties": { "内容": "新潟県厚生農業組合連合会　糸魚川総合病院【訪問リハビリテーション】新潟県糸魚川市大字竹ヶ花457番地1", "url": "https://www.kaigokensaku.mhlw.go.jp/15/index.php?action_kouhyou_detail_004_kani=true&JigyosyoCd=1511510545-00&ServiceCd=140&Type=search", "url2": "http://www.itoigawa-hp.jp/" }, "geometry": { "type": "Point", "coordinates": [ 137.888588306220981, 37.048973045866568 ] } },
{ "type": "Feature", "properties": { "内容": "訪問リハビリテーション新井愛広苑【訪問リハビリテーション】妙高市大字小原新田528番地", "url": "https://www.kaigokensaku.mhlw.go.jp/15/index.php?action_kouhyou_detail_004_kani=true&JigyosyoCd=1571600707-00&ServiceCd=140&Type=search", "url2": "http://www.aiko.or.jp/" }, "geometry": { "type": "Point", "coordinates": [ 138.268734, 36.9743778 ] } },
{ "type": "Feature", "properties": { "内容": "訪問リハビリテーション　サンクス米山【訪問リハビリテーション】新潟県上越市柿崎区上下浜219-5", "url": "https://www.kaigokensaku.mhlw.go.jp/15/index.php?action_kouhyou_detail_004_kani=true&JigyosyoCd=1570303873-00&ServiceCd=140&Type=search", "url2": "https://www.minna-de-ikiru.org/" }, "geometry": { "type": "Point", "coordinates": [ 138.3496323, 37.2490463 ] } },
{ "type": "Feature", "properties": { "内容": "在宅緩和ケアクリニックきずな【訪問リハビリテーション】新潟県上越市下門前1745", "url": "https://www.kaigokensaku.mhlw.go.jp/15/index.php?action_kouhyou_detail_004_kani=true&JigyosyoCd=1510313065-00&ServiceCd=140&Type=search", "url2": "http://www.kizuna-i.com" }, "geometry": { "type": "Point", "coordinates": [ 138.2540912, 37.1580013 ] } },
{ "type": "Feature", "properties": { "内容": "上越地域医療センター病院【訪問リハビリテーション】新潟県上越市南高田町６番９号", "url": "https://www.kaigokensaku.mhlw.go.jp/15/index.php?action_kouhyou_detail_004_kani=true&JigyosyoCd=1570300994-00&ServiceCd=140&Type=search", "url2": "http://www.j-icen.or.jp" }, "geometry": { "type": "Point", "coordinates": [ 138.247645612442085, 37.095828255046541 ] } },
{ "type": "Feature", "properties": { "内容": "訪問リハビリテーション　相川愛広苑【訪問リハビリテーション】新潟県佐渡市相川大浦571", "url": "https://www.kaigokensaku.mhlw.go.jp/15/index.php?action_kouhyou_detail_004_kani=true&JigyosyoCd=1572201133-00&ServiceCd=140&Type=search", "url2": "http://www.aiko.or.jp" }, "geometry": { "type": "Point", "coordinates": [ 138.224099300000034, 38.015718 ] } },
{ "type": "Feature", "properties": { "内容": "佐渡市介護老人保健施設　すこやか両津【訪問リハビリテーション】新潟県佐渡市中興乙1601番地1", "url": "https://www.kaigokensaku.mhlw.go.jp/15/index.php?action_kouhyou_detail_004_kani=true&JigyosyoCd=1572201323-00&ServiceCd=140&Type=search", "url2": null }, "geometry": { "type": "Point", "coordinates": [ 138.358109897598325, 38.026674602640256 ] } },
{ "type": "Feature", "properties": { "内容": "齋藤記念病院【訪問リハビリテーション】新潟県南魚沼市欠之上478番地2", "url": "https://www.kaigokensaku.mhlw.go.jp/15/index.php?action_kouhyou_detail_004_kani=true&JigyosyoCd=1512410075-00&ServiceCd=140&Type=search", "url2": "https://www.saito-memorial.com" }, "geometry": { "type": "Point", "coordinates": [ 138.867762, 37.0881347 ] } },
{ "type": "Feature", "properties": { "内容": "萌気園訪問リハビリテーション　りらいふ【訪問リハビリテーション】新潟県南魚沼市二日町212‐1", "url": "https://www.kaigokensaku.mhlw.go.jp/15/index.php?action_kouhyou_detail_004_kani=true&JigyosyoCd=1512410158-00&ServiceCd=140&Type=search", "url2": "http://www.moegien.jp" }, "geometry": { "type": "Point", "coordinates": [ 138.898721799999947, 37.0838552 ] } },
{ "type": "Feature", "properties": { "内容": "越南苑訪問リハビリステーション【訪問リハビリテーション】新潟県南魚沼市五日町２４０５", "url": "https://www.kaigokensaku.mhlw.go.jp/15/index.php?action_kouhyou_detail_004_kani=true&JigyosyoCd=1572400784-00&ServiceCd=140&Type=search", "url2": "http://etunanen.com" }, "geometry": { "type": "Point", "coordinates": [ 138.902815499999946, 37.1256737 ] } },
{ "type": "Feature", "properties": { "内容": "中条中央病院【訪問リハビリテーション】新潟県胎内市西本町１２番１号", "url": "https://www.kaigokensaku.mhlw.go.jp/15/index.php?action_kouhyou_detail_004_kani=true&JigyosyoCd=1512510064-00&ServiceCd=140&Type=search", "url2": "http://www.kyouseikai-hosp.com" }, "geometry": { "type": "Point", "coordinates": [ 139.3951995, 38.051947 ] } },
{ "type": "Feature", "properties": { "内容": "訪問リハビリテーションマチュアハウス中条【訪問リハビリテーション】新潟県胎内市中村浜字築地原699-136", "url": "https://www.kaigokensaku.mhlw.go.jp/15/index.php?action_kouhyou_detail_004_kani=true&JigyosyoCd=1572500476-00&ServiceCd=140&Type=search", "url2": "https://n-jiseikai.jp/pages/6/" }, "geometry": { "type": "Point", "coordinates": [ 139.3496417, 38.0733837 ] } },
{ "type": "Feature", "properties": { "内容": "新潟聖籠病院【訪問リハビリテーション】新潟県北蒲原郡聖籠町蓮野5968-2", "url": "https://www.kaigokensaku.mhlw.go.jp/15/index.php?action_kouhyou_detail_004_kani=true&JigyosyoCd=1515011615-00&ServiceCd=140&Type=search", "url2": "https://www.aoikai.jp/niigataseirou/" }, "geometry": { "type": "Point", "coordinates": [ 139.2536288, 37.9729713 ] } },
{ "type": "Feature", "properties": { "内容": "町立湯沢病院【訪問リハビリテーション】新潟県南魚沼郡湯沢町大字湯沢２８７７番地１", "url": "https://www.kaigokensaku.mhlw.go.jp/15/index.php?action_kouhyou_detail_004_kani=true&JigyosyoCd=1575800659-00&ServiceCd=140&Type=search", "url2": "http://yuzawa.jadecom.or.jp" }, "geometry": { "type": "Point", "coordinates": [ 138.813551599999982, 36.9388074 ] } }
]
}
