{
"type": "FeatureCollection",
"name": "geo_15_中等教育学校",
"crs": { "type": "name", "properties": { "name": "urn:ogc:def:crs:EPSG::6668" } },
"features": [
{ "type": "Feature", "properties": { "P29_001": "15103", "P29_002": "D215210000017", "P29_003": "16003", "P29_004": "新潟市立高志中等教育学校", "P29_005": "新潟県新潟市中央区高志1-15-1", "P29_006": "3", "P29_007": "0", "P29_008": "00", "P29_009": null }, "geometry": { "type": "Point", "coordinates": [ 139.073970523262489, 37.896601549916191 ] } },
{ "type": "Feature", "properties": { "P29_001": "15205", "P29_002": "D215220500011", "P29_003": "16003", "P29_004": "新潟県立柏崎翔洋中等教育学校", "P29_005": "新潟県柏崎市北園町18-88", "P29_006": "2", "P29_007": "0", "P29_008": "00", "P29_009": null }, "geometry": { "type": "Point", "coordinates": [ 138.565110406093709, 37.382386339161826 ] } },
{ "type": "Feature", "properties": { "P29_001": "15212", "P29_002": "D215221200012", "P29_003": "16003", "P29_004": "新潟県立村上中等教育学校", "P29_005": "新潟県村上市学校町6-8", "P29_006": "2", "P29_007": "0", "P29_008": "00", "P29_009": null }, "geometry": { "type": "Point", "coordinates": [ 139.458082966797917, 38.227047304679708 ] } },
{ "type": "Feature", "properties": { "P29_001": "15213", "P29_002": "D215221300011", "P29_003": "16003", "P29_004": "新潟県立燕中等教育学校", "P29_005": "新潟県燕市灰方815", "P29_006": "2", "P29_007": "0", "P29_008": "00", "P29_009": null }, "geometry": { "type": "Point", "coordinates": [ 138.93049908762697, 37.684862171596407 ] } },
{ "type": "Feature", "properties": { "P29_001": "15222", "P29_002": "D215222200010", "P29_003": "16003", "P29_004": "新潟県立直江津中等教育学校", "P29_005": "新潟県上越市西本町4-20-1", "P29_006": "2", "P29_007": "0", "P29_008": "00", "P29_009": null }, "geometry": { "type": "Point", "coordinates": [ 138.234606266036224, 37.172957626807154 ] } },
{ "type": "Feature", "properties": { "P29_001": "15224", "P29_002": "D215222400018", "P29_003": "16003", "P29_004": "新潟県立佐渡中等教育学校", "P29_005": "新潟県佐渡市梅津1750", "P29_006": "2", "P29_007": "0", "P29_008": "00", "P29_009": null }, "geometry": { "type": "Point", "coordinates": [ 138.429685836152089, 38.097411686912857 ] } },
{ "type": "Feature", "properties": { "P29_001": "15482", "P29_002": "D215248200015", "P29_003": "16003", "P29_004": "新潟県立津南中等教育学校", "P29_005": "新潟県中魚沼郡津南町大字下船渡戊298-1", "P29_006": "2", "P29_007": "0", "P29_008": "00", "P29_009": null }, "geometry": { "type": "Point", "coordinates": [ 138.653234516945815, 37.011335935491154 ] } }
]
}
