{
"type": "FeatureCollection",
"name": "geo_15_短期大学",
"crs": { "type": "name", "properties": { "name": "urn:ogc:def:crs:EPSG::6668" } },
"features": [
{ "type": "Feature", "properties": { "P29_001": "15103", "P29_002": "F215310105256", "P29_003": "16006", "P29_004": "新潟青陵大学短期大学部", "P29_005": "新潟県新潟市中央区水道町1-5939", "P29_006": "4", "P29_007": "0", "P29_008": "00", "P29_009": null }, "geometry": { "type": "Point", "coordinates": [ 139.024821336441363, 37.921110669432622 ] } },
{ "type": "Feature", "properties": { "P29_001": "15107", "P29_002": "F215310105265", "P29_003": "16006", "P29_004": "新潟工業短期大学", "P29_005": "新潟県新潟市西区上新栄町5-13-7", "P29_006": "4", "P29_007": "0", "P29_008": "00", "P29_009": null }, "geometry": { "type": "Point", "coordinates": [ 138.962355634520833, 37.882745020940909 ] } },
{ "type": "Feature", "properties": { "P29_001": "15209", "P29_002": "F215310105274", "P29_003": "16006", "P29_004": "新潟中央短期大学", "P29_005": "新潟県加茂市希望ケ丘2909-2", "P29_006": "4", "P29_007": "0", "P29_008": "00", "P29_009": null }, "geometry": { "type": "Point", "coordinates": [ 139.064811999583895, 37.672043003384005 ] } },
{ "type": "Feature", "properties": { "P29_001": "15103", "P29_002": "F215310105283", "P29_003": "16006", "P29_004": "日本歯科大学新潟短期大学", "P29_005": "新潟県新潟市中央区浜浦町1-8", "P29_006": "4", "P29_007": "0", "P29_008": "00", "P29_009": null }, "geometry": { "type": "Point", "coordinates": [ 139.010456763352778, 37.911510550756226 ] } },
{ "type": "Feature", "properties": { "P29_001": "15107", "P29_002": "F215310105292", "P29_003": "16006", "P29_004": "明倫短期大学", "P29_005": "新潟県新潟市西区真砂3-16-10", "P29_006": "4", "P29_007": "0", "P29_008": "00", "P29_009": null }, "geometry": { "type": "Point", "coordinates": [ 138.982427292610595, 37.894038519103745 ] } }
]
}
