{
"type": "FeatureCollection",
"name": "geo_15_介護老人保健施設",
"crs": { "type": "name", "properties": { "name": "urn:ogc:def:crs:OGC:1.3:CRS84" } },
"features": [
{ "type": "Feature", "properties": { "内容": "介護老人保健施設　松浜さくら園【介護老人保健施設】新潟県新潟市北区太夫浜１７４２番地", "url2": "https://www.kaigokensaku.mhlw.go.jp/15/index.php?action_kouhyou_detail_004_kani=true&JigyosyoCd=1550180127-00&ServiceCd=520&Type=search" }, "geometry": { "type": "Point", "coordinates": [ 139.154300402377316, 37.955267793197891 ] } },
{ "type": "Feature", "properties": { "内容": "介護老人保健施設江風苑【介護老人保健施設】新潟県新潟市北区大迎1330", "url2": "https://www.kaigokensaku.mhlw.go.jp/15/index.php?action_kouhyou_detail_004_kani=true&JigyosyoCd=1550180325-00&ServiceCd=520&Type=search" }, "geometry": { "type": "Point", "coordinates": [ 139.172361200000068, 37.8840024 ] } },
{ "type": "Feature", "properties": { "内容": "介護老人保健施設　葵の園・新潟北区【介護老人保健施設】新潟県新潟市北区島見町200-1", "url2": "https://www.kaigokensaku.mhlw.go.jp/15/index.php?action_kouhyou_detail_004_kani=true&JigyosyoCd=1550180465-00&ServiceCd=520&Type=search" }, "geometry": { "type": "Point", "coordinates": [ 139.203055770422395, 37.976420424213039 ] } },
{ "type": "Feature", "properties": { "内容": "介護老人保健施設　有楽園【介護老人保健施設】新潟県新潟市東区有楽１丁目15-3", "url2": "https://www.kaigokensaku.mhlw.go.jp/15/index.php?action_kouhyou_detail_004_kani=true&JigyosyoCd=1550180085-00&ServiceCd=520&Type=search" }, "geometry": { "type": "Point", "coordinates": [ 139.106675399999972, 37.9381788 ] } },
{ "type": "Feature", "properties": { "内容": "介護老人保健施設　ほほえみの里　きど【介護老人保健施設】新潟県新潟市東区上木戸2-1-35", "url2": "https://www.kaigokensaku.mhlw.go.jp/15/index.php?action_kouhyou_detail_004_kani=true&JigyosyoCd=1550180424-00&ServiceCd=520&Type=search" }, "geometry": { "type": "Point", "coordinates": [ 139.104409700000019, 37.924155 ] } },
{ "type": "Feature", "properties": { "内容": "介護老人保健施設　ほほえみの里　きど【介護老人保健施設】新潟県新潟市東区上木戸2－1－35", "url2": "https://www.kaigokensaku.mhlw.go.jp/15/index.php?action_kouhyou_detail_004_kani=true&JigyosyoCd=1550180291-00&ServiceCd=520&Type=search" }, "geometry": { "type": "Point", "coordinates": [ 139.104443, 37.9242356 ] } },
{ "type": "Feature", "properties": { "内容": "介護老人保健施設くわの実の郷【介護老人保健施設】新潟県新潟市東区空港西2丁目14番35号", "url2": "https://www.kaigokensaku.mhlw.go.jp/15/index.php?action_kouhyou_detail_004_kani=true&JigyosyoCd=1550180432-00&ServiceCd=520&Type=search" }, "geometry": { "type": "Point", "coordinates": [ 139.097847699999988, 37.9488248 ] } },
{ "type": "Feature", "properties": { "内容": "介護老人保健施設くわの実の郷【介護老人保健施設】新潟県新潟市東区空港西2丁目14番35号", "url2": "https://www.kaigokensaku.mhlw.go.jp/15/index.php?action_kouhyou_detail_004_kani=true&JigyosyoCd=1550180440-00&ServiceCd=520&Type=search" }, "geometry": { "type": "Point", "coordinates": [ 139.097847700000017, 37.9488248 ] } },
{ "type": "Feature", "properties": { "内容": "介護老人保健施設　陽光園【介護老人保健施設】新潟県新潟市中央区姥ケ山311-1", "url2": "https://www.kaigokensaku.mhlw.go.jp/15/index.php?action_kouhyou_detail_004_kani=true&JigyosyoCd=1550180044-00&ServiceCd=520&Type=search" }, "geometry": { "type": "Point", "coordinates": [ 139.080687281614672, 37.884925976922808 ] } },
{ "type": "Feature", "properties": { "内容": "老人保健施設にいがた園【介護老人保健施設】新潟県新潟市中央区鳥屋野４５１－６", "url2": "https://www.kaigokensaku.mhlw.go.jp/15/index.php?action_kouhyou_detail_004_kani=true&JigyosyoCd=1550180010-00&ServiceCd=520&Type=search" }, "geometry": { "type": "Point", "coordinates": [ 139.034975199999963, 37.8864071 ] } },
{ "type": "Feature", "properties": { "内容": "介護老人保健施設緑樹苑【介護老人保健施設】新潟県新潟市中央区神道寺2-4-24", "url2": "https://www.kaigokensaku.mhlw.go.jp/15/index.php?action_kouhyou_detail_004_kani=true&JigyosyoCd=1550180028-00&ServiceCd=520&Type=search" }, "geometry": { "type": "Point", "coordinates": [ 139.056145499999957, 37.8972228 ] } },
{ "type": "Feature", "properties": { "内容": "介護老人保健施設千歳園【介護老人保健施設】新潟県新潟市中央区新光町１番地33", "url2": "https://www.kaigokensaku.mhlw.go.jp/15/index.php?action_kouhyou_detail_004_kani=true&JigyosyoCd=1550180093-00&ServiceCd=520&Type=search" }, "geometry": { "type": "Point", "coordinates": [ 139.024983300000031, 37.9047377 ] } },
{ "type": "Feature", "properties": { "内容": "介護老人保健施設女池南風苑【介護老人保健施設】新潟県新潟市中央区女池神明1丁目3番地3", "url2": "https://www.kaigokensaku.mhlw.go.jp/15/index.php?action_kouhyou_detail_004_kani=true&JigyosyoCd=1550180077-00&ServiceCd=520&Type=search" }, "geometry": { "type": "Point", "coordinates": [ 139.0380748, 37.8900706 ] } },
{ "type": "Feature", "properties": { "内容": "介護老人保健施設　葵の園・新潟島【介護老人保健施設】新潟県新潟市中央区柳島町3丁目18番地7", "url2": "https://www.kaigokensaku.mhlw.go.jp/15/index.php?action_kouhyou_detail_004_kani=true&JigyosyoCd=1550180366-00&ServiceCd=520&Type=search" }, "geometry": { "type": "Point", "coordinates": [ 139.058468400000038, 37.9316244 ] } },
{ "type": "Feature", "properties": { "内容": "介護老人保健施設　葵の園・新潟島【介護老人保健施設】新潟県新潟市中央区柳島町３丁目１８番地７", "url2": "https://www.kaigokensaku.mhlw.go.jp/15/index.php?action_kouhyou_detail_004_kani=true&JigyosyoCd=1550180374-00&ServiceCd=520&Type=search" }, "geometry": { "type": "Point", "coordinates": [ 139.058468400000038, 37.9316244 ] } },
{ "type": "Feature", "properties": { "内容": "介護老人保健施設　入舟【介護老人保健施設】新潟県新潟市中央区入船町３丁目３６２９－１", "url2": "https://www.kaigokensaku.mhlw.go.jp/15/index.php?action_kouhyou_detail_004_kani=true&JigyosyoCd=1550180333-00&ServiceCd=520&Type=search" }, "geometry": { "type": "Point", "coordinates": [ 139.056407300000046, 37.9343712 ] } },
{ "type": "Feature", "properties": { "内容": "介護老人保健施設　晴和会上所園【介護老人保健施設】新潟県新潟市中央区上所中1-10-1", "url2": "https://www.kaigokensaku.mhlw.go.jp/15/index.php?action_kouhyou_detail_004_kani=true&JigyosyoCd=1550180416-00&ServiceCd=520&Type=search" }, "geometry": { "type": "Point", "coordinates": [ 139.035847210450811, 37.905672157132905 ] } },
{ "type": "Feature", "properties": { "内容": "介護老人保健施設　晴和会上所園【介護老人保健施設】新潟県新潟市中央区上所中1-10-1", "url2": "https://www.kaigokensaku.mhlw.go.jp/15/index.php?action_kouhyou_detail_004_kani=true&JigyosyoCd=1550180283-00&ServiceCd=520&Type=search" }, "geometry": { "type": "Point", "coordinates": [ 139.035811379762208, 37.905671122704881 ] } },
{ "type": "Feature", "properties": { "内容": "介護老人保健施設　大江山園【介護老人保健施設】新潟県新潟市江南区大渕277番地", "url2": "https://www.kaigokensaku.mhlw.go.jp/15/index.php?action_kouhyou_detail_004_kani=true&JigyosyoCd=1550180051-00&ServiceCd=520&Type=search" }, "geometry": { "type": "Point", "coordinates": [ 139.144832400000013, 37.89210440029396 ] } },
{ "type": "Feature", "properties": { "内容": "老人保健施設　第二にいがた園【介護老人保健施設】新潟県新潟市江南区祖父興野270-1", "url2": "https://www.kaigokensaku.mhlw.go.jp/15/index.php?action_kouhyou_detail_004_kani=true&JigyosyoCd=1550180135-00&ServiceCd=520&Type=search" }, "geometry": { "type": "Point", "coordinates": [ 139.028158617196596, 37.868965100000111 ] } },
{ "type": "Feature", "properties": { "内容": "介護老人保健施設　マチュアハウス横越【介護老人保健施設】新潟県新潟市江南区阿賀野１丁目２番２号", "url2": "https://www.kaigokensaku.mhlw.go.jp/15/index.php?action_kouhyou_detail_004_kani=true&JigyosyoCd=1550180226-00&ServiceCd=520&Type=search" }, "geometry": { "type": "Point", "coordinates": [ 139.168336599999975, 37.831833 ] } },
{ "type": "Feature", "properties": { "内容": "介護老人保健施設亀田園【介護老人保健施設】新潟県新潟市江南区早通6-7-34", "url2": "https://www.kaigokensaku.mhlw.go.jp/15/index.php?action_kouhyou_detail_004_kani=true&JigyosyoCd=1550180234-00&ServiceCd=520&Type=search" }, "geometry": { "type": "Point", "coordinates": [ 139.08132, 37.8635908 ] } },
{ "type": "Feature", "properties": { "内容": "介護老人保健施設　健進館【介護老人保健施設】新潟県新潟市秋葉区古田６０８番地", "url2": "https://www.kaigokensaku.mhlw.go.jp/15/index.php?action_kouhyou_detail_004_kani=true&JigyosyoCd=1550180192-00&ServiceCd=520&Type=search" }, "geometry": { "type": "Point", "coordinates": [ 139.102807200000029, 37.7910082 ] } },
{ "type": "Feature", "properties": { "内容": "介護老人保健施設おぎの里【介護老人保健施設】新潟県新潟市秋葉区荻野町3番8号", "url2": "https://www.kaigokensaku.mhlw.go.jp/15/index.php?action_kouhyou_detail_004_kani=true&JigyosyoCd=1550180184-00&ServiceCd=520&Type=search" }, "geometry": { "type": "Point", "coordinates": [ 139.106394099999989, 37.8298961 ] } },
{ "type": "Feature", "properties": { "内容": "介護老人保健施設みずき苑【介護老人保健施設】新潟県新潟市南区助次右エ門組５", "url2": "https://www.kaigokensaku.mhlw.go.jp/15/index.php?action_kouhyou_detail_004_kani=true&JigyosyoCd=1550180218-00&ServiceCd=520&Type=search" }, "geometry": { "type": "Point", "coordinates": [ 139.019705, 37.7606575 ] } },
{ "type": "Feature", "properties": { "内容": "介護老人保健施設　白根ヴィラガーデン【介護老人保健施設】新潟県新潟市南区大通黄金7丁目10番地2", "url2": "https://www.kaigokensaku.mhlw.go.jp/15/index.php?action_kouhyou_detail_004_kani=true&JigyosyoCd=1550180200-00&ServiceCd=520&Type=search" }, "geometry": { "type": "Point", "coordinates": [ 139.019731683467199, 37.821087437511522 ] } },
{ "type": "Feature", "properties": { "内容": "介護老人保健施設　白根ヴィラガーデン【介護老人保健施設】新潟県新潟市南区大通黄金7丁目10番地2", "url2": "https://www.kaigokensaku.mhlw.go.jp/15/index.php?action_kouhyou_detail_004_kani=true&JigyosyoCd=1550180408-00&ServiceCd=520&Type=search" }, "geometry": { "type": "Point", "coordinates": [ 139.019533200000069, 37.8210832 ] } },
{ "type": "Feature", "properties": { "内容": "介護老人保健施設　常盤園【介護老人保健施設】新潟県新潟市南区西白根４４番地", "url2": "https://www.kaigokensaku.mhlw.go.jp/15/index.php?action_kouhyou_detail_004_kani=true&JigyosyoCd=1550180267-00&ServiceCd=520&Type=search" }, "geometry": { "type": "Point", "coordinates": [ 139.003602099999966, 37.753263 ] } },
{ "type": "Feature", "properties": { "内容": "介護老人保健施設あすか【介護老人保健施設】新潟県新潟市西区木場５６番地", "url2": "https://www.kaigokensaku.mhlw.go.jp/15/index.php?action_kouhyou_detail_004_kani=true&JigyosyoCd=1550180002-00&ServiceCd=520&Type=search" }, "geometry": { "type": "Point", "coordinates": [ 139.002557300000063, 37.8314785 ] } },
{ "type": "Feature", "properties": { "内容": "介護老人保健施設みそのぴあ【介護老人保健施設】新潟市西区青山７－８－１５", "url2": "https://www.kaigokensaku.mhlw.go.jp/15/index.php?action_kouhyou_detail_004_kani=true&JigyosyoCd=1550180101-00&ServiceCd=520&Type=search" }, "geometry": { "type": "Point", "coordinates": [ 138.991867, 37.8985902 ] } },
{ "type": "Feature", "properties": { "内容": "介護老人保健施設しんあい園【介護老人保健施設】新潟県新潟市西区上新栄町１丁目１番１号", "url2": "https://www.kaigokensaku.mhlw.go.jp/15/index.php?action_kouhyou_detail_004_kani=true&JigyosyoCd=1550180069-00&ServiceCd=520&Type=search" }, "geometry": { "type": "Point", "coordinates": [ 138.972444600000017, 37.8888936 ] } },
{ "type": "Feature", "properties": { "内容": "介護老人保健施設　あかつか苑【介護老人保健施設】新潟県新潟市西区赤塚４７８２番地", "url2": "https://www.kaigokensaku.mhlw.go.jp/15/index.php?action_kouhyou_detail_004_kani=true&JigyosyoCd=1550180150-00&ServiceCd=520&Type=search" }, "geometry": { "type": "Point", "coordinates": [ 138.874206214819338, 37.809518116675051 ] } },
{ "type": "Feature", "properties": { "内容": "介護老人保健施設健やか園【介護老人保健施設】新潟県新潟市西区小新1130番地", "url2": "https://www.kaigokensaku.mhlw.go.jp/15/index.php?action_kouhyou_detail_004_kani=true&JigyosyoCd=1550180168-00&ServiceCd=520&Type=search" }, "geometry": { "type": "Point", "coordinates": [ 138.995112400000039, 37.8784901 ] } },
{ "type": "Feature", "properties": { "内容": "介護老人保健施設ケアポートすなやま【介護老人保健施設】新潟県新潟市西区坂井砂山3-8-2", "url2": "https://www.kaigokensaku.mhlw.go.jp/15/index.php?action_kouhyou_detail_004_kani=true&JigyosyoCd=1550180143-00&ServiceCd=520&Type=search" }, "geometry": { "type": "Point", "coordinates": [ 138.9553952, 37.870402600000034 ] } },
{ "type": "Feature", "properties": { "内容": "介護老人保健施設　葵の園・新潟寺尾【介護老人保健施設】新潟県新潟市西区寺尾上5-18-17", "url2": "https://www.kaigokensaku.mhlw.go.jp/15/index.php?action_kouhyou_detail_004_kani=true&JigyosyoCd=1550180390-00&ServiceCd=520&Type=search" }, "geometry": { "type": "Point", "coordinates": [ 138.963071799999966, 37.8737639 ] } },
{ "type": "Feature", "properties": { "内容": "介護老人保健施設　葵の園・新潟寺尾【介護老人保健施設】新潟県新潟市西区寺尾上5-18-17", "url2": "https://www.kaigokensaku.mhlw.go.jp/15/index.php?action_kouhyou_detail_004_kani=true&JigyosyoCd=1550180382-00&ServiceCd=520&Type=search" }, "geometry": { "type": "Point", "coordinates": [ 138.963071799999966, 37.8737639 ] } },
{ "type": "Feature", "properties": { "内容": "介護老人保健施設　槇の里【介護老人保健施設】新潟県新潟市西蒲区巻甲4363番地", "url2": "https://www.kaigokensaku.mhlw.go.jp/15/index.php?action_kouhyou_detail_004_kani=true&JigyosyoCd=1550180309-00&ServiceCd=520&Type=search" }, "geometry": { "type": "Point", "coordinates": [ 138.893215918415791, 37.754025697720571 ] } },
{ "type": "Feature", "properties": { "内容": "介護老人保健施設　回生園【介護老人保健施設】新潟県新潟市西蒲区押付678番地", "url2": "https://www.kaigokensaku.mhlw.go.jp/15/index.php?action_kouhyou_detail_004_kani=true&JigyosyoCd=1550180259-00&ServiceCd=520&Type=search" }, "geometry": { "type": "Point", "coordinates": [ 138.916898899999978, 37.7838154 ] } },
{ "type": "Feature", "properties": { "内容": "介護老人保健施設　めぐみ園【介護老人保健施設】新潟県新潟市西蒲区国見417番地", "url2": "https://www.kaigokensaku.mhlw.go.jp/15/index.php?action_kouhyou_detail_004_kani=true&JigyosyoCd=1550180275-00&ServiceCd=520&Type=search" }, "geometry": { "type": "Point", "coordinates": [ 138.95221684603257, 37.754569536401917 ] } },
{ "type": "Feature", "properties": { "内容": "介護老人保健施設　いわむろの里【介護老人保健施設】新潟県新潟市西蒲区橋本９７番地１", "url2": "https://www.kaigokensaku.mhlw.go.jp/15/index.php?action_kouhyou_detail_004_kani=true&JigyosyoCd=1550180242-00&ServiceCd=520&Type=search" }, "geometry": { "type": "Point", "coordinates": [ 138.84017, 37.7325994 ] } },
{ "type": "Feature", "properties": { "内容": "介護老人保健施設　あらまち【介護老人保健施設】新潟県長岡市泉1－7－24", "url2": "https://www.kaigokensaku.mhlw.go.jp/15/index.php?action_kouhyou_detail_004_kani=true&JigyosyoCd=1550280083-00&ServiceCd=520&Type=search" }, "geometry": { "type": "Point", "coordinates": [ 138.854254099999906, 37.4644798 ] } },
{ "type": "Feature", "properties": { "内容": "介護老人保健施設　楽山苑【介護老人保健施設】長岡市宮沢327番地1", "url2": "https://www.kaigokensaku.mhlw.go.jp/15/index.php?action_kouhyou_detail_004_kani=true&JigyosyoCd=1550280000-00&ServiceCd=520&Type=search" }, "geometry": { "type": "Point", "coordinates": [ 138.784405752778667, 37.510223123521953 ] } },
{ "type": "Feature", "properties": { "内容": "介護老人保健施設　サンプラザ長岡【介護老人保健施設】長岡市三ッ郷屋町３５番地", "url2": "https://www.kaigokensaku.mhlw.go.jp/15/index.php?action_kouhyou_detail_004_kani=true&JigyosyoCd=1550280026-00&ServiceCd=520&Type=search" }, "geometry": { "type": "Point", "coordinates": [ 138.815124112164312, 37.450839883670866 ] } },
{ "type": "Feature", "properties": { "内容": "介護老人保健施設　桃李園【介護老人保健施設】長岡市西津町4630番地", "url2": "https://www.kaigokensaku.mhlw.go.jp/15/index.php?action_kouhyou_detail_004_kani=true&JigyosyoCd=1550280034-00&ServiceCd=520&Type=search" }, "geometry": { "type": "Point", "coordinates": [ 138.772453, 37.4265689 ] } },
{ "type": "Feature", "properties": { "内容": "介護老人保健施設悠遊苑【介護老人保健施設】新潟県長岡市大字日越337番地", "url2": "https://www.kaigokensaku.mhlw.go.jp/15/index.php?action_kouhyou_detail_004_kani=true&JigyosyoCd=1550280042-00&ServiceCd=520&Type=search" }, "geometry": { "type": "Point", "coordinates": [ 138.7811994, 37.4365903 ] } },
{ "type": "Feature", "properties": { "内容": "介護老人保健施設てらどまり【介護老人保健施設】新潟県長岡市寺泊下桐850番地1", "url2": "https://www.kaigokensaku.mhlw.go.jp/15/index.php?action_kouhyou_detail_004_kani=true&JigyosyoCd=1550280059-00&ServiceCd=520&Type=search" }, "geometry": { "type": "Point", "coordinates": [ 138.808587972213786, 37.611783530460443 ] } },
{ "type": "Feature", "properties": { "内容": "介護老人保健施設グリーンヒル与板【介護老人保健施設】新潟県長岡市与板町槙原393番地8", "url2": "https://www.kaigokensaku.mhlw.go.jp/15/index.php?action_kouhyou_detail_004_kani=true&JigyosyoCd=1550280067-00&ServiceCd=520&Type=search" }, "geometry": { "type": "Point", "coordinates": [ 138.791735455819662, 37.517970895279433 ] } },
{ "type": "Feature", "properties": { "内容": "老人保健施設やすらぎ園【介護老人保健施設】新潟県長岡市町田町５５５番地", "url2": "https://www.kaigokensaku.mhlw.go.jp/15/index.php?action_kouhyou_detail_004_kani=true&JigyosyoCd=1550280018-00&ServiceCd=520&Type=search" }, "geometry": { "type": "Point", "coordinates": [ 138.860729799999945, 37.4177183 ] } },
{ "type": "Feature", "properties": { "内容": "介護老人保健施設　葵の園・長岡【介護老人保健施設】新潟県長岡市稲保南三丁目882番2", "url2": "https://www.kaigokensaku.mhlw.go.jp/15/index.php?action_kouhyou_detail_004_kani=true&JigyosyoCd=1550280091-00&ServiceCd=520&Type=search" }, "geometry": { "type": "Point", "coordinates": [ 138.867804427887904, 37.477742577426817 ] } },
{ "type": "Feature", "properties": { "内容": "介護老人保健施設　葵の園・長岡【介護老人保健施設】新潟県長岡市稲保南三丁目882番2", "url2": "https://www.kaigokensaku.mhlw.go.jp/15/index.php?action_kouhyou_detail_004_kani=true&JigyosyoCd=1570203727-00&ServiceCd=520&Type=search" }, "geometry": { "type": "Point", "coordinates": [ 138.867786141510948, 37.477687880750203 ] } },
{ "type": "Feature", "properties": { "内容": "介護老人保健施設いっぷく2番館【介護老人保健施設】新潟県三条市帯織800番地", "url2": "https://www.kaigokensaku.mhlw.go.jp/15/index.php?action_kouhyou_detail_004_kani=true&JigyosyoCd=1550480048-00&ServiceCd=520&Type=search" }, "geometry": { "type": "Point", "coordinates": [ 138.927344100000028, 37.573424500000051 ] } },
{ "type": "Feature", "properties": { "内容": "新潟県済生会三条病院介護老人保健施設ケアホーム三条【介護老人保健施設】新潟県三条市大野畑6番85－5号", "url2": "https://www.kaigokensaku.mhlw.go.jp/15/index.php?action_kouhyou_detail_004_kani=true&JigyosyoCd=1550480014-00&ServiceCd=520&Type=search" }, "geometry": { "type": "Point", "coordinates": [ 138.940011199999958, 37.6279683 ] } },
{ "type": "Feature", "properties": { "内容": "介護老人保健施設　マザリー三条【介護老人保健施設】三条市北入蔵２丁目２８番１号", "url2": "https://www.kaigokensaku.mhlw.go.jp/15/index.php?action_kouhyou_detail_004_kani=true&JigyosyoCd=1550480030-00&ServiceCd=520&Type=search" }, "geometry": { "type": "Point", "coordinates": [ 138.985233243555513, 37.632750899941037 ] } },
{ "type": "Feature", "properties": { "内容": "介護老人保健施設　いっぷく【介護老人保健施設】新潟県三条市長野337番地", "url2": "https://www.kaigokensaku.mhlw.go.jp/15/index.php?action_kouhyou_detail_004_kani=true&JigyosyoCd=1550480006-00&ServiceCd=520&Type=search" }, "geometry": { "type": "Point", "coordinates": [ 139.1144382, 37.5397405 ] } },
{ "type": "Feature", "properties": { "内容": "介護老人保健施設　さつき荘【介護老人保健施設】新潟県柏崎市大字軽井川字十三本塚2791‐2", "url2": "https://www.kaigokensaku.mhlw.go.jp/15/index.php?action_kouhyou_detail_004_kani=true&JigyosyoCd=1550580037-00&ServiceCd=520&Type=search" }, "geometry": { "type": "Point", "coordinates": [ 138.595362578851308, 37.347273105138882 ] } },
{ "type": "Feature", "properties": { "内容": "介護老人保健施設　米山爽風苑【介護老人保健施設】新潟県柏崎市大字茨目字二ツ池2071－1", "url2": "https://www.kaigokensaku.mhlw.go.jp/15/index.php?action_kouhyou_detail_004_kani=true&JigyosyoCd=1550580011-00&ServiceCd=520&Type=search" }, "geometry": { "type": "Point", "coordinates": [ 138.586867844918885, 37.35333576342093 ] } },
{ "type": "Feature", "properties": { "内容": "介護老人保健施設　豊浦愛広苑【介護老人保健施設】新潟県新発田市荒町甲1611-8", "url2": "https://www.kaigokensaku.mhlw.go.jp/15/index.php?action_kouhyou_detail_004_kani=true&JigyosyoCd=1550680001-00&ServiceCd=520&Type=search" }, "geometry": { "type": "Point", "coordinates": [ 139.3218101, 37.935479 ] } },
{ "type": "Feature", "properties": { "内容": "介護老人保健施設いいでの里【介護老人保健施設】新発田市金谷197番地", "url2": "https://www.kaigokensaku.mhlw.go.jp/15/index.php?action_kouhyou_detail_004_kani=true&JigyosyoCd=1550680019-00&ServiceCd=520&Type=search" }, "geometry": { "type": "Point", "coordinates": [ 139.365881044844059, 37.943981495399534 ] } },
{ "type": "Feature", "properties": { "内容": "介護老人保健施設　二王子【介護老人保健施設】新潟県新発田市虎丸４５２番地", "url2": "https://www.kaigokensaku.mhlw.go.jp/15/index.php?action_kouhyou_detail_004_kani=true&JigyosyoCd=1550680035-00&ServiceCd=520&Type=search" }, "geometry": { "type": "Point", "coordinates": [ 139.4149466, 37.9272262 ] } },
{ "type": "Feature", "properties": { "内容": "介護老人保健施設　ヴィラ菅谷【介護老人保健施設】新潟県新発田市下石川766", "url2": "https://www.kaigokensaku.mhlw.go.jp/15/index.php?action_kouhyou_detail_004_kani=true&JigyosyoCd=1550680027-00&ServiceCd=520&Type=search" }, "geometry": { "type": "Point", "coordinates": [ 139.411022300000042, 37.965887100000025 ] } },
{ "type": "Feature", "properties": { "内容": "介護老人保健施設　さくら苑【介護老人保健施設】新潟県加茂市千刈２丁目８番１３号", "url2": "https://www.kaigokensaku.mhlw.go.jp/15/index.php?action_kouhyou_detail_004_kani=true&JigyosyoCd=1550980021-00&ServiceCd=520&Type=search" }, "geometry": { "type": "Point", "coordinates": [ 139.050935699999968, 37.6660552 ] } },
{ "type": "Feature", "properties": { "内容": "見附市介護老人保健施設ケアプラザ見附【介護老人保健施設】見附市学校町2丁目13番30号", "url2": "https://www.kaigokensaku.mhlw.go.jp/15/index.php?action_kouhyou_detail_004_kani=true&JigyosyoCd=1551180019-00&ServiceCd=520&Type=search" }, "geometry": { "type": "Point", "coordinates": [ 138.919396, 37.5347622 ] } },
{ "type": "Feature", "properties": { "内容": "介護老人保健施設　三面の里【介護老人保健施設】新潟県村上市田端町16番7号", "url2": "https://www.kaigokensaku.mhlw.go.jp/15/index.php?action_kouhyou_detail_004_kani=true&JigyosyoCd=1551280017-00&ServiceCd=520&Type=search" }, "geometry": { "type": "Point", "coordinates": [ 139.463948509786974, 38.223484544648031 ] } },
{ "type": "Feature", "properties": { "内容": "介護老人保健施設　優和の里【介護老人保健施設】新潟県村上市勝木1340-1", "url2": "https://www.kaigokensaku.mhlw.go.jp/15/index.php?action_kouhyou_detail_004_kani=true&JigyosyoCd=1551280025-00&ServiceCd=520&Type=search" }, "geometry": { "type": "Point", "coordinates": [ 139.516442899999987, 38.4905512 ] } },
{ "type": "Feature", "properties": { "内容": "介護老人保健施設杏園【介護老人保健施設】村上市猿沢2222", "url2": "https://www.kaigokensaku.mhlw.go.jp/15/index.php?action_kouhyou_detail_004_kani=true&JigyosyoCd=1551280009-00&ServiceCd=520&Type=search" }, "geometry": { "type": "Point", "coordinates": [ 139.526825799999983, 38.2866269 ] } },
{ "type": "Feature", "properties": { "内容": "介護老人保健施設　ぶんすい【介護老人保健施設】新潟県燕市笈ヶ島１０４番地５", "url2": "https://www.kaigokensaku.mhlw.go.jp/15/index.php?action_kouhyou_detail_004_kani=true&JigyosyoCd=1551380007-00&ServiceCd=520&Type=search" }, "geometry": { "type": "Point", "coordinates": [ 138.847096299999976, 37.619797100000014 ] } },
{ "type": "Feature", "properties": { "内容": "老人保健施設「楽楽」【介護老人保健施設】新潟県燕市大曲３００３番地", "url2": "https://www.kaigokensaku.mhlw.go.jp/15/index.php?action_kouhyou_detail_004_kani=true&JigyosyoCd=1551380015-00&ServiceCd=520&Type=search" }, "geometry": { "type": "Point", "coordinates": [ 138.918801600000052, 37.6488346 ] } },
{ "type": "Feature", "properties": { "内容": "介護老人保健施設エバーグリーン【介護老人保健施設】新潟県燕市富永216番地1", "url2": "https://www.kaigokensaku.mhlw.go.jp/15/index.php?action_kouhyou_detail_004_kani=true&JigyosyoCd=1551380023-00&ServiceCd=520&Type=search" }, "geometry": { "type": "Point", "coordinates": [ 138.889683600000012, 37.6959077 ] } },
{ "type": "Feature", "properties": { "内容": "介護老人保健施設　至誠会【介護老人保健施設】新潟県糸魚川市大字寺地３０１８番地", "url2": "https://www.kaigokensaku.mhlw.go.jp/15/index.php?action_kouhyou_detail_004_kani=true&JigyosyoCd=1551580044-00&ServiceCd=520&Type=search" }, "geometry": { "type": "Point", "coordinates": [ 137.811387700000068, 37.0178607 ] } },
{ "type": "Feature", "properties": { "内容": "介護老人保健施設アグリケアコートいといがわ【介護老人保健施設】新潟県糸魚川市横町5丁目9番12号", "url2": "https://www.kaigokensaku.mhlw.go.jp/15/index.php?action_kouhyou_detail_004_kani=true&JigyosyoCd=1551580028-00&ServiceCd=520&Type=search" }, "geometry": { "type": "Point", "coordinates": [ 137.847136800000044, 37.042789 ] } },
{ "type": "Feature", "properties": { "内容": "介護老人保健施設はねうまの里【介護老人保健施設】妙高市田町2丁目4番7号", "url2": "https://www.kaigokensaku.mhlw.go.jp/15/index.php?action_kouhyou_detail_004_kani=true&JigyosyoCd=1551680000-00&ServiceCd=520&Type=search" }, "geometry": { "type": "Point", "coordinates": [ 138.252026607934567, 37.020829238775569 ] } },
{ "type": "Feature", "properties": { "内容": "介護老人保健施設新井愛広苑【介護老人保健施設】妙高市大字小原新田528番地", "url2": "https://www.kaigokensaku.mhlw.go.jp/15/index.php?action_kouhyou_detail_004_kani=true&JigyosyoCd=1551680018-00&ServiceCd=520&Type=search" }, "geometry": { "type": "Point", "coordinates": [ 138.268723271163935, 36.974437799188472 ] } },
{ "type": "Feature", "properties": { "内容": "老人保健施設　愛宕の里【介護老人保健施設】新潟県五泉市村松1409-1", "url2": "https://www.kaigokensaku.mhlw.go.jp/15/index.php?action_kouhyou_detail_004_kani=true&JigyosyoCd=1551780008-00&ServiceCd=520&Type=search" }, "geometry": { "type": "Point", "coordinates": [ 139.1747368, 37.7004045 ] } },
{ "type": "Feature", "properties": { "内容": "介護老人保健施設保倉の里【介護老人保健施設】上越市浦川原区顕聖寺730番地1", "url2": "https://www.kaigokensaku.mhlw.go.jp/15/index.php?action_kouhyou_detail_004_kani=true&JigyosyoCd=1550380008-00&ServiceCd=520&Type=search" }, "geometry": { "type": "Point", "coordinates": [ 138.417125100000021, 37.1591823 ] } },
{ "type": "Feature", "properties": { "内容": "介護老人保健施設　高田の郷【介護老人保健施設】新潟県上越市新南町２８番地３", "url2": "https://www.kaigokensaku.mhlw.go.jp/15/index.php?action_kouhyou_detail_004_kani=true&JigyosyoCd=1550380024-00&ServiceCd=520&Type=search" }, "geometry": { "type": "Point", "coordinates": [ 138.272773, 37.1070819 ] } },
{ "type": "Feature", "properties": { "内容": "介護老人保健施設　くびきの【介護老人保健施設】新潟県上越市西城町３丁目６番３１号", "url2": "https://www.kaigokensaku.mhlw.go.jp/15/index.php?action_kouhyou_detail_004_kani=true&JigyosyoCd=1550380016-00&ServiceCd=520&Type=search" }, "geometry": { "type": "Point", "coordinates": [ 138.248155399999973, 37.1150858 ] } },
{ "type": "Feature", "properties": { "内容": "介護老人保健施設　そよかぜ倶楽部【介護老人保健施設】新潟県上越市大字今泉字西蓮池1310-5", "url2": "https://www.kaigokensaku.mhlw.go.jp/15/index.php?action_kouhyou_detail_004_kani=true&JigyosyoCd=1550380065-00&ServiceCd=520&Type=search" }, "geometry": { "type": "Point", "coordinates": [ 138.24757078341986, 37.093259365558531 ] } },
{ "type": "Feature", "properties": { "内容": "ユニット型介護老人保健施設　そよかぜ倶楽部【介護老人保健施設】新潟県上越市大字今泉字西蓮池1310-5", "url2": "https://www.kaigokensaku.mhlw.go.jp/15/index.php?action_kouhyou_detail_004_kani=true&JigyosyoCd=1550380099-00&ServiceCd=520&Type=search" }, "geometry": { "type": "Point", "coordinates": [ 138.247560054583801, 37.093259365557635 ] } },
{ "type": "Feature", "properties": { "内容": "介護老人保健施設　葵の園・上越【介護老人保健施設】新潟県上越市頸城区上吉１９４", "url2": "https://www.kaigokensaku.mhlw.go.jp/15/index.php?action_kouhyou_detail_004_kani=true&JigyosyoCd=1550380107-00&ServiceCd=520&Type=search" }, "geometry": { "type": "Point", "coordinates": [ 138.289207968678284, 37.184140676205914 ] } },
{ "type": "Feature", "properties": { "内容": "介護老人保健施設国府の里【介護老人保健施設】新潟県上越市五智4-7-21", "url2": "https://www.kaigokensaku.mhlw.go.jp/15/index.php?action_kouhyou_detail_004_kani=true&JigyosyoCd=1550380032-00&ServiceCd=520&Type=search" }, "geometry": { "type": "Point", "coordinates": [ 138.22564669999997, 37.1709724 ] } },
{ "type": "Feature", "properties": { "内容": "介護老人保健施設　サンクス米山【介護老人保健施設】新潟県上越市柿崎区上下浜219番地5", "url2": "https://www.kaigokensaku.mhlw.go.jp/15/index.php?action_kouhyou_detail_004_kani=true&JigyosyoCd=1550380040-00&ServiceCd=520&Type=search" }, "geometry": { "type": "Point", "coordinates": [ 138.349547799999982, 37.2489561 ] } },
{ "type": "Feature", "properties": { "内容": "あがの市民病院　介護老人保健施設　五頭の里【介護老人保健施設】新潟県阿賀野市岡山町13-23", "url2": "https://www.kaigokensaku.mhlw.go.jp/15/index.php?action_kouhyou_detail_004_kani=true&JigyosyoCd=1572100202-00&ServiceCd=520&Type=search" }, "geometry": { "type": "Point", "coordinates": [ 139.2216168, 37.8336511 ] } },
{ "type": "Feature", "properties": { "内容": "介護老人保健施設　阿賀の庄【介護老人保健施設】阿賀野市保田６３１７番地４６", "url2": "https://www.kaigokensaku.mhlw.go.jp/15/index.php?action_kouhyou_detail_004_kani=true&JigyosyoCd=1552180034-00&ServiceCd=520&Type=search" }, "geometry": { "type": "Point", "coordinates": [ 139.2716279, 37.7790643 ] } },
{ "type": "Feature", "properties": { "内容": "従来型介護老人保健施設　親里【介護老人保健施設】新潟県佐渡市住吉１２６番地２", "url2": "https://www.kaigokensaku.mhlw.go.jp/15/index.php?action_kouhyou_detail_004_kani=true&JigyosyoCd=1552280073-00&ServiceCd=520&Type=search" }, "geometry": { "type": "Point", "coordinates": [ 138.45006920000003, 38.0718652 ] } },
{ "type": "Feature", "properties": { "内容": "ユニット型介護老人保健施設　親里【介護老人保健施設】新潟県佐渡市住吉１２６番地２", "url2": "https://www.kaigokensaku.mhlw.go.jp/15/index.php?action_kouhyou_detail_004_kani=true&JigyosyoCd=1551880022-00&ServiceCd=520&Type=search" }, "geometry": { "type": "Point", "coordinates": [ 138.45006920000003, 38.0718652 ] } },
{ "type": "Feature", "properties": { "内容": "佐渡市介護老人保健施設　すこやか両津【介護老人保健施設】新潟県佐渡市中興乙１６０１番地１", "url2": "https://www.kaigokensaku.mhlw.go.jp/15/index.php?action_kouhyou_detail_004_kani=true&JigyosyoCd=1552280057-00&ServiceCd=520&Type=search" }, "geometry": { "type": "Point", "coordinates": [ 138.358096745368925, 38.026708374321025 ] } },
{ "type": "Feature", "properties": { "内容": "介護老人保健施設　相川愛広苑【介護老人保健施設】新潟県佐渡市相川大浦571", "url2": "https://www.kaigokensaku.mhlw.go.jp/15/index.php?action_kouhyou_detail_004_kani=true&JigyosyoCd=1552280065-00&ServiceCd=520&Type=search" }, "geometry": { "type": "Point", "coordinates": [ 138.224313876721226, 38.015857468193715 ] } },
{ "type": "Feature", "properties": { "内容": "老人保健施設　清流苑【介護老人保健施設】新潟県魚沼市原虫野433番地3", "url2": "https://www.kaigokensaku.mhlw.go.jp/15/index.php?action_kouhyou_detail_004_kani=true&JigyosyoCd=1552380006-00&ServiceCd=520&Type=search" }, "geometry": { "type": "Point", "coordinates": [ 138.963013009123188, 37.214224443670254 ] } },
{ "type": "Feature", "properties": { "内容": "介護老人保健施設越南苑【介護老人保健施設】新潟県南魚沼市五日町２４０５番地", "url2": "https://www.kaigokensaku.mhlw.go.jp/15/index.php?action_kouhyou_detail_004_kani=true&JigyosyoCd=1552480004-00&ServiceCd=520&Type=search" }, "geometry": { "type": "Point", "coordinates": [ 138.902815499999946, 37.1256737 ] } },
{ "type": "Feature", "properties": { "内容": "介護老人保健施設　マチュアハウス中条【介護老人保健施設】胎内市中村浜字築地原６９９－１３６", "url2": "https://www.kaigokensaku.mhlw.go.jp/15/index.php?action_kouhyou_detail_004_kani=true&JigyosyoCd=1552580019-00&ServiceCd=520&Type=search" }, "geometry": { "type": "Point", "coordinates": [ 139.350108293848393, 38.068623280595446 ] } },
{ "type": "Feature", "properties": { "内容": "介護老人保健施設やまぼうし【介護老人保健施設】新潟県胎内市下館字大開1522番地", "url2": "https://www.kaigokensaku.mhlw.go.jp/15/index.php?action_kouhyou_detail_004_kani=true&JigyosyoCd=1552580001-00&ServiceCd=520&Type=search" }, "geometry": { "type": "Point", "coordinates": [ 139.445739117921448, 38.081674324209843 ] } },
{ "type": "Feature", "properties": { "内容": "介護老人保健施設　中条愛広苑【介護老人保健施設】胎内市十二天91", "url2": "https://www.kaigokensaku.mhlw.go.jp/15/index.php?action_kouhyou_detail_004_kani=true&JigyosyoCd=1552580027-00&ServiceCd=520&Type=search" }, "geometry": { "type": "Point", "coordinates": [ 139.409089900000026, 38.0915792 ] } },
{ "type": "Feature", "properties": { "内容": "介護老人保健施設　汐彩の郷【介護老人保健施設】新潟県北蒲原郡聖籠町大字次第浜５３７２番地", "url2": "https://www.kaigokensaku.mhlw.go.jp/15/index.php?action_kouhyou_detail_004_kani=true&JigyosyoCd=1555080066-00&ServiceCd=520&Type=search" }, "geometry": { "type": "Point", "coordinates": [ 139.2747597, 38.0185501 ] } },
{ "type": "Feature", "properties": { "内容": "介護老人保健施設　晴和会田上園【介護老人保健施設】新潟県南蒲原郡田上町羽生田乙572-35", "url2": "https://www.kaigokensaku.mhlw.go.jp/15/index.php?action_kouhyou_detail_004_kani=true&JigyosyoCd=1555380003-00&ServiceCd=520&Type=search" }, "geometry": { "type": "Point", "coordinates": [ 139.062095499999941, 37.6852113 ] } },
{ "type": "Feature", "properties": { "内容": "ユニット型介護老人保健施設　晴和会田上園【介護老人保健施設】新潟県南蒲原郡田上町羽生田乙572-35", "url2": "https://www.kaigokensaku.mhlw.go.jp/15/index.php?action_kouhyou_detail_004_kani=true&JigyosyoCd=1555380029-00&ServiceCd=520&Type=search" }, "geometry": { "type": "Point", "coordinates": [ 139.062095499999941, 37.6852113 ] } },
{ "type": "Feature", "properties": { "内容": "介護老人保健施設三川しんあい園【介護老人保健施設】新潟県東蒲原郡阿賀町あが野南4324-2", "url2": "https://www.kaigokensaku.mhlw.go.jp/15/index.php?action_kouhyou_detail_004_kani=true&JigyosyoCd=1555480019-00&ServiceCd=520&Type=search" }, "geometry": { "type": "Point", "coordinates": [ 139.3675938, 37.7086858 ] } },
{ "type": "Feature", "properties": { "内容": "介護老人保健施設関川愛広苑【介護老人保健施設】岩船郡関川村大字湯沢728-7", "url2": "https://www.kaigokensaku.mhlw.go.jp/15/index.php?action_kouhyou_detail_004_kani=true&JigyosyoCd=1556480018-00&ServiceCd=520&Type=search" }, "geometry": { "type": "Point", "coordinates": [ 139.5751553, 38.094339 ] } }
]
}
