{
"type": "FeatureCollection",
"name": "geo_15_特別支援学校",
"crs": { "type": "name", "properties": { "name": "urn:ogc:def:crs:EPSG::6668" } },
"features": [
{ "type": "Feature", "properties": { "P29_001": "15103", "P29_002": "E115110000017", "P29_003": "16012", "P29_004": "新潟大学附属特別支援学校", "P29_005": "新潟県新潟市中央区西大畑町5214", "P29_006": "1", "P29_007": "0", "P29_008": "00", "P29_009": null }, "geometry": { "type": "Point", "coordinates": [ 139.035824353189952, 37.92510091547998 ] } },
{ "type": "Feature", "properties": { "P29_001": "15102", "P29_002": "E115210000024", "P29_003": "16012", "P29_004": "新潟県立東新潟特別支援学校", "P29_005": "新潟県新潟市東区海老ヶ瀬994", "P29_006": "2", "P29_007": "0", "P29_008": "00", "P29_009": null }, "geometry": { "type": "Point", "coordinates": [ 139.125527814371452, 37.933424496883553 ] } },
{ "type": "Feature", "properties": { "P29_001": "15102", "P29_002": "E115210000033", "P29_003": "16012", "P29_004": "新潟市立東特別支援学校", "P29_005": "新潟県新潟市東区海老ヶ瀬31", "P29_006": "3", "P29_007": "0", "P29_008": "00", "P29_009": null }, "geometry": { "type": "Point", "coordinates": [ 139.128789602855079, 37.935629219647588 ] } },
{ "type": "Feature", "properties": { "P29_001": "15103", "P29_002": "E115210000051", "P29_003": "16012", "P29_004": "新潟県立はまぐみ特別支援学校", "P29_005": "新潟県新潟市中央区水道町1-5932", "P29_006": "2", "P29_007": "0", "P29_008": "00", "P29_009": null }, "geometry": { "type": "Point", "coordinates": [ 139.026582321229114, 37.919697774427284 ] } },
{ "type": "Feature", "properties": { "P29_001": "15103", "P29_002": "E115210000060", "P29_003": "16012", "P29_004": "新潟県立江南高等特別支援学校川岸分校", "P29_005": "新潟県新潟市中央区川岸町2-4", "P29_006": "2", "P29_007": "0", "P29_008": "00", "P29_009": null }, "geometry": { "type": "Point", "coordinates": [ 139.033138683546099, 37.91054715401237 ] } },
{ "type": "Feature", "properties": { "P29_001": "15104", "P29_002": "E115210000079", "P29_003": "16012", "P29_004": "新潟県立江南高等特別支援学校", "P29_005": "新潟県新潟市江南区北山1510", "P29_006": "2", "P29_007": "0", "P29_008": "00", "P29_009": null }, "geometry": { "type": "Point", "coordinates": [ 139.10831621908082, 37.882458689994223 ] } },
{ "type": "Feature", "properties": { "P29_001": "15108", "P29_002": "E115210000088", "P29_003": "16012", "P29_004": "新潟市立西特別支援学校", "P29_005": "新潟県新潟市西蒲区堀山新田88", "P29_006": "3", "P29_007": "0", "P29_008": "00", "P29_009": null }, "geometry": { "type": "Point", "coordinates": [ 138.881814004438354, 37.759152996462049 ] } },
{ "type": "Feature", "properties": { "P29_001": "15108", "P29_002": "E115210000097", "P29_003": "16012", "P29_004": "新潟県立西蒲高等特別支援学校", "P29_005": "新潟県新潟市西蒲区堀山新田51-1", "P29_006": "2", "P29_007": "0", "P29_008": "00", "P29_009": null }, "geometry": { "type": "Point", "coordinates": [ 138.881887716190704, 37.75847165233948 ] } },
{ "type": "Feature", "properties": { "P29_001": "15102", "P29_002": "E115210000104", "P29_003": "16012", "P29_004": "新潟県立新潟よつば学園", "P29_005": "新潟県新潟市東区竹尾2-2-1", "P29_006": "2", "P29_007": "0", "P29_008": "00", "P29_009": null }, "geometry": { "type": "Point", "coordinates": [ 139.089334556654904, 37.913242322846898 ] } },
{ "type": "Feature", "properties": { "P29_001": "15202", "P29_002": "E115220200012", "P29_003": "16012", "P29_004": "新潟県立長岡聾学校", "P29_005": "新潟県長岡市水道町2-1-13", "P29_006": "2", "P29_007": "0", "P29_008": "00", "P29_009": null }, "geometry": { "type": "Point", "coordinates": [ 138.844015174294071, 37.454794306519773 ] } },
{ "type": "Feature", "properties": { "P29_001": "15202", "P29_002": "E115220200021", "P29_003": "16012", "P29_004": "新潟県立柏崎特別支援学校のぎく分校", "P29_005": "新潟県長岡市寿2-4-1", "P29_006": "2", "P29_007": "0", "P29_008": "00", "P29_009": null }, "geometry": { "type": "Point", "coordinates": [ 138.853650645955014, 37.477281064944862 ] } },
{ "type": "Feature", "properties": { "P29_001": "15202", "P29_002": "E115220200030", "P29_003": "16012", "P29_004": "長岡市立総合支援学校", "P29_005": "新潟県長岡市大字日越1402", "P29_006": "3", "P29_007": "0", "P29_008": "00", "P29_009": null }, "geometry": { "type": "Point", "coordinates": [ 138.781171258768893, 37.443004028635784 ] } },
{ "type": "Feature", "properties": { "P29_001": "15202", "P29_002": "E115220200049", "P29_003": "16012", "P29_004": "長岡市立高等総合支援学校", "P29_005": "新潟県長岡市大字日越1402", "P29_006": "3", "P29_007": "0", "P29_008": "00", "P29_009": null }, "geometry": { "type": "Point", "coordinates": [ 138.780076817402659, 37.443022577255974 ] } },
{ "type": "Feature", "properties": { "P29_001": "15204", "P29_002": "E115220400010", "P29_003": "16012", "P29_004": "新潟県立月ケ岡特別支援学校", "P29_005": "新潟県三条市大字月岡4935", "P29_006": "2", "P29_007": "0", "P29_008": "00", "P29_009": null }, "geometry": { "type": "Point", "coordinates": [ 138.989399690185564, 37.604971012707516 ] } },
{ "type": "Feature", "properties": { "P29_001": "15205", "P29_002": "E115220500019", "P29_003": "16012", "P29_004": "新潟県立柏崎特別支援学校", "P29_005": "新潟県柏崎市赤坂町3-63", "P29_006": "2", "P29_007": "0", "P29_008": "00", "P29_009": null }, "geometry": { "type": "Point", "coordinates": [ 138.536337084262811, 37.359796381987692 ] } },
{ "type": "Feature", "properties": { "P29_001": "15205", "P29_002": "E115220500028", "P29_003": "16012", "P29_004": "新潟県立はまなす特別支援学校", "P29_005": "新潟県柏崎市松波4-10-1", "P29_006": "2", "P29_007": "0", "P29_008": "00", "P29_009": null }, "geometry": { "type": "Point", "coordinates": [ 138.58341329566511, 37.396060054396436 ] } },
{ "type": "Feature", "properties": { "P29_001": "15206", "P29_002": "E115220600018", "P29_003": "16012", "P29_004": "新潟県立新発田竹俣特別支援学校いじみの分校", "P29_005": "新潟県新発田市大字五十公野4651-1", "P29_006": "2", "P29_007": "0", "P29_008": "00", "P29_009": null }, "geometry": { "type": "Point", "coordinates": [ 139.356167998039325, 37.934452935898264 ] } },
{ "type": "Feature", "properties": { "P29_001": "15206", "P29_002": "E115220600027", "P29_003": "16012", "P29_004": "新潟県立新発田竹俣特別支援学校", "P29_005": "新潟県新発田市下楠川702", "P29_006": "2", "P29_007": "0", "P29_008": "00", "P29_009": null }, "geometry": { "type": "Point", "coordinates": [ 139.40077577582872, 37.937997820949072 ] } },
{ "type": "Feature", "properties": { "P29_001": "15208", "P29_002": "E115220800016", "P29_003": "16012", "P29_004": "小千谷市立総合支援学校", "P29_005": "新潟県小千谷市大字塩殿甲2144", "P29_006": "3", "P29_007": "0", "P29_008": "00", "P29_009": null }, "geometry": { "type": "Point", "coordinates": [ 138.821170641489999, 37.269766608368656 ] } },
{ "type": "Feature", "properties": { "P29_001": "15210", "P29_002": "E115221000012", "P29_003": "16012", "P29_004": "十日町市立ふれあいの丘支援学校", "P29_005": "新潟県十日町市学校町1-614-32", "P29_006": "3", "P29_007": "0", "P29_008": "00", "P29_009": null }, "geometry": { "type": "Point", "coordinates": [ 138.767302203743355, 37.129088016939214 ] } },
{ "type": "Feature", "properties": { "P29_001": "15210", "P29_002": "E115221000021", "P29_003": "16012", "P29_004": "新潟県立川西高等特別支援学校", "P29_005": "新潟県十日町市伊勢平治711-2", "P29_006": "2", "P29_007": "0", "P29_008": "00", "P29_009": null }, "geometry": { "type": "Point", "coordinates": [ 138.748385994514791, 37.173932845389494 ] } },
{ "type": "Feature", "properties": { "P29_001": "15211", "P29_002": "E115221100011", "P29_003": "16012", "P29_004": "見附市立見附特別支援学校", "P29_005": "新潟県見附市月見台1-10-74", "P29_006": "3", "P29_007": "0", "P29_008": "00", "P29_009": null }, "geometry": { "type": "Point", "coordinates": [ 138.927994352532068, 37.516985482689769 ] } },
{ "type": "Feature", "properties": { "P29_001": "15211", "P29_002": "E115221100021", "P29_003": "16012", "P29_004": "新潟県立月ヶ岡特別支援学校見附分校", "P29_005": "新潟県見附市本所1-20-6", "P29_006": "2", "P29_007": "0", "P29_008": "00", "P29_009": null }, "geometry": { "type": "Point", "coordinates": [ 138.909768601969716, 37.539939003549648 ] } },
{ "type": "Feature", "properties": { "P29_001": "15212", "P29_002": "E115221200010", "P29_003": "16012", "P29_004": "新潟県立村上特別支援学校", "P29_005": "新潟県村上市山居町2-16-29", "P29_006": "2", "P29_007": "0", "P29_008": "00", "P29_009": null }, "geometry": { "type": "Point", "coordinates": [ 139.464649615249755, 38.21237826245504 ] } },
{ "type": "Feature", "properties": { "P29_001": "15213", "P29_002": "E115221300019", "P29_003": "16012", "P29_004": "新潟県立吉田特別支援学校", "P29_005": "新潟県燕市吉田大保町32-24", "P29_006": "2", "P29_007": "0", "P29_008": "00", "P29_009": null }, "geometry": { "type": "Point", "coordinates": [ 138.88513730256301, 37.687827850701787 ] } },
{ "type": "Feature", "properties": { "P29_001": "15216", "P29_002": "E115221600016", "P29_003": "16012", "P29_004": "新潟県立高田特別支援学校白嶺分校", "P29_005": "新潟県糸魚川市清崎5-25", "P29_006": "2", "P29_007": "0", "P29_008": "00", "P29_009": null }, "geometry": { "type": "Point", "coordinates": [ 137.859828951525742, 37.037535829649123 ] } },
{ "type": "Feature", "properties": { "P29_001": "15216", "P29_002": "E115221600025", "P29_003": "16012", "P29_004": "糸魚川市立ひすいの里総合学校", "P29_005": "新潟県糸魚川市中央1-2-1", "P29_006": "3", "P29_007": "0", "P29_008": "00", "P29_009": null }, "geometry": { "type": "Point", "coordinates": [ 137.859987993862489, 37.041140682679597 ] } },
{ "type": "Feature", "properties": { "P29_001": "15217", "P29_002": "E115221700015", "P29_003": "16012", "P29_004": "妙高市立総合支援学校", "P29_005": "新潟県妙高市大字小丸山新田56-2", "P29_006": "3", "P29_007": "0", "P29_008": "00", "P29_009": null }, "geometry": { "type": "Point", "coordinates": [ 138.236127002702801, 37.024518003361095 ] } },
{ "type": "Feature", "properties": { "P29_001": "15218", "P29_002": "E115221800014", "P29_003": "16012", "P29_004": "新潟県立五泉特別支援学校", "P29_005": "新潟県五泉市尻上173", "P29_006": "2", "P29_007": "0", "P29_008": "00", "P29_009": null }, "geometry": { "type": "Point", "coordinates": [ 139.141034092088091, 37.719889113119216 ] } },
{ "type": "Feature", "properties": { "P29_001": "15218", "P29_002": "E115221800023", "P29_003": "16012", "P29_004": "新潟県立五泉特別支援学校村松分校", "P29_005": "新潟県五泉市村松甲5545", "P29_006": "2", "P29_007": "0", "P29_008": "00", "P29_009": null }, "geometry": { "type": "Point", "coordinates": [ 139.181645908983228, 37.687423136723559 ] } },
{ "type": "Feature", "properties": { "P29_001": "15222", "P29_002": "E115222200018", "P29_003": "16012", "P29_004": "新潟県立長岡聾学校高田分校", "P29_005": "新潟県上越市大和6-4-37", "P29_006": "2", "P29_007": "0", "P29_008": "00", "P29_009": null }, "geometry": { "type": "Point", "coordinates": [ 138.241559161383407, 37.084936911401122 ] } },
{ "type": "Feature", "properties": { "P29_001": "15222", "P29_002": "E115222200027", "P29_003": "16012", "P29_004": "新潟県立高田特別支援学校", "P29_005": "新潟県上越市寺町1-15-44", "P29_006": "2", "P29_007": "0", "P29_008": "00", "P29_009": null }, "geometry": { "type": "Point", "coordinates": [ 138.236186266568041, 37.099472859225259 ] } },
{ "type": "Feature", "properties": { "P29_001": "15222", "P29_002": "E115222200036", "P29_003": "16012", "P29_004": "新潟県立上越特別支援学校", "P29_005": "新潟県上越市大和6-4-37", "P29_006": "2", "P29_007": "0", "P29_008": "00", "P29_009": null }, "geometry": { "type": "Point", "coordinates": [ 138.241795572877862, 37.085404459852164 ] } },
{ "type": "Feature", "properties": { "P29_001": "15222", "P29_002": "E115222200045", "P29_003": "16012", "P29_004": "新潟県立吉川高等特別支援学校", "P29_005": "新潟県上越市吉川区原之町1447", "P29_006": "2", "P29_007": "0", "P29_008": "00", "P29_009": null }, "geometry": { "type": "Point", "coordinates": [ 138.407616261441746, 37.227148029643914 ] } },
{ "type": "Feature", "properties": { "P29_001": "15223", "P29_002": "E115222300017", "P29_003": "16012", "P29_004": "新潟県立駒林特別支援学校", "P29_005": "新潟県阿賀野市駒林5050", "P29_006": "2", "P29_007": "0", "P29_008": "00", "P29_009": null }, "geometry": { "type": "Point", "coordinates": [ 139.205505277007461, 37.856281871981281 ] } },
{ "type": "Feature", "properties": { "P29_001": "15224", "P29_002": "E115222400016", "P29_003": "16012", "P29_004": "新潟県立佐渡特別支援学校", "P29_005": "新潟県佐渡市下新穂88", "P29_006": "2", "P29_007": "0", "P29_008": "00", "P29_009": null }, "geometry": { "type": "Point", "coordinates": [ 138.414334102527334, 38.015315295202413 ] } },
{ "type": "Feature", "properties": { "P29_001": "15225", "P29_002": "E115222500015", "P29_003": "16012", "P29_004": "新潟県立小出特別支援学校", "P29_005": "新潟県魚沼市十日町1738-2", "P29_006": "2", "P29_007": "0", "P29_008": "00", "P29_009": null }, "geometry": { "type": "Point", "coordinates": [ 138.944606833554928, 37.184802278406117 ] } },
{ "type": "Feature", "properties": { "P29_001": "15226", "P29_002": "E115222600014", "P29_003": "16012", "P29_004": "南魚沼市立総合支援学校", "P29_005": "新潟県南魚沼市西泉田47-2", "P29_006": "3", "P29_007": "0", "P29_008": "00", "P29_009": null }, "geometry": { "type": "Point", "coordinates": [ 138.87020056154293, 37.052545979851274 ] } }
]
}
