{
"type": "FeatureCollection",
"name": "geo_15_介護医療院",
"crs": { "type": "name", "properties": { "name": "urn:ogc:def:crs:OGC:1.3:CRS84" } },
"features": [
{ "type": "Feature", "properties": { "内容": "介護医療院　尾山愛広苑【介護医療院】新潟県新潟市北区木崎754", "url2": "https://www.kaigokensaku.mhlw.go.jp/15/index.php?action_kouhyou_detail_004_kani=true&JigyosyoCd=15B0100098-00&ServiceCd=550&Type=search" }, "geometry": { "type": "Point", "coordinates": [ 139.1727369, 37.9307754 ] } },
{ "type": "Feature", "properties": { "内容": "介護医療院　アビラ大形【介護医療院】新潟市東区一日市80番地", "url2": "https://www.kaigokensaku.mhlw.go.jp/15/index.php?action_kouhyou_detail_004_kani=true&JigyosyoCd=15B0100080-00&ServiceCd=550&Type=search" }, "geometry": { "type": "Point", "coordinates": [ 139.13461860000001, 37.9223138 ] } },
{ "type": "Feature", "properties": { "内容": "介護医療院　みどりケアセンター【介護医療院】新潟県新潟市中央区神道寺2丁目5番1号", "url2": "https://www.kaigokensaku.mhlw.go.jp/15/index.php?action_kouhyou_detail_004_kani=true&JigyosyoCd=15B0100056-00&ServiceCd=550&Type=search" }, "geometry": { "type": "Point", "coordinates": [ 139.055095200000011, 37.8968939 ] } },
{ "type": "Feature", "properties": { "内容": "介護医療院　栞の郷【介護医療院】新潟県新潟市中央区姥ヶ山２７４番地１", "url2": "https://www.kaigokensaku.mhlw.go.jp/15/index.php?action_kouhyou_detail_004_kani=true&JigyosyoCd=15B0100031-00&ServiceCd=550&Type=search" }, "geometry": { "type": "Point", "coordinates": [ 139.0798084, 37.8848005 ] } },
{ "type": "Feature", "properties": { "内容": "介護医療院　すこやか【介護医療院】新潟県新潟市秋葉区古田６０８番地", "url2": "https://www.kaigokensaku.mhlw.go.jp/15/index.php?action_kouhyou_detail_004_kani=true&JigyosyoCd=15B0100106-00&ServiceCd=550&Type=search" }, "geometry": { "type": "Point", "coordinates": [ 139.1027737, 37.791043 ] } },
{ "type": "Feature", "properties": { "内容": "白根大通病院　介護医療院【介護医療院】新潟県新潟市南区大通黄金4丁目14番地2", "url2": "https://www.kaigokensaku.mhlw.go.jp/15/index.php?action_kouhyou_detail_004_kani=true&JigyosyoCd=15B0100072-00&ServiceCd=550&Type=search" }, "geometry": { "type": "Point", "coordinates": [ 139.019674400000014, 37.8230554 ] } },
{ "type": "Feature", "properties": { "内容": "介護医療院こばり園【介護医療院】新潟県新潟市西区小針3-25-1介護医療院　こばり園", "url2": "https://www.kaigokensaku.mhlw.go.jp/15/index.php?action_kouhyou_detail_004_kani=true&JigyosyoCd=15B0100064-00&ServiceCd=550&Type=search" }, "geometry": { "type": "Point", "coordinates": [ 138.9995796, 37.887831800000015 ] } },
{ "type": "Feature", "properties": { "内容": "黒埼病院介護医療院【介護医療院】新潟県新潟市西区黒鳥2339番地1", "url2": "https://www.kaigokensaku.mhlw.go.jp/15/index.php?action_kouhyou_detail_004_kani=true&JigyosyoCd=15B0100023-00&ServiceCd=550&Type=search" }, "geometry": { "type": "Point", "coordinates": [ 138.98627110000001, 37.8412521 ] } },
{ "type": "Feature", "properties": { "内容": "聖園病院介護医療院【介護医療院】新潟県新潟市西区青山7-9-10", "url2": "https://www.kaigokensaku.mhlw.go.jp/15/index.php?action_kouhyou_detail_004_kani=true&JigyosyoCd=15B0100049-00&ServiceCd=550&Type=search" }, "geometry": { "type": "Point", "coordinates": [ 138.9921299, 37.8982486 ] } },
{ "type": "Feature", "properties": { "内容": "岩室リハビリテーション病院　介護医療院【介護医療院】新潟県新潟市西蒲区岩室温泉772番地1", "url2": "https://www.kaigokensaku.mhlw.go.jp/15/index.php?action_kouhyou_detail_004_kani=true&JigyosyoCd=15B0100015-00&ServiceCd=550&Type=search" }, "geometry": { "type": "Point", "coordinates": [ 138.8390714, 37.7325033 ] } },
{ "type": "Feature", "properties": { "内容": "介護医療院長岡保養園すま居る【介護医療院】新潟県長岡市町田町575番地", "url2": "https://www.kaigokensaku.mhlw.go.jp/15/index.php?action_kouhyou_detail_004_kani=true&JigyosyoCd=15B0200013-00&ServiceCd=550&Type=search" }, "geometry": { "type": "Point", "coordinates": [ 138.861515423278746, 37.417115703333906 ] } },
{ "type": "Feature", "properties": { "内容": "田宮病院　介護医療院【介護医療院】新潟県長岡市深沢町２３００番地", "url2": "https://www.kaigokensaku.mhlw.go.jp/15/index.php?action_kouhyou_detail_004_kani=true&JigyosyoCd=15B0200021-00&ServiceCd=550&Type=search" }, "geometry": { "type": "Point", "coordinates": [ 138.772041457286093, 37.425356372056171 ] } },
{ "type": "Feature", "properties": { "内容": "かもしか病院介護医療院【介護医療院】新潟県三条市南五百川80番地", "url2": "https://www.kaigokensaku.mhlw.go.jp/15/index.php?action_kouhyou_detail_004_kani=true&JigyosyoCd=15B0400019-00&ServiceCd=550&Type=search" }, "geometry": { "type": "Point", "coordinates": [ 139.126787400000012, 37.5374264 ] } },
{ "type": "Feature", "properties": { "内容": "富永草野病院　介護医療院【介護医療院】新潟県三条市興野2-2-25", "url2": "https://www.kaigokensaku.mhlw.go.jp/15/index.php?action_kouhyou_detail_004_kani=true&JigyosyoCd=15B0400027-00&ServiceCd=550&Type=search" }, "geometry": { "type": "Point", "coordinates": [ 138.970380144163983, 37.632621847243286 ] } },
{ "type": "Feature", "properties": { "内容": "三条東病院　介護医療院【介護医療院】新潟県三条市北入蔵２丁目１７番２７号", "url2": "https://www.kaigokensaku.mhlw.go.jp/15/index.php?action_kouhyou_detail_004_kani=true&JigyosyoCd=15B0400035-00&ServiceCd=550&Type=search" }, "geometry": { "type": "Point", "coordinates": [ 138.985132604893522, 37.632093323592265 ] } },
{ "type": "Feature", "properties": { "内容": "済生会三条病院介護医療院なでしこ【介護医療院】新潟県三条市大野畑6番18号", "url2": "https://www.kaigokensaku.mhlw.go.jp/15/index.php?action_kouhyou_detail_004_kani=true&JigyosyoCd=15B0490002-00&ServiceCd=550&Type=search" }, "geometry": { "type": "Point", "coordinates": [ 138.9398265, 37.6265856 ] } },
{ "type": "Feature", "properties": { "内容": "豊浦壱番館【介護医療院】新潟県新発田市荒町甲1611-8", "url2": "https://www.kaigokensaku.mhlw.go.jp/15/index.php?action_kouhyou_detail_004_kani=true&JigyosyoCd=15B0600014-00&ServiceCd=550&Type=search" }, "geometry": { "type": "Point", "coordinates": [ 139.321807, 37.935482 ] } },
{ "type": "Feature", "properties": { "内容": "新潟県厚生農業協同組合連合会小千谷総合病院介護医療院【介護医療院】新潟県小千谷市平沢新田111", "url2": "https://www.kaigokensaku.mhlw.go.jp/15/index.php?action_kouhyou_detail_004_kani=true&JigyosyoCd=15B0800010-00&ServiceCd=550&Type=search" }, "geometry": { "type": "Point", "coordinates": [ 138.7929997, 37.321551 ] } },
{ "type": "Feature", "properties": { "内容": "加茂病院　介護医療院【介護医療院】青海町1－9－1", "url2": "https://www.kaigokensaku.mhlw.go.jp/15/index.php?action_kouhyou_detail_004_kani=true&JigyosyoCd=15B0900018-00&ServiceCd=550&Type=search" }, "geometry": { "type": "Point", "coordinates": [ 139.055503, 37.664042 ] } },
{ "type": "Feature", "properties": { "内容": "山北徳新会介護医療院【介護医療院】新潟県村上市勝木1340-1山北徳洲会病院　4階", "url2": "https://www.kaigokensaku.mhlw.go.jp/15/index.php?action_kouhyou_detail_004_kani=true&JigyosyoCd=15B1200020-00&ServiceCd=550&Type=search" }, "geometry": { "type": "Point", "coordinates": [ 139.516477900000012, 38.4903215 ] } },
{ "type": "Feature", "properties": { "内容": "医療法人新光会村上記念病院介護医療院【介護医療院】新潟県村上市松山204番地1", "url2": "https://www.kaigokensaku.mhlw.go.jp/15/index.php?action_kouhyou_detail_004_kani=true&JigyosyoCd=15B1200012-00&ServiceCd=550&Type=search" }, "geometry": { "type": "Point", "coordinates": [ 139.4569421, 38.2177085 ] } },
{ "type": "Feature", "properties": { "内容": "介護医療院瀬波【介護医療院】新潟県村上市瀬波温泉２丁目４－１５", "url2": "https://www.kaigokensaku.mhlw.go.jp/15/index.php?action_kouhyou_detail_004_kani=true&JigyosyoCd=15B1200038-00&ServiceCd=550&Type=search" }, "geometry": { "type": "Point", "coordinates": [ 139.444175699999988, 38.2176315 ] } },
{ "type": "Feature", "properties": { "内容": "肴町介護医療院【介護医療院】新潟県村上市田端町１６番７号", "url2": "https://www.kaigokensaku.mhlw.go.jp/15/index.php?action_kouhyou_detail_004_kani=true&JigyosyoCd=15B1200046-00&ServiceCd=550&Type=search" }, "geometry": { "type": "Point", "coordinates": [ 139.4642761, 38.2232197 ] } },
{ "type": "Feature", "properties": { "内容": "介護医療院　えがおと虹の森ふもと【介護医療院】新潟県上越市中央1丁目23-26", "url2": "https://www.kaigokensaku.mhlw.go.jp/15/index.php?action_kouhyou_detail_004_kani=true&JigyosyoCd=15B0300011-00&ServiceCd=550&Type=search" }, "geometry": { "type": "Point", "coordinates": [ 138.2460496, 37.1743693 ] } },
{ "type": "Feature", "properties": { "内容": "あがの市民病院介護医療院【介護医療院】新潟県阿賀野市岡山町13-23", "url2": "https://www.kaigokensaku.mhlw.go.jp/15/index.php?action_kouhyou_detail_004_kani=true&JigyosyoCd=15B2100013-00&ServiceCd=550&Type=search" }, "geometry": { "type": "Point", "coordinates": [ 139.221167700000024, 37.8327957 ] } },
{ "type": "Feature", "properties": { "内容": "湯沢介護医療院ゆきざくら【介護医療院】新潟県南魚沼郡湯沢町大字湯沢２８７７番地１", "url2": "https://www.kaigokensaku.mhlw.go.jp/15/index.php?action_kouhyou_detail_004_kani=true&JigyosyoCd=15B5800015-00&ServiceCd=550&Type=search" }, "geometry": { "type": "Point", "coordinates": [ 138.8134552, 36.9388341 ] } }
]
}
