{
"type": "FeatureCollection",
"name": "geo_15_中学校",
"crs": { "type": "name", "properties": { "name": "urn:ogc:def:crs:EPSG::6668" } },
"features": [
{ "type": "Feature", "properties": { "P29_001": "15103", "P29_002": "C115110000012", "P29_003": "16002", "P29_004": "新潟大学附属新潟中学校", "P29_005": "新潟県新潟市中央区西大畑町5214", "P29_006": "1", "P29_007": "1", "P29_008": "00", "P29_009": null }, "geometry": { "type": "Point", "coordinates": [ 139.033147132753498, 37.924906570696145 ] } },
{ "type": "Feature", "properties": { "P29_001": "15202", "P29_002": "C115110000021", "P29_003": "16002", "P29_004": "新潟大学附属長岡中学校", "P29_005": "新潟県長岡市学校町1-1-1", "P29_006": "1", "P29_007": "1", "P29_008": "00", "P29_009": null }, "geometry": { "type": "Point", "coordinates": [ 138.863489505985058, 37.440178187359628 ] } },
{ "type": "Feature", "properties": { "P29_001": "15222", "P29_002": "C115110000030", "P29_003": "16002", "P29_004": "上越教育大学附属中学校", "P29_005": "新潟県上越市本城町6-2", "P29_006": "1", "P29_007": "1", "P29_008": "00", "P29_009": null }, "geometry": { "type": "Point", "coordinates": [ 138.257322661768541, 37.111166315875536 ] } },
{ "type": "Feature", "properties": { "P29_001": "15101", "P29_002": "C115210000010", "P29_003": "16002", "P29_004": "新潟市立松浜中学校", "P29_005": "新潟県新潟市北区松浜5-12-2", "P29_006": "3", "P29_007": "1", "P29_008": "00", "P29_009": null }, "geometry": { "type": "Point", "coordinates": [ 139.143873017469645, 37.956492969816267 ] } },
{ "type": "Feature", "properties": { "P29_001": "15101", "P29_002": "C115210000029", "P29_003": "16002", "P29_004": "新潟市立南浜中学校", "P29_005": "新潟県新潟市北区島見町3965", "P29_006": "3", "P29_007": "1", "P29_008": "00", "P29_009": null }, "geometry": { "type": "Point", "coordinates": [ 139.198624103308873, 37.964942133217015 ] } },
{ "type": "Feature", "properties": { "P29_001": "15101", "P29_002": "C115210000038", "P29_003": "16002", "P29_004": "新潟市立濁川中学校", "P29_005": "新潟県新潟市北区新崎5437", "P29_006": "3", "P29_007": "1", "P29_008": "00", "P29_009": null }, "geometry": { "type": "Point", "coordinates": [ 139.165650856514333, 37.930461890223143 ] } },
{ "type": "Feature", "properties": { "P29_001": "15101", "P29_002": "C115210000047", "P29_003": "16002", "P29_004": "新潟市立岡方中学校", "P29_005": "新潟県新潟市北区太子堂104", "P29_006": "3", "P29_007": "1", "P29_008": "00", "P29_009": null }, "geometry": { "type": "Point", "coordinates": [ 139.167946707919583, 37.887381177233678 ] } },
{ "type": "Feature", "properties": { "P29_001": "15101", "P29_002": "C115210000056", "P29_003": "16002", "P29_004": "新潟市立葛塚中学校", "P29_005": "新潟県新潟市北区太田乙433", "P29_006": "3", "P29_007": "1", "P29_008": "00", "P29_009": null }, "geometry": { "type": "Point", "coordinates": [ 139.229394435378595, 37.922209521583703 ] } },
{ "type": "Feature", "properties": { "P29_001": "15101", "P29_002": "C115210000065", "P29_003": "16002", "P29_004": "新潟市立木崎中学校", "P29_005": "新潟県新潟市北区木崎3291-1", "P29_006": "3", "P29_007": "1", "P29_008": "00", "P29_009": null }, "geometry": { "type": "Point", "coordinates": [ 139.201155068191213, 37.945293138836064 ] } },
{ "type": "Feature", "properties": { "P29_001": "15101", "P29_002": "C115210000074", "P29_003": "16002", "P29_004": "新潟市立早通中学校", "P29_005": "新潟県新潟市北区早通396", "P29_006": "3", "P29_007": "1", "P29_008": "00", "P29_009": null }, "geometry": { "type": "Point", "coordinates": [ 139.188610855318586, 37.921606222829269 ] } },
{ "type": "Feature", "properties": { "P29_001": "15101", "P29_002": "C115210000083", "P29_003": "16002", "P29_004": "新潟市立光晴中学校", "P29_005": "新潟県新潟市北区上土地亀4981", "P29_006": "3", "P29_007": "1", "P29_008": "00", "P29_009": null }, "geometry": { "type": "Point", "coordinates": [ 139.218427361395101, 37.904258727771023 ] } },
{ "type": "Feature", "properties": { "P29_001": "15102", "P29_002": "C115210000092", "P29_003": "16002", "P29_004": "新潟市立東新潟中学校", "P29_005": "新潟県新潟市東区山木戸1-2-1", "P29_006": "3", "P29_007": "1", "P29_008": "00", "P29_009": null }, "geometry": { "type": "Point", "coordinates": [ 139.078201573168201, 37.919555637254376 ] } },
{ "type": "Feature", "properties": { "P29_001": "15102", "P29_002": "C115210000109", "P29_003": "16002", "P29_004": "新潟市立山の下中学校", "P29_005": "新潟県新潟市東区秋葉通2-3722-7", "P29_006": "3", "P29_007": "1", "P29_008": "00", "P29_009": null }, "geometry": { "type": "Point", "coordinates": [ 139.082964206012946, 37.942559790806207 ] } },
{ "type": "Feature", "properties": { "P29_001": "15102", "P29_002": "C115210000118", "P29_003": "16002", "P29_004": "新潟市立大形中学校", "P29_005": "新潟県新潟市東区海老ヶ瀬122-1", "P29_006": "3", "P29_007": "1", "P29_008": "00", "P29_009": null }, "geometry": { "type": "Point", "coordinates": [ 139.127103995833124, 37.932236998545349 ] } },
{ "type": "Feature", "properties": { "P29_001": "15102", "P29_002": "C115210000127", "P29_003": "16002", "P29_004": "新潟市立石山中学校", "P29_005": "新潟県新潟市東区東明6-2", "P29_006": "3", "P29_007": "1", "P29_008": "00", "P29_009": null }, "geometry": { "type": "Point", "coordinates": [ 139.089047713566401, 37.898536832260831 ] } },
{ "type": "Feature", "properties": { "P29_001": "15102", "P29_002": "C115210000136", "P29_003": "16002", "P29_004": "新潟市立藤見中学校", "P29_005": "新潟県新潟市東区小金町3-5-1", "P29_006": "3", "P29_007": "1", "P29_008": "00", "P29_009": null }, "geometry": { "type": "Point", "coordinates": [ 139.092688003583334, 37.938354002918629 ] } },
{ "type": "Feature", "properties": { "P29_001": "15102", "P29_002": "C115210000145", "P29_003": "16002", "P29_004": "新潟市立木戸中学校", "P29_005": "新潟県新潟市東区上木戸5-1-1", "P29_006": "3", "P29_007": "1", "P29_008": "00", "P29_009": null }, "geometry": { "type": "Point", "coordinates": [ 139.102487080288853, 37.919999613756616 ] } },
{ "type": "Feature", "properties": { "P29_001": "15102", "P29_002": "C115210000154", "P29_003": "16002", "P29_004": "新潟市立東石山中学校", "P29_005": "新潟県新潟市東区若葉町2-16-1", "P29_006": "3", "P29_007": "1", "P29_008": "00", "P29_009": null }, "geometry": { "type": "Point", "coordinates": [ 139.115206469194135, 37.900888735521228 ] } },
{ "type": "Feature", "properties": { "P29_001": "15102", "P29_002": "C115210000163", "P29_003": "16002", "P29_004": "新潟市立下山中学校", "P29_005": "新潟県新潟市東区下山1-120", "P29_006": "3", "P29_007": "1", "P29_008": "00", "P29_009": null }, "geometry": { "type": "Point", "coordinates": [ 139.119493003290728, 37.944596996259925 ] } },
{ "type": "Feature", "properties": { "P29_001": "15103", "P29_002": "C115210000172", "P29_003": "16002", "P29_004": "新潟市立関屋中学校", "P29_005": "新潟県新潟市中央区浜浦町2-1", "P29_006": "3", "P29_007": "1", "P29_008": "00", "P29_009": null }, "geometry": { "type": "Point", "coordinates": [ 139.009276963367654, 37.910507497497505 ] } },
{ "type": "Feature", "properties": { "P29_001": "15103", "P29_002": "C115210000181", "P29_003": "16002", "P29_004": "新潟市立鳥屋野中学校", "P29_005": "新潟県新潟市中央区女池4-31-1", "P29_006": "3", "P29_007": "1", "P29_008": "00", "P29_009": null }, "geometry": { "type": "Point", "coordinates": [ 139.039336375296244, 37.897199728013732 ] } },
{ "type": "Feature", "properties": { "P29_001": "15103", "P29_002": "C115210000190", "P29_003": "16002", "P29_004": "新潟市立白新中学校", "P29_005": "新潟県新潟市中央区川岸町2-4", "P29_006": "3", "P29_007": "1", "P29_008": "00", "P29_009": null }, "geometry": { "type": "Point", "coordinates": [ 139.032979171587073, 37.910850590948094 ] } },
{ "type": "Feature", "properties": { "P29_001": "15103", "P29_002": "C115210000207", "P29_003": "16002", "P29_004": "新潟市立寄居中学校", "P29_005": "新潟県新潟市中央区営所通2-592-12", "P29_006": "3", "P29_007": "1", "P29_008": "00", "P29_009": null }, "geometry": { "type": "Point", "coordinates": [ 139.038169587628431, 37.92309486400687 ] } },
{ "type": "Feature", "properties": { "P29_001": "15103", "P29_002": "C115210000216", "P29_003": "16002", "P29_004": "新潟市立宮浦中学校", "P29_005": "新潟県新潟市中央区万代5-6-1", "P29_006": "3", "P29_007": "1", "P29_008": "00", "P29_009": null }, "geometry": { "type": "Point", "coordinates": [ 139.060529269318806, 37.920179481910488 ] } },
{ "type": "Feature", "properties": { "P29_001": "15103", "P29_002": "C115210000225", "P29_003": "16002", "P29_004": "新潟市立上山中学校", "P29_005": "新潟県新潟市中央区女池上山5-1-13", "P29_006": "3", "P29_007": "1", "P29_008": "00", "P29_009": null }, "geometry": { "type": "Point", "coordinates": [ 139.028661761651108, 37.894840801873308 ] } },
{ "type": "Feature", "properties": { "P29_001": "15103", "P29_002": "C115210000234", "P29_003": "16002", "P29_004": "新潟市立山潟中学校", "P29_005": "新潟県新潟市中央区山二ツ1-1", "P29_006": "3", "P29_007": "1", "P29_008": "00", "P29_009": null }, "geometry": { "type": "Point", "coordinates": [ 139.08541180941566, 37.888321482983216 ] } },
{ "type": "Feature", "properties": { "P29_001": "15103", "P29_002": "C115210000243", "P29_003": "16002", "P29_004": "新潟市立新潟柳都中学校", "P29_005": "新潟県新潟市中央区栄町3-4213", "P29_006": "3", "P29_007": "1", "P29_008": "00", "P29_009": null }, "geometry": { "type": "Point", "coordinates": [ 139.050260341817591, 37.935995814798893 ] } },
{ "type": "Feature", "properties": { "P29_001": "15104", "P29_002": "C115210000252", "P29_003": "16002", "P29_004": "新潟市立大江山中学校", "P29_005": "新潟県新潟市江南区西山491", "P29_006": "3", "P29_007": "1", "P29_008": "00", "P29_009": null }, "geometry": { "type": "Point", "coordinates": [ 139.139964571100677, 37.885531095223094 ] } },
{ "type": "Feature", "properties": { "P29_001": "15104", "P29_002": "C115210000261", "P29_003": "16002", "P29_004": "新潟市立曽野木中学校", "P29_005": "新潟県新潟市江南区曽川甲387-1", "P29_006": "3", "P29_007": "1", "P29_008": "00", "P29_009": null }, "geometry": { "type": "Point", "coordinates": [ 139.042846932178037, 37.855761976220478 ] } },
{ "type": "Feature", "properties": { "P29_001": "15104", "P29_002": "C115210000270", "P29_003": "16002", "P29_004": "新潟市立両川中学校", "P29_005": "新潟県新潟市江南区酒屋町702-1", "P29_006": "3", "P29_007": "1", "P29_008": "00", "P29_009": null }, "geometry": { "type": "Point", "coordinates": [ 139.071042844881219, 37.837880737184854 ] } },
{ "type": "Feature", "properties": { "P29_001": "15104", "P29_002": "C115210000289", "P29_003": "16002", "P29_004": "新潟市立横越中学校", "P29_005": "新潟県新潟市江南区横越中央3-4-1", "P29_006": "3", "P29_007": "1", "P29_008": "00", "P29_009": null }, "geometry": { "type": "Point", "coordinates": [ 139.151283061866138, 37.854686027801861 ] } },
{ "type": "Feature", "properties": { "P29_001": "15104", "P29_002": "C115210000298", "P29_003": "16002", "P29_004": "新潟市立亀田中学校", "P29_005": "新潟県新潟市江南区城山1-3-5", "P29_006": "3", "P29_007": "1", "P29_008": "00", "P29_009": null }, "geometry": { "type": "Point", "coordinates": [ 139.111256843719275, 37.862911450211314 ] } },
{ "type": "Feature", "properties": { "P29_001": "15104", "P29_002": "C115210000305", "P29_003": "16002", "P29_004": "新潟市立亀田西中学校", "P29_005": "新潟県新潟市江南区早苗3-1-8", "P29_006": "3", "P29_007": "1", "P29_008": "00", "P29_009": null }, "geometry": { "type": "Point", "coordinates": [ 139.093971004281343, 37.869049000326122 ] } },
{ "type": "Feature", "properties": { "P29_001": "15105", "P29_002": "C115210000314", "P29_003": "16002", "P29_004": "新潟市立新津第一中学校", "P29_005": "新潟県新潟市秋葉区新栄町4-1", "P29_006": "3", "P29_007": "1", "P29_008": "00", "P29_009": null }, "geometry": { "type": "Point", "coordinates": [ 139.120411585005542, 37.79154726812785 ] } },
{ "type": "Feature", "properties": { "P29_001": "15105", "P29_002": "C115210000323", "P29_003": "16002", "P29_004": "新潟市立新津第二中学校", "P29_005": "新潟県新潟市秋葉区荻島1-15-17", "P29_006": "3", "P29_007": "1", "P29_008": "00", "P29_009": null }, "geometry": { "type": "Point", "coordinates": [ 139.118436756591194, 37.834016237596678 ] } },
{ "type": "Feature", "properties": { "P29_001": "15105", "P29_002": "C115210000332", "P29_003": "16002", "P29_004": "新潟市立新津第五中学校", "P29_005": "新潟県新潟市秋葉区新津東町2-7-29", "P29_006": "3", "P29_007": "1", "P29_008": "00", "P29_009": null }, "geometry": { "type": "Point", "coordinates": [ 139.143041196503276, 37.800088904870385 ] } },
{ "type": "Feature", "properties": { "P29_001": "15105", "P29_002": "C115210000341", "P29_003": "16002", "P29_004": "新潟市立小合中学校", "P29_005": "新潟県新潟市秋葉区小戸下組77", "P29_006": "3", "P29_007": "1", "P29_008": "00", "P29_009": null }, "geometry": { "type": "Point", "coordinates": [ 139.084558004759629, 37.793168003876048 ] } },
{ "type": "Feature", "properties": { "P29_001": "15105", "P29_002": "C115210000350", "P29_003": "16002", "P29_004": "新潟市立金津中学校", "P29_005": "新潟県新潟市秋葉区割町10-2", "P29_006": "3", "P29_007": "1", "P29_008": "00", "P29_009": null }, "geometry": { "type": "Point", "coordinates": [ 139.119488517984905, 37.767865355081696 ] } },
{ "type": "Feature", "properties": { "P29_001": "15105", "P29_002": "C115210000369", "P29_003": "16002", "P29_004": "新潟市立小須戸中学校", "P29_005": "新潟県新潟市秋葉区横川浜526-1", "P29_006": "3", "P29_007": "1", "P29_008": "00", "P29_009": null }, "geometry": { "type": "Point", "coordinates": [ 139.075059407780287, 37.752870951425386 ] } },
{ "type": "Feature", "properties": { "P29_001": "15106", "P29_002": "C115210000378", "P29_003": "16002", "P29_004": "新潟市立臼井中学校", "P29_005": "新潟県新潟市南区臼井1425", "P29_006": "3", "P29_007": "1", "P29_008": "00", "P29_009": null }, "geometry": { "type": "Point", "coordinates": [ 139.055099984666981, 37.785905537344405 ] } },
{ "type": "Feature", "properties": { "P29_001": "15106", "P29_002": "C115210000387", "P29_003": "16002", "P29_004": "新潟市立白根第一中学校", "P29_005": "新潟県新潟市南区白根407", "P29_006": "3", "P29_007": "1", "P29_008": "00", "P29_009": null }, "geometry": { "type": "Point", "coordinates": [ 139.028064619896213, 37.759907326655899 ] } },
{ "type": "Feature", "properties": { "P29_001": "15106", "P29_002": "C115210000396", "P29_003": "16002", "P29_004": "新潟市立白根北中学校", "P29_005": "新潟県新潟市南区鷲ノ木新田4814", "P29_006": "3", "P29_007": "1", "P29_008": "00", "P29_009": null }, "geometry": { "type": "Point", "coordinates": [ 139.029729848946005, 37.817047101094978 ] } },
{ "type": "Feature", "properties": { "P29_001": "15106", "P29_002": "C115210000403", "P29_003": "16002", "P29_004": "新潟市立白南中学校", "P29_005": "新潟県新潟市南区茨曽根7619", "P29_006": "3", "P29_007": "1", "P29_008": "00", "P29_009": null }, "geometry": { "type": "Point", "coordinates": [ 139.017097525931064, 37.712603776867219 ] } },
{ "type": "Feature", "properties": { "P29_001": "15106", "P29_002": "C115210000412", "P29_003": "16002", "P29_004": "新潟市立味方中学校", "P29_005": "新潟県新潟市南区味方1199", "P29_006": "3", "P29_007": "1", "P29_008": "00", "P29_009": null }, "geometry": { "type": "Point", "coordinates": [ 139.012244882408481, 37.788094833438358 ] } },
{ "type": "Feature", "properties": { "P29_001": "15106", "P29_002": "C115210000421", "P29_003": "16002", "P29_004": "新潟市立月潟中学校", "P29_005": "新潟県新潟市南区月潟740", "P29_006": "3", "P29_007": "1", "P29_008": "00", "P29_009": null }, "geometry": { "type": "Point", "coordinates": [ 138.994753904221909, 37.733510921166939 ] } },
{ "type": "Feature", "properties": { "P29_001": "15107", "P29_002": "C115210000430", "P29_003": "16002", "P29_004": "新潟市立坂井輪中学校", "P29_005": "新潟県新潟市西区寺尾上3-1-36", "P29_006": "3", "P29_007": "1", "P29_008": "00", "P29_009": null }, "geometry": { "type": "Point", "coordinates": [ 138.970126349360726, 37.874680951425383 ] } },
{ "type": "Feature", "properties": { "P29_001": "15107", "P29_002": "C115210000449", "P29_003": "16002", "P29_004": "新潟市立内野中学校", "P29_005": "新潟県新潟市西区内野西1-10-1", "P29_006": "3", "P29_007": "1", "P29_008": "00", "P29_009": null }, "geometry": { "type": "Point", "coordinates": [ 138.9311116392023, 37.855625623660423 ] } },
{ "type": "Feature", "properties": { "P29_001": "15107", "P29_002": "C115210000458", "P29_003": "16002", "P29_004": "新潟市立赤塚中学校", "P29_005": "新潟県新潟市西区赤塚5590", "P29_006": "3", "P29_007": "1", "P29_008": "00", "P29_009": null }, "geometry": { "type": "Point", "coordinates": [ 138.877922731981329, 37.820496509210592 ] } },
{ "type": "Feature", "properties": { "P29_001": "15107", "P29_002": "C115210000467", "P29_003": "16002", "P29_004": "新潟市立中野小屋中学校", "P29_005": "新潟県新潟市西区中野小屋932", "P29_006": "3", "P29_007": "1", "P29_008": "00", "P29_009": null }, "geometry": { "type": "Point", "coordinates": [ 138.933935335258724, 37.825530722855191 ] } },
{ "type": "Feature", "properties": { "P29_001": "15107", "P29_002": "C115210000476", "P29_003": "16002", "P29_004": "新潟市立小針中学校", "P29_005": "新潟県新潟市西区小針1-37-1", "P29_006": "3", "P29_007": "1", "P29_008": "00", "P29_009": null }, "geometry": { "type": "Point", "coordinates": [ 139.002337475360321, 37.887823014725825 ] } },
{ "type": "Feature", "properties": { "P29_001": "15107", "P29_002": "C115210000485", "P29_003": "16002", "P29_004": "新潟市立五十嵐中学校", "P29_005": "新潟県新潟市西区上新栄町5-3-1", "P29_006": "3", "P29_007": "1", "P29_008": "00", "P29_009": null }, "geometry": { "type": "Point", "coordinates": [ 138.965609659559789, 37.885193018043545 ] } },
{ "type": "Feature", "properties": { "P29_001": "15107", "P29_002": "C115210000494", "P29_003": "16002", "P29_004": "新潟市立小新中学校", "P29_005": "新潟県新潟市西区小新西3-18-1", "P29_006": "3", "P29_007": "1", "P29_008": "00", "P29_009": null }, "geometry": { "type": "Point", "coordinates": [ 138.993482000688573, 37.872626999354218 ] } },
{ "type": "Feature", "properties": { "P29_001": "15107", "P29_002": "C115210000500", "P29_003": "16002", "P29_004": "新潟市立内野中学校希望が丘分校", "P29_005": "新潟県新潟市西区五十嵐3の町9952", "P29_006": "3", "P29_007": "1", "P29_008": "00", "P29_009": null }, "geometry": { "type": "Point", "coordinates": [ 138.922522884195018, 37.857707752953779 ] } },
{ "type": "Feature", "properties": { "P29_001": "15107", "P29_002": "C115210000519", "P29_003": "16002", "P29_004": "新潟市立黒埼中学校", "P29_005": "新潟県新潟市西区大野町2540-1", "P29_006": "3", "P29_007": "1", "P29_008": "00", "P29_009": null }, "geometry": { "type": "Point", "coordinates": [ 139.012833858425466, 37.847022926128275 ] } },
{ "type": "Feature", "properties": { "P29_001": "15108", "P29_002": "C115210000528", "P29_003": "16002", "P29_004": "新潟市立岩室中学校", "P29_005": "新潟県新潟市西蒲区西中1421", "P29_006": "3", "P29_007": "1", "P29_008": "00", "P29_009": null }, "geometry": { "type": "Point", "coordinates": [ 138.860357951763774, 37.728685158168133 ] } },
{ "type": "Feature", "properties": { "P29_001": "15108", "P29_002": "C115210000537", "P29_003": "16002", "P29_004": "新潟市立巻東中学校", "P29_005": "新潟県新潟市西蒲区潟頭1493", "P29_006": "3", "P29_007": "1", "P29_008": "00", "P29_009": null }, "geometry": { "type": "Point", "coordinates": [ 138.901347002439792, 37.744868393138162 ] } },
{ "type": "Feature", "properties": { "P29_001": "15108", "P29_002": "C115210000546", "P29_003": "16002", "P29_004": "新潟市立巻西中学校", "P29_005": "新潟県新潟市西蒲区仁箇42-1", "P29_006": "3", "P29_007": "1", "P29_008": "00", "P29_009": null }, "geometry": { "type": "Point", "coordinates": [ 138.878916311028178, 37.775103028238824 ] } },
{ "type": "Feature", "properties": { "P29_001": "15108", "P29_002": "C115210000555", "P29_003": "16002", "P29_004": "新潟市立西川中学校", "P29_005": "新潟県新潟市西蒲区曽根1828-3", "P29_006": "3", "P29_007": "1", "P29_008": "00", "P29_009": null }, "geometry": { "type": "Point", "coordinates": [ 138.926623319601163, 37.794701434323294 ] } },
{ "type": "Feature", "properties": { "P29_001": "15108", "P29_002": "C115210000564", "P29_003": "16002", "P29_004": "新潟市立潟東中学校", "P29_005": "新潟県新潟市西蒲区三方250", "P29_006": "3", "P29_007": "1", "P29_008": "00", "P29_009": null }, "geometry": { "type": "Point", "coordinates": [ 138.961435941095687, 37.772747687225099 ] } },
{ "type": "Feature", "properties": { "P29_001": "15108", "P29_002": "C115210000573", "P29_003": "16002", "P29_004": "新潟市立中之口中学校", "P29_005": "新潟県新潟市西蒲区中之口660", "P29_006": "3", "P29_007": "1", "P29_008": "00", "P29_009": null }, "geometry": { "type": "Point", "coordinates": [ 138.967890937327752, 37.718184931183082 ] } },
{ "type": "Feature", "properties": { "P29_001": "15202", "P29_002": "C115220200017", "P29_003": "16002", "P29_004": "長岡市立東中学校", "P29_005": "新潟県長岡市水道町5-1-1", "P29_006": "3", "P29_007": "1", "P29_008": "00", "P29_009": null }, "geometry": { "type": "Point", "coordinates": [ 138.846386294161789, 37.460395705704073 ] } },
{ "type": "Feature", "properties": { "P29_001": "15202", "P29_002": "C115220200026", "P29_003": "16002", "P29_004": "長岡市立南中学校", "P29_005": "新潟県長岡市南町2-1-1", "P29_006": "3", "P29_007": "1", "P29_008": "00", "P29_009": null }, "geometry": { "type": "Point", "coordinates": [ 138.847830221381514, 37.440677835632222 ] } },
{ "type": "Feature", "properties": { "P29_001": "15202", "P29_002": "C115220200035", "P29_003": "16002", "P29_004": "長岡市立北中学校", "P29_005": "新潟県長岡市東蔵王2-8-37", "P29_006": "3", "P29_007": "1", "P29_008": "00", "P29_009": null }, "geometry": { "type": "Point", "coordinates": [ 138.856239765546917, 37.473897377605965 ] } },
{ "type": "Feature", "properties": { "P29_001": "15202", "P29_002": "C115220200044", "P29_003": "16002", "P29_004": "長岡市立旭岡中学校", "P29_005": "新潟県長岡市高畑町883-2", "P29_006": "3", "P29_007": "1", "P29_008": "00", "P29_009": null }, "geometry": { "type": "Point", "coordinates": [ 138.857993860843493, 37.427531508887739 ] } },
{ "type": "Feature", "properties": { "P29_001": "15202", "P29_002": "C115220200053", "P29_003": "16002", "P29_004": "長岡市立栖吉中学校", "P29_005": "新潟県長岡市悠久町2-1720", "P29_006": "3", "P29_007": "1", "P29_008": "00", "P29_009": null }, "geometry": { "type": "Point", "coordinates": [ 138.882636330887948, 37.435854772506467 ] } },
{ "type": "Feature", "properties": { "P29_001": "15202", "P29_002": "C115220200062", "P29_003": "16002", "P29_004": "長岡市立宮内中学校", "P29_005": "新潟県長岡市宮栄2-3-50", "P29_006": "3", "P29_007": "1", "P29_008": "00", "P29_009": null }, "geometry": { "type": "Point", "coordinates": [ 138.836983996242139, 37.421905850149514 ] } },
{ "type": "Feature", "properties": { "P29_001": "15202", "P29_002": "C115220200071", "P29_003": "16002", "P29_004": "長岡市立東北中学校", "P29_005": "新潟県長岡市川崎5-485-1", "P29_006": "3", "P29_007": "1", "P29_008": "00", "P29_009": null }, "geometry": { "type": "Point", "coordinates": [ 138.868634296053216, 37.456505016302067 ] } },
{ "type": "Feature", "properties": { "P29_001": "15202", "P29_002": "C115220200080", "P29_003": "16002", "P29_004": "長岡市立堤岡中学校", "P29_005": "新潟県長岡市高見町字東堤90", "P29_006": "3", "P29_007": "1", "P29_008": "00", "P29_009": null }, "geometry": { "type": "Point", "coordinates": [ 138.864620586117553, 37.49748953778272 ] } },
{ "type": "Feature", "properties": { "P29_001": "15202", "P29_002": "C115220200099", "P29_003": "16002", "P29_004": "長岡市立山本中学校", "P29_005": "新潟県長岡市浦瀬町11230", "P29_006": "3", "P29_007": "1", "P29_008": "00", "P29_009": null }, "geometry": { "type": "Point", "coordinates": [ 138.912754057090979, 37.47026267674913 ] } },
{ "type": "Feature", "properties": { "P29_001": "15202", "P29_002": "C115220200106", "P29_003": "16002", "P29_004": "長岡市立岡南中学校", "P29_005": "新潟県長岡市十日町7", "P29_006": "3", "P29_007": "1", "P29_008": "00", "P29_009": null }, "geometry": { "type": "Point", "coordinates": [ 138.837797397007705, 37.375657612368585 ] } },
{ "type": "Feature", "properties": { "P29_001": "15202", "P29_002": "C115220200115", "P29_003": "16002", "P29_004": "長岡市立太田中学校", "P29_005": "新潟県長岡市濁沢町485", "P29_006": "3", "P29_007": "1", "P29_008": "00", "P29_009": null }, "geometry": { "type": "Point", "coordinates": [ 138.886267930859759, 37.360308177001478 ] } },
{ "type": "Feature", "properties": { "P29_001": "15202", "P29_002": "C115220200124", "P29_003": "16002", "P29_004": "長岡市立関原中学校", "P29_005": "新潟県長岡市関原南3-4920", "P29_006": "3", "P29_007": "1", "P29_008": "00", "P29_009": null }, "geometry": { "type": "Point", "coordinates": [ 138.772121873469956, 37.449256343693037 ] } },
{ "type": "Feature", "properties": { "P29_001": "15202", "P29_002": "C115220200133", "P29_003": "16002", "P29_004": "長岡市立西中学校", "P29_005": "新潟県長岡市希望が丘1-107", "P29_006": "3", "P29_007": "1", "P29_008": "00", "P29_009": null }, "geometry": { "type": "Point", "coordinates": [ 138.812432395843018, 37.443273379264056 ] } },
{ "type": "Feature", "properties": { "P29_001": "15202", "P29_002": "C115220200142", "P29_003": "16002", "P29_004": "長岡市立江陽中学校", "P29_005": "新潟県長岡市巻島町180", "P29_006": "3", "P29_007": "1", "P29_008": "00", "P29_009": null }, "geometry": { "type": "Point", "coordinates": [ 138.832409180388652, 37.480766076613193 ] } },
{ "type": "Feature", "properties": { "P29_001": "15202", "P29_002": "C115220200151", "P29_003": "16002", "P29_004": "長岡市立青葉台中学校", "P29_005": "新潟県長岡市青葉台1甲222-1", "P29_006": "3", "P29_007": "1", "P29_008": "00", "P29_009": null }, "geometry": { "type": "Point", "coordinates": [ 138.751518791748168, 37.447865786206144 ] } },
{ "type": "Feature", "properties": { "P29_001": "15202", "P29_002": "C115220200160", "P29_003": "16002", "P29_004": "長岡市立大島中学校", "P29_005": "新潟県長岡市三ッ郷屋町字下川原342", "P29_006": "3", "P29_007": "1", "P29_008": "00", "P29_009": null }, "geometry": { "type": "Point", "coordinates": [ 138.817744375135845, 37.451086457751721 ] } },
{ "type": "Feature", "properties": { "P29_001": "15202", "P29_002": "C115220200179", "P29_003": "16002", "P29_004": "長岡市立秋葉中学校", "P29_005": "新潟県長岡市上の原町6-3", "P29_006": "3", "P29_007": "1", "P29_008": "00", "P29_009": null }, "geometry": { "type": "Point", "coordinates": [ 138.997054454580649, 37.468583815373137 ] } },
{ "type": "Feature", "properties": { "P29_001": "15202", "P29_002": "C115220200188", "P29_003": "16002", "P29_004": "長岡市立刈谷田中学校", "P29_005": "新潟県長岡市吉水353", "P29_006": "3", "P29_007": "1", "P29_008": "00", "P29_009": null }, "geometry": { "type": "Point", "coordinates": [ 139.008862922725427, 37.483148177713986 ] } },
{ "type": "Feature", "properties": { "P29_001": "15202", "P29_002": "C115220200197", "P29_003": "16002", "P29_004": "長岡市立中之島中学校", "P29_005": "新潟県長岡市中野東2649-1", "P29_006": "3", "P29_007": "1", "P29_008": "00", "P29_009": null }, "geometry": { "type": "Point", "coordinates": [ 138.863229002969177, 37.554441003790039 ] } },
{ "type": "Feature", "properties": { "P29_001": "15202", "P29_002": "C115220200204", "P29_003": "16002", "P29_004": "長岡市立越路中学校", "P29_005": "新潟県長岡市来迎寺甲841-10", "P29_006": "3", "P29_007": "1", "P29_008": "00", "P29_009": null }, "geometry": { "type": "Point", "coordinates": [ 138.776406567499066, 37.395996159854008 ] } },
{ "type": "Feature", "properties": { "P29_001": "15202", "P29_002": "C115220200213", "P29_003": "16002", "P29_004": "長岡市立三島中学校", "P29_005": "新潟県長岡市吉崎617", "P29_006": "3", "P29_007": "1", "P29_008": "00", "P29_009": null }, "geometry": { "type": "Point", "coordinates": [ 138.781302645246626, 37.49781119337122 ] } },
{ "type": "Feature", "properties": { "P29_001": "15202", "P29_002": "C115220200222", "P29_003": "16002", "P29_004": "長岡市立与板中学校", "P29_005": "新潟県長岡市大字東与板200", "P29_006": "3", "P29_007": "1", "P29_008": "00", "P29_009": null }, "geometry": { "type": "Point", "coordinates": [ 138.817556242486717, 37.540781698010811 ] } },
{ "type": "Feature", "properties": { "P29_001": "15202", "P29_002": "C115220200231", "P29_003": "16002", "P29_004": "長岡市立北辰中学校", "P29_005": "新潟県長岡市島崎5687", "P29_006": "3", "P29_007": "1", "P29_008": "00", "P29_009": null }, "geometry": { "type": "Point", "coordinates": [ 138.760897489414504, 37.580714156105891 ] } },
{ "type": "Feature", "properties": { "P29_001": "15202", "P29_002": "C115220200240", "P29_003": "16002", "P29_004": "長岡市立寺泊中学校", "P29_005": "新潟県長岡市寺泊吉1681", "P29_006": "3", "P29_007": "1", "P29_008": "00", "P29_009": null }, "geometry": { "type": "Point", "coordinates": [ 138.787779721370555, 37.629449552158285 ] } },
{ "type": "Feature", "properties": { "P29_001": "15202", "P29_002": "C115220200259", "P29_003": "16002", "P29_004": "長岡市立山古志中学校", "P29_005": "新潟県長岡市古志竹沢乙284", "P29_006": "3", "P29_007": "1", "P29_008": "00", "P29_009": null }, "geometry": { "type": "Point", "coordinates": [ 138.889186782164046, 37.331219226987628 ] } },
{ "type": "Feature", "properties": { "P29_001": "15202", "P29_002": "C115220200268", "P29_003": "16002", "P29_004": "長岡市立川口中学校", "P29_005": "新潟県長岡市西川口951", "P29_006": "3", "P29_007": "1", "P29_008": "00", "P29_009": null }, "geometry": { "type": "Point", "coordinates": [ 138.862989148142049, 37.262241701769348 ] } },
{ "type": "Feature", "properties": { "P29_001": "15202", "P29_002": "C115220200277", "P29_003": "16002", "P29_004": "長岡市立小国中学校", "P29_005": "新潟県長岡市小国町新町673", "P29_006": "3", "P29_007": "1", "P29_008": "00", "P29_009": null }, "geometry": { "type": "Point", "coordinates": [ 138.710034233677675, 37.289347706896031 ] } },
{ "type": "Feature", "properties": { "P29_001": "15204", "P29_002": "C115220400015", "P29_003": "16002", "P29_004": "三条市立第一中学校", "P29_005": "新潟県三条市南四日町1-1-1", "P29_006": "3", "P29_007": "1", "P29_008": "00", "P29_009": null }, "geometry": { "type": "Point", "coordinates": [ 138.957696056283453, 37.623136335602254 ] } },
{ "type": "Feature", "properties": { "P29_001": "15204", "P29_002": "C115220400024", "P29_003": "16002", "P29_004": "三条市立第二中学校", "P29_005": "新潟県三条市興野1-18-1", "P29_006": "3", "P29_007": "1", "P29_008": "00", "P29_009": null }, "geometry": { "type": "Point", "coordinates": [ 138.96826989795855, 37.637710908653958 ] } },
{ "type": "Feature", "properties": { "P29_001": "15204", "P29_002": "C115220400033", "P29_003": "16002", "P29_004": "三条市立第三中学校", "P29_005": "新潟県三条市西裏館2-15-22", "P29_006": "3", "P29_007": "1", "P29_008": "00", "P29_009": null }, "geometry": { "type": "Point", "coordinates": [ 138.957408772033148, 37.638782486081311 ] } },
{ "type": "Feature", "properties": { "P29_001": "15204", "P29_002": "C115220400042", "P29_003": "16002", "P29_004": "三条市立第四中学校", "P29_005": "新潟県三条市井栗1-35-70", "P29_006": "3", "P29_007": "1", "P29_008": "00", "P29_009": null }, "geometry": { "type": "Point", "coordinates": [ 139.002371355624319, 37.64372384054721 ] } },
{ "type": "Feature", "properties": { "P29_001": "15204", "P29_002": "C115220400051", "P29_003": "16002", "P29_004": "三条市立本成寺中学校", "P29_005": "新潟県三条市大字西中145", "P29_006": "3", "P29_007": "1", "P29_008": "00", "P29_009": null }, "geometry": { "type": "Point", "coordinates": [ 138.956926684906904, 37.607537603368684 ] } },
{ "type": "Feature", "properties": { "P29_001": "15204", "P29_002": "C115220400060", "P29_003": "16002", "P29_004": "三条市立大島中学校", "P29_005": "新潟県三条市大島5039", "P29_006": "3", "P29_007": "1", "P29_008": "00", "P29_009": null }, "geometry": { "type": "Point", "coordinates": [ 138.953219004129011, 37.655962001078954 ] } },
{ "type": "Feature", "properties": { "P29_001": "15204", "P29_002": "C115220400079", "P29_003": "16002", "P29_004": "三条市立下田中学校", "P29_005": "新潟県三条市笹岡210", "P29_006": "3", "P29_007": "1", "P29_008": "00", "P29_009": null }, "geometry": { "type": "Point", "coordinates": [ 139.0329071359306, 37.565481374970197 ] } },
{ "type": "Feature", "properties": { "P29_001": "15204", "P29_002": "C115220400088", "P29_003": "16002", "P29_004": "三条市立栄中学校", "P29_005": "新潟県三条市大字新堀2065", "P29_006": "3", "P29_007": "1", "P29_008": "00", "P29_009": null }, "geometry": { "type": "Point", "coordinates": [ 138.92031673168205, 37.5901077515868 ] } },
{ "type": "Feature", "properties": { "P29_001": "15205", "P29_002": "C115220500014", "P29_003": "16002", "P29_004": "柏崎市立第一中学校", "P29_005": "新潟県柏崎市学校町5-27", "P29_006": "3", "P29_007": "1", "P29_008": "00", "P29_009": null }, "geometry": { "type": "Point", "coordinates": [ 138.553862121569011, 37.374494549359817 ] } },
{ "type": "Feature", "properties": { "P29_001": "15205", "P29_002": "C115220500023", "P29_003": "16002", "P29_004": "柏崎市立第二中学校", "P29_005": "新潟県柏崎市比角1-3-6", "P29_006": "3", "P29_007": "1", "P29_008": "00", "P29_009": null }, "geometry": { "type": "Point", "coordinates": [ 138.567903083419282, 37.372315799809272 ] } },
{ "type": "Feature", "properties": { "P29_001": "15205", "P29_002": "C115220500032", "P29_003": "16002", "P29_004": "柏崎市立第三中学校", "P29_005": "新潟県柏崎市新赤坂1-2-10", "P29_006": "3", "P29_007": "1", "P29_008": "00", "P29_009": null }, "geometry": { "type": "Point", "coordinates": [ 138.534686590522455, 37.355593890535296 ] } },
{ "type": "Feature", "properties": { "P29_001": "15205", "P29_002": "C115220500041", "P29_003": "16002", "P29_004": "柏崎市立瑞穂中学校", "P29_005": "新潟県柏崎市小金町2-11", "P29_006": "3", "P29_007": "1", "P29_008": "00", "P29_009": null }, "geometry": { "type": "Point", "coordinates": [ 138.580997480237556, 37.383657908884125 ] } },
{ "type": "Feature", "properties": { "P29_001": "15205", "P29_002": "C115220500050", "P29_003": "16002", "P29_004": "柏崎市立第五中学校", "P29_005": "新潟県柏崎市宮平96-1", "P29_006": "3", "P29_007": "1", "P29_008": "00", "P29_009": null }, "geometry": { "type": "Point", "coordinates": [ 138.62097227827681, 37.294922417235334 ] } },
{ "type": "Feature", "properties": { "P29_001": "15205", "P29_002": "C115220500069", "P29_003": "16002", "P29_004": "柏崎市立松浜中学校", "P29_005": "新潟県柏崎市松波3-7-5", "P29_006": "3", "P29_007": "1", "P29_008": "00", "P29_009": null }, "geometry": { "type": "Point", "coordinates": [ 138.574900632232101, 37.398505929420644 ] } },
{ "type": "Feature", "properties": { "P29_001": "15205", "P29_002": "C115220500078", "P29_003": "16002", "P29_004": "柏崎市立鏡が沖中学校", "P29_005": "新潟県柏崎市大字枇杷島2842-1", "P29_006": "3", "P29_007": "1", "P29_008": "00", "P29_009": null }, "geometry": { "type": "Point", "coordinates": [ 138.564517775077348, 37.35545851772055 ] } },
{ "type": "Feature", "properties": { "P29_001": "15205", "P29_002": "C115220500087", "P29_003": "16002", "P29_004": "柏崎市立南中学校", "P29_005": "新潟県柏崎市大字新道3447", "P29_006": "3", "P29_007": "1", "P29_008": "00", "P29_009": null }, "geometry": { "type": "Point", "coordinates": [ 138.566116880615709, 37.331156938606313 ] } },
{ "type": "Feature", "properties": { "P29_001": "15205", "P29_002": "C115220500096", "P29_003": "16002", "P29_004": "柏崎市立北条中学校", "P29_005": "新潟県柏崎市大字北条1996", "P29_006": "3", "P29_007": "1", "P29_008": "00", "P29_009": null }, "geometry": { "type": "Point", "coordinates": [ 138.64400400001665, 37.342250207881442 ] } },
{ "type": "Feature", "properties": { "P29_001": "15205", "P29_002": "C115220500103", "P29_003": "16002", "P29_004": "柏崎市立東中学校", "P29_005": "新潟県柏崎市下田尻2002-1", "P29_006": "3", "P29_007": "1", "P29_008": "00", "P29_009": null }, "geometry": { "type": "Point", "coordinates": [ 138.606228973993865, 37.360123612010035 ] } },
{ "type": "Feature", "properties": { "P29_001": "15205", "P29_002": "C115220500112", "P29_003": "16002", "P29_004": "柏崎市立西山中学校", "P29_005": "新潟県柏崎市西山町鬼王179", "P29_006": "3", "P29_007": "1", "P29_008": "00", "P29_009": null }, "geometry": { "type": "Point", "coordinates": [ 138.661154676969318, 37.454761781308996 ] } },
{ "type": "Feature", "properties": { "P29_001": "15206", "P29_002": "C115220600013", "P29_003": "16002", "P29_004": "新発田市立本丸中学校", "P29_005": "新潟県新発田市緑町2-7-22", "P29_006": "3", "P29_007": "1", "P29_008": "00", "P29_009": null }, "geometry": { "type": "Point", "coordinates": [ 139.33452888618848, 37.958449860661645 ] } },
{ "type": "Feature", "properties": { "P29_001": "15206", "P29_002": "C115220600022", "P29_003": "16002", "P29_004": "新発田市立第一中学校", "P29_005": "新潟県新発田市御幸町4-5-25", "P29_006": "3", "P29_007": "1", "P29_008": "00", "P29_009": null }, "geometry": { "type": "Point", "coordinates": [ 139.316644960475088, 37.941977892420113 ] } },
{ "type": "Feature", "properties": { "P29_001": "15206", "P29_002": "C115220600031", "P29_003": "16002", "P29_004": "新発田市立猿橋中学校", "P29_005": "新潟県新発田市住吉町1-7-1", "P29_006": "3", "P29_007": "1", "P29_008": "00", "P29_009": null }, "geometry": { "type": "Point", "coordinates": [ 139.311874986497884, 37.951916024154713 ] } },
{ "type": "Feature", "properties": { "P29_001": "15206", "P29_002": "C115220600040", "P29_003": "16002", "P29_004": "新発田市立川東中学校", "P29_005": "新潟県新発田市下羽津1566-1", "P29_006": "3", "P29_007": "1", "P29_008": "00", "P29_009": null }, "geometry": { "type": "Point", "coordinates": [ 139.386725150901214, 37.933388821418525 ] } },
{ "type": "Feature", "properties": { "P29_001": "15206", "P29_002": "C115220600059", "P29_003": "16002", "P29_004": "新発田市立佐々木中学校", "P29_005": "新潟県新発田市則清102", "P29_006": "3", "P29_007": "1", "P29_008": "00", "P29_009": null }, "geometry": { "type": "Point", "coordinates": [ 139.287847885345627, 37.940571356112301 ] } },
{ "type": "Feature", "properties": { "P29_001": "15206", "P29_002": "C115220600068", "P29_003": "16002", "P29_004": "新発田市立東中学校", "P29_005": "新潟県新発田市五十公野4981", "P29_006": "3", "P29_007": "1", "P29_008": "00", "P29_009": null }, "geometry": { "type": "Point", "coordinates": [ 139.351902338588502, 37.928809029113147 ] } },
{ "type": "Feature", "properties": { "P29_001": "15206", "P29_002": "C115220600077", "P29_003": "16002", "P29_004": "新発田市立七葉中学校", "P29_005": "新潟県新発田市上館乙84-2", "P29_006": "3", "P29_007": "1", "P29_008": "00", "P29_009": null }, "geometry": { "type": "Point", "coordinates": [ 139.362150920163145, 37.971426598625612 ] } },
{ "type": "Feature", "properties": { "P29_001": "15206", "P29_002": "C115220600086", "P29_003": "16002", "P29_004": "新発田市立豊浦中学校", "P29_005": "新潟県新発田市乙次50", "P29_006": "3", "P29_007": "1", "P29_008": "00", "P29_009": null }, "geometry": { "type": "Point", "coordinates": [ 139.305244230955878, 37.912127480313544 ] } },
{ "type": "Feature", "properties": { "P29_001": "15206", "P29_002": "C115220600095", "P29_003": "16002", "P29_004": "新発田市立加治川中学校", "P29_005": "新潟県新発田市川口330", "P29_006": "3", "P29_007": "1", "P29_008": "00", "P29_009": null }, "geometry": { "type": "Point", "coordinates": [ 139.362541875862803, 37.989762000736114 ] } },
{ "type": "Feature", "properties": { "P29_001": "15206", "P29_002": "C115220600102", "P29_003": "16002", "P29_004": "新発田市立紫雲寺中学校", "P29_005": "新潟県新発田市真野原外3499", "P29_006": "3", "P29_007": "1", "P29_008": "00", "P29_009": null }, "geometry": { "type": "Point", "coordinates": [ 139.31688634035649, 38.015058954762644 ] } },
{ "type": "Feature", "properties": { "P29_001": "15208", "P29_002": "C115220800011", "P29_003": "16002", "P29_004": "小千谷市立小千谷中学校", "P29_005": "新潟県小千谷市城内4-3-26", "P29_006": "3", "P29_007": "1", "P29_008": "00", "P29_009": null }, "geometry": { "type": "Point", "coordinates": [ 138.788781546158845, 37.310840335814476 ] } },
{ "type": "Feature", "properties": { "P29_001": "15208", "P29_002": "C115220800020", "P29_003": "16002", "P29_004": "小千谷市立東小千谷中学校", "P29_005": "新潟県小千谷市東栄3-6-14", "P29_006": "3", "P29_007": "1", "P29_008": "00", "P29_009": null }, "geometry": { "type": "Point", "coordinates": [ 138.811102793387136, 37.311323205728037 ] } },
{ "type": "Feature", "properties": { "P29_001": "15208", "P29_002": "C115220800039", "P29_003": "16002", "P29_004": "小千谷市立千田中学校", "P29_005": "新潟県小千谷市大字千谷甲1617", "P29_006": "3", "P29_007": "1", "P29_008": "00", "P29_009": null }, "geometry": { "type": "Point", "coordinates": [ 138.802946271042657, 37.330645508212982 ] } },
{ "type": "Feature", "properties": { "P29_001": "15208", "P29_002": "C115220800048", "P29_003": "16002", "P29_004": "小千谷市立片貝中学校", "P29_005": "新潟県小千谷市片貝町8787-2", "P29_006": "3", "P29_007": "1", "P29_008": "00", "P29_009": null }, "geometry": { "type": "Point", "coordinates": [ 138.770835155111371, 37.363709701406179 ] } },
{ "type": "Feature", "properties": { "P29_001": "15208", "P29_002": "C115220800057", "P29_003": "16002", "P29_004": "小千谷市立南中学校", "P29_005": "新潟県小千谷市真人町丁678", "P29_006": "3", "P29_007": "1", "P29_008": "00", "P29_009": null }, "geometry": { "type": "Point", "coordinates": [ 138.804011526430884, 37.253496842095224 ] } },
{ "type": "Feature", "properties": { "P29_001": "15209", "P29_002": "C115220900010", "P29_003": "16002", "P29_004": "加茂市立加茂中学校", "P29_005": "新潟県加茂市学校町1-1", "P29_006": "3", "P29_007": "1", "P29_008": "00", "P29_009": null }, "geometry": { "type": "Point", "coordinates": [ 139.057048522974839, 37.66872539275986 ] } },
{ "type": "Feature", "properties": { "P29_001": "15209", "P29_002": "C115220900029", "P29_003": "16002", "P29_004": "加茂市立葵中学校", "P29_005": "新潟県加茂市矢立15-1", "P29_006": "3", "P29_007": "1", "P29_008": "00", "P29_009": null }, "geometry": { "type": "Point", "coordinates": [ 139.048729122481973, 37.653501171405829 ] } },
{ "type": "Feature", "properties": { "P29_001": "15209", "P29_002": "C115220900038", "P29_003": "16002", "P29_004": "加茂市立七谷中学校", "P29_005": "新潟県加茂市下高柳25", "P29_006": "3", "P29_007": "1", "P29_008": "00", "P29_009": null }, "geometry": { "type": "Point", "coordinates": [ 139.103685450417998, 37.614324526976148 ] } },
{ "type": "Feature", "properties": { "P29_001": "15209", "P29_002": "C115220900047", "P29_003": "16002", "P29_004": "加茂市立若宮中学校", "P29_005": "新潟県加茂市若宮町1-21-12", "P29_006": "3", "P29_007": "1", "P29_008": "00", "P29_009": null }, "geometry": { "type": "Point", "coordinates": [ 139.068340698730651, 37.65254948399479 ] } },
{ "type": "Feature", "properties": { "P29_001": "15209", "P29_002": "C115220900056", "P29_003": "16002", "P29_004": "加茂市立須田中学校", "P29_005": "新潟県加茂市大字後須田809", "P29_006": "3", "P29_007": "1", "P29_008": "00", "P29_009": null }, "geometry": { "type": "Point", "coordinates": [ 139.020975044607127, 37.693308186481865 ] } },
{ "type": "Feature", "properties": { "P29_001": "15210", "P29_002": "C115221000017", "P29_003": "16002", "P29_004": "十日町市立十日町中学校", "P29_005": "新潟県十日町市新座甲2-10", "P29_006": "3", "P29_007": "1", "P29_008": "00", "P29_009": null }, "geometry": { "type": "Point", "coordinates": [ 138.766719079982664, 37.137077303718165 ] } },
{ "type": "Feature", "properties": { "P29_001": "15210", "P29_002": "C115221000026", "P29_003": "16002", "P29_004": "十日町市立中条中学校", "P29_005": "新潟県十日町市中条甲569-1", "P29_006": "3", "P29_007": "1", "P29_008": "00", "P29_009": null }, "geometry": { "type": "Point", "coordinates": [ 138.769309742032192, 37.159084639396355 ] } },
{ "type": "Feature", "properties": { "P29_001": "15210", "P29_002": "C115221000035", "P29_003": "16002", "P29_004": "十日町市立南中学校", "P29_005": "新潟県十日町市北新田142-1", "P29_006": "3", "P29_007": "1", "P29_008": "00", "P29_009": null }, "geometry": { "type": "Point", "coordinates": [ 138.746592353599937, 37.126974477755859 ] } },
{ "type": "Feature", "properties": { "P29_001": "15210", "P29_002": "C115221000044", "P29_003": "16002", "P29_004": "十日町市立吉田中学校", "P29_005": "新潟県十日町市小泉106", "P29_006": "3", "P29_007": "1", "P29_008": "00", "P29_009": null }, "geometry": { "type": "Point", "coordinates": [ 138.725838533934393, 37.139355320560249 ] } },
{ "type": "Feature", "properties": { "P29_001": "15210", "P29_002": "C115221000053", "P29_003": "16002", "P29_004": "十日町市立下条中学校", "P29_005": "新潟県十日町市下条4-241", "P29_006": "3", "P29_007": "1", "P29_008": "00", "P29_009": null }, "geometry": { "type": "Point", "coordinates": [ 138.777534310855316, 37.201140604466602 ] } },
{ "type": "Feature", "properties": { "P29_001": "15210", "P29_002": "C115221000062", "P29_003": "16002", "P29_004": "十日町市立水沢中学校", "P29_005": "新潟県十日町市馬場丁2006", "P29_006": "3", "P29_007": "1", "P29_008": "00", "P29_009": null }, "geometry": { "type": "Point", "coordinates": [ 138.732038283641998, 37.092085908577133 ] } },
{ "type": "Feature", "properties": { "P29_001": "15210", "P29_002": "C115221000071", "P29_003": "16002", "P29_004": "十日町市立川西中学校", "P29_005": "新潟県十日町市霜条51", "P29_006": "3", "P29_007": "1", "P29_008": "00", "P29_009": null }, "geometry": { "type": "Point", "coordinates": [ 138.74322400965039, 37.171638767079273 ] } },
{ "type": "Feature", "properties": { "P29_001": "15210", "P29_002": "C115221000080", "P29_003": "16002", "P29_004": "十日町市立中里中学校", "P29_005": "新潟県十日町市桔梗原キ1301", "P29_006": "3", "P29_007": "1", "P29_008": "00", "P29_009": null }, "geometry": { "type": "Point", "coordinates": [ 138.694646057047237, 37.045697693282861 ] } },
{ "type": "Feature", "properties": { "P29_001": "15210", "P29_002": "C115221000099", "P29_003": "16002", "P29_004": "十日町市立松代中学校", "P29_005": "新潟県十日町市松代5562-1", "P29_006": "3", "P29_007": "1", "P29_008": "00", "P29_009": null }, "geometry": { "type": "Point", "coordinates": [ 138.605382002180164, 37.132319002313054 ] } },
{ "type": "Feature", "properties": { "P29_001": "15210", "P29_002": "C115221000106", "P29_003": "16002", "P29_004": "十日町市立松之山中学校", "P29_005": "新潟県十日町市松之山1162-3", "P29_006": "3", "P29_007": "1", "P29_008": "00", "P29_009": null }, "geometry": { "type": "Point", "coordinates": [ 138.60224228976864, 37.088097382551133 ] } },
{ "type": "Feature", "properties": { "P29_001": "15211", "P29_002": "C115221100016", "P29_003": "16002", "P29_004": "見附市立見附中学校", "P29_005": "新潟県見附市島切窪町644-2", "P29_006": "3", "P29_007": "1", "P29_008": "00", "P29_009": null }, "geometry": { "type": "Point", "coordinates": [ 138.931801281701809, 37.533054741535402 ] } },
{ "type": "Feature", "properties": { "P29_001": "15211", "P29_002": "C115221100025", "P29_003": "16002", "P29_004": "見附市立今町中学校", "P29_005": "新潟県見附市今町4-1-7", "P29_006": "3", "P29_007": "1", "P29_008": "00", "P29_009": null }, "geometry": { "type": "Point", "coordinates": [ 138.888230728605066, 37.547428716028257 ] } },
{ "type": "Feature", "properties": { "P29_001": "15211", "P29_002": "C115221100034", "P29_003": "16002", "P29_004": "見附市立南中学校", "P29_005": "新潟県見附市名木野町714", "P29_006": "3", "P29_007": "1", "P29_008": "00", "P29_009": null }, "geometry": { "type": "Point", "coordinates": [ 138.924807051499982, 37.512331209358841 ] } },
{ "type": "Feature", "properties": { "P29_001": "15211", "P29_002": "C115221100043", "P29_003": "16002", "P29_004": "見附市立西中学校", "P29_005": "新潟県見附市野坪127", "P29_006": "3", "P29_007": "1", "P29_008": "00", "P29_009": null }, "geometry": { "type": "Point", "coordinates": [ 138.906259717465559, 37.528785460448709 ] } },
{ "type": "Feature", "properties": { "P29_001": "15212", "P29_002": "C115221200015", "P29_003": "16002", "P29_004": "村上市立岩船中学校", "P29_005": "新潟県村上市八日市9-23", "P29_006": "3", "P29_007": "1", "P29_008": "00", "P29_009": null }, "geometry": { "type": "Point", "coordinates": [ 139.441851163602507, 38.185979384633072 ] } },
{ "type": "Feature", "properties": { "P29_001": "15212", "P29_002": "C115221200024", "P29_003": "16002", "P29_004": "村上市立村上第一中学校", "P29_005": "新潟県村上市大欠1-70", "P29_006": "3", "P29_007": "1", "P29_008": "00", "P29_009": null }, "geometry": { "type": "Point", "coordinates": [ 139.468194344063591, 38.225569900965347 ] } },
{ "type": "Feature", "properties": { "P29_001": "15212", "P29_002": "C115221200033", "P29_003": "16002", "P29_004": "村上市立村上東中学校", "P29_005": "新潟県村上市大字山辺里1788", "P29_006": "3", "P29_007": "1", "P29_008": "00", "P29_009": null }, "geometry": { "type": "Point", "coordinates": [ 139.489556865444399, 38.232261099724965 ] } },
{ "type": "Feature", "properties": { "P29_001": "15212", "P29_002": "C115221200042", "P29_003": "16002", "P29_004": "村上市立神林中学校", "P29_005": "新潟県村上市有明1380", "P29_006": "3", "P29_007": "1", "P29_008": "00", "P29_009": null }, "geometry": { "type": "Point", "coordinates": [ 139.475378815060026, 38.179883998150679 ] } },
{ "type": "Feature", "properties": { "P29_001": "15212", "P29_002": "C115221200051", "P29_003": "16002", "P29_004": "村上市立荒川中学校", "P29_005": "新潟県村上市坂町2510", "P29_006": "3", "P29_007": "1", "P29_008": "00", "P29_009": null }, "geometry": { "type": "Point", "coordinates": [ 139.451676217170302, 38.122669368294083 ] } },
{ "type": "Feature", "properties": { "P29_001": "15212", "P29_002": "C115221200060", "P29_003": "16002", "P29_004": "村上市立朝日中学校", "P29_005": "新潟県村上市岩沢5577", "P29_006": "3", "P29_007": "1", "P29_008": "00", "P29_009": null }, "geometry": { "type": "Point", "coordinates": [ 139.540266368130318, 38.270086207075778 ] } },
{ "type": "Feature", "properties": { "P29_001": "15212", "P29_002": "C115221200079", "P29_003": "16002", "P29_004": "村上市立山北中学校", "P29_005": "新潟県村上市府屋655-3", "P29_006": "3", "P29_007": "1", "P29_008": "00", "P29_009": null }, "geometry": { "type": "Point", "coordinates": [ 139.542476786354626, 38.516823732599029 ] } },
{ "type": "Feature", "properties": { "P29_001": "15213", "P29_002": "C115221300014", "P29_003": "16002", "P29_004": "燕市立燕中学校", "P29_005": "新潟県燕市秋葉町4-8-71", "P29_006": "3", "P29_007": "1", "P29_008": "00", "P29_009": null }, "geometry": { "type": "Point", "coordinates": [ 138.913106219695663, 37.663187350774827 ] } },
{ "type": "Feature", "properties": { "P29_001": "15213", "P29_002": "C115221300023", "P29_003": "16002", "P29_004": "燕市立小池中学校", "P29_005": "新潟県燕市道金1095-1", "P29_006": "3", "P29_007": "1", "P29_008": "00", "P29_009": null }, "geometry": { "type": "Point", "coordinates": [ 138.914202809245637, 37.643090498265451 ] } },
{ "type": "Feature", "properties": { "P29_001": "15213", "P29_002": "C115221300032", "P29_003": "16002", "P29_004": "燕市立燕北中学校", "P29_005": "新潟県燕市三王渕1940", "P29_006": "3", "P29_007": "1", "P29_008": "00", "P29_009": null }, "geometry": { "type": "Point", "coordinates": [ 138.945129859309844, 37.687497235308712 ] } },
{ "type": "Feature", "properties": { "P29_001": "15213", "P29_002": "C115221300041", "P29_003": "16002", "P29_004": "燕市立分水中学校", "P29_005": "新潟県燕市分水向陽1-1", "P29_006": "3", "P29_007": "1", "P29_008": "00", "P29_009": null }, "geometry": { "type": "Point", "coordinates": [ 138.840124854871931, 37.636005471028682 ] } },
{ "type": "Feature", "properties": { "P29_001": "15213", "P29_002": "C115221300050", "P29_003": "16002", "P29_004": "燕市立吉田中学校", "P29_005": "新潟県燕市吉田文京町1-1", "P29_006": "3", "P29_007": "1", "P29_008": "00", "P29_009": null }, "geometry": { "type": "Point", "coordinates": [ 138.879822800347597, 37.702430484771547 ] } },
{ "type": "Feature", "properties": { "P29_001": "15216", "P29_002": "C115221600011", "P29_003": "16002", "P29_004": "糸魚川市立糸魚川東中学校", "P29_005": "新潟県糸魚川市梶屋敷433", "P29_006": "3", "P29_007": "1", "P29_008": "00", "P29_009": null }, "geometry": { "type": "Point", "coordinates": [ 137.914132781632759, 37.051792023144003 ] } },
{ "type": "Feature", "properties": { "P29_001": "15216", "P29_002": "C115221600020", "P29_003": "16002", "P29_004": "糸魚川市立糸魚川中学校", "P29_005": "新潟県糸魚川市上刈4-1-1", "P29_006": "3", "P29_007": "1", "P29_008": "00", "P29_009": null }, "geometry": { "type": "Point", "coordinates": [ 137.859422009869377, 37.034312869517372 ] } },
{ "type": "Feature", "properties": { "P29_001": "15216", "P29_002": "C115221600039", "P29_003": "16002", "P29_004": "糸魚川市立能生中学校", "P29_005": "新潟県糸魚川市大字能生2643", "P29_006": "3", "P29_007": "1", "P29_008": "00", "P29_009": null }, "geometry": { "type": "Point", "coordinates": [ 137.991404182455227, 37.095197905393206 ] } },
{ "type": "Feature", "properties": { "P29_001": "15216", "P29_002": "C115221600048", "P29_003": "16002", "P29_004": "糸魚川市立青海中学校", "P29_005": "新潟県糸魚川市寺地1160", "P29_006": "3", "P29_007": "1", "P29_008": "00", "P29_009": null }, "geometry": { "type": "Point", "coordinates": [ 137.810605089006543, 37.021504674785909 ] } },
{ "type": "Feature", "properties": { "P29_001": "15217", "P29_002": "C115221700010", "P29_003": "16002", "P29_004": "妙高市立新井中学校", "P29_005": "新潟県妙高市錦町1-2-1", "P29_006": "3", "P29_007": "1", "P29_008": "00", "P29_009": null }, "geometry": { "type": "Point", "coordinates": [ 138.241594115668164, 37.018632197778828 ] } },
{ "type": "Feature", "properties": { "P29_001": "15217", "P29_002": "C115221700029", "P29_003": "16002", "P29_004": "妙高市立妙高高原中学校", "P29_005": "新潟県妙高市大字関川762", "P29_006": "3", "P29_007": "1", "P29_008": "00", "P29_009": null }, "geometry": { "type": "Point", "coordinates": [ 138.202505363157314, 36.870037991938119 ] } },
{ "type": "Feature", "properties": { "P29_001": "15217", "P29_002": "C115221700038", "P29_003": "16002", "P29_004": "妙高市立妙高中学校", "P29_005": "新潟県妙高市大字関山1660", "P29_006": "3", "P29_007": "1", "P29_008": "00", "P29_009": null }, "geometry": { "type": "Point", "coordinates": [ 138.224383331467862, 36.932861544261918 ] } },
{ "type": "Feature", "properties": { "P29_001": "15218", "P29_002": "C115221800019", "P29_003": "16002", "P29_004": "五泉市立五泉中学校", "P29_005": "新潟県五泉市南本町2-1-87", "P29_006": "3", "P29_007": "1", "P29_008": "00", "P29_009": null }, "geometry": { "type": "Point", "coordinates": [ 139.177597260098253, 37.732664107456841 ] } },
{ "type": "Feature", "properties": { "P29_001": "15218", "P29_002": "C115221800028", "P29_003": "16002", "P29_004": "五泉市立川東中学校", "P29_005": "新潟県五泉市猿和田181", "P29_006": "3", "P29_007": "1", "P29_008": "00", "P29_009": null }, "geometry": { "type": "Point", "coordinates": [ 139.224747838705724, 37.728960551501046 ] } },
{ "type": "Feature", "properties": { "P29_001": "15218", "P29_002": "C115221800037", "P29_003": "16002", "P29_004": "五泉市立五泉北中学校", "P29_005": "新潟県五泉市三本木2-7-1", "P29_006": "3", "P29_007": "1", "P29_008": "00", "P29_009": null }, "geometry": { "type": "Point", "coordinates": [ 139.172911701230476, 37.754404998854852 ] } },
{ "type": "Feature", "properties": { "P29_001": "15218", "P29_002": "C115221800046", "P29_003": "16002", "P29_004": "五泉市立村松桜中学校", "P29_005": "新潟県五泉市愛宕甲2705-1", "P29_006": "3", "P29_007": "1", "P29_008": "00", "P29_009": null }, "geometry": { "type": "Point", "coordinates": [ 139.193686692186049, 37.689407709905105 ] } },
{ "type": "Feature", "properties": { "P29_001": "15222", "P29_002": "C115222200013", "P29_003": "16002", "P29_004": "上越市立城北中学校", "P29_005": "新潟県上越市栄町4-24", "P29_006": "3", "P29_007": "1", "P29_008": "00", "P29_009": null }, "geometry": { "type": "Point", "coordinates": [ 138.249860218990932, 37.123863133348863 ] } },
{ "type": "Feature", "properties": { "P29_001": "15222", "P29_002": "C115222200022", "P29_003": "16002", "P29_004": "上越市立城西中学校", "P29_005": "新潟県上越市南新町3-3", "P29_006": "3", "P29_007": "1", "P29_008": "00", "P29_009": null }, "geometry": { "type": "Point", "coordinates": [ 138.245653875133087, 37.09865020381833 ] } },
{ "type": "Feature", "properties": { "P29_001": "15222", "P29_002": "C115222200031", "P29_003": "16002", "P29_004": "上越市立城東中学校", "P29_005": "新潟県上越市本城町4-60", "P29_006": "3", "P29_007": "1", "P29_008": "00", "P29_009": null }, "geometry": { "type": "Point", "coordinates": [ 138.261050696991077, 37.112287542314434 ] } },
{ "type": "Feature", "properties": { "P29_001": "15222", "P29_002": "C115222200040", "P29_003": "16002", "P29_004": "上越市立八千浦中学校", "P29_005": "新潟県上越市下荒浜879", "P29_006": "3", "P29_007": "1", "P29_008": "00", "P29_009": null }, "geometry": { "type": "Point", "coordinates": [ 138.279020779748123, 37.195149667253474 ] } },
{ "type": "Feature", "properties": { "P29_001": "15222", "P29_002": "C115222200059", "P29_003": "16002", "P29_004": "上越市立直江津中学校", "P29_005": "新潟県上越市西本町4-15-2", "P29_006": "3", "P29_007": "1", "P29_008": "00", "P29_009": null }, "geometry": { "type": "Point", "coordinates": [ 138.237648883941205, 37.174391170627771 ] } },
{ "type": "Feature", "properties": { "P29_001": "15222", "P29_002": "C115222200068", "P29_003": "16002", "P29_004": "上越市立直江津東中学校", "P29_005": "新潟県上越市安江282-1", "P29_006": "3", "P29_007": "1", "P29_008": "00", "P29_009": null }, "geometry": { "type": "Point", "coordinates": [ 138.267979825432974, 37.168723663399355 ] } },
{ "type": "Feature", "properties": { "P29_001": "15222", "P29_002": "C115222200077", "P29_003": "16002", "P29_004": "上越市立春日中学校", "P29_005": "新潟県上越市春日野1-9-3", "P29_006": "3", "P29_007": "1", "P29_008": "00", "P29_009": null }, "geometry": { "type": "Point", "coordinates": [ 138.233524258165033, 37.150514525440052 ] } },
{ "type": "Feature", "properties": { "P29_001": "15222", "P29_002": "C115222200086", "P29_003": "16002", "P29_004": "上越市立雄志中学校", "P29_005": "新潟県上越市大字下池部707", "P29_006": "3", "P29_007": "1", "P29_008": "00", "P29_009": null }, "geometry": { "type": "Point", "coordinates": [ 138.296260513863132, 37.114510400518576 ] } },
{ "type": "Feature", "properties": { "P29_001": "15222", "P29_002": "C115222200095", "P29_003": "16002", "P29_004": "上越市立潮陵中学校", "P29_005": "新潟県上越市西戸野24", "P29_006": "3", "P29_007": "1", "P29_008": "00", "P29_009": null }, "geometry": { "type": "Point", "coordinates": [ 138.144708516835664, 37.156671096973525 ] } },
{ "type": "Feature", "properties": { "P29_001": "15222", "P29_002": "C115222200102", "P29_003": "16002", "P29_004": "上越市立安塚中学校", "P29_005": "新潟県上越市安塚区石橋6", "P29_006": "3", "P29_007": "1", "P29_008": "00", "P29_009": null }, "geometry": { "type": "Point", "coordinates": [ 138.450989609477006, 37.115166263780864 ] } },
{ "type": "Feature", "properties": { "P29_001": "15222", "P29_002": "C115222200111", "P29_003": "16002", "P29_004": "上越市立浦川原中学校", "P29_005": "新潟県上越市浦川原区顕聖寺350", "P29_006": "3", "P29_007": "1", "P29_008": "00", "P29_009": null }, "geometry": { "type": "Point", "coordinates": [ 138.424004019599124, 37.159666395747614 ] } },
{ "type": "Feature", "properties": { "P29_001": "15222", "P29_002": "C115222200120", "P29_003": "16002", "P29_004": "上越市立大島中学校", "P29_005": "新潟県上越市上越市大島区上達600", "P29_006": "3", "P29_007": "1", "P29_008": "00", "P29_009": null }, "geometry": { "type": "Point", "coordinates": [ 138.50612814234978, 37.139914658115302 ] } },
{ "type": "Feature", "properties": { "P29_001": "15222", "P29_002": "C115222200139", "P29_003": "16002", "P29_004": "上越市立牧中学校", "P29_005": "新潟県上越市牧区小川1752", "P29_006": "3", "P29_007": "1", "P29_008": "00", "P29_009": null }, "geometry": { "type": "Point", "coordinates": [ 138.388752037376094, 37.07445533470235 ] } },
{ "type": "Feature", "properties": { "P29_001": "15222", "P29_002": "C115222200148", "P29_003": "16002", "P29_004": "上越市立柿崎中学校", "P29_005": "新潟県上越市柿崎区法音寺392-1", "P29_006": "3", "P29_007": "1", "P29_008": "00", "P29_009": null }, "geometry": { "type": "Point", "coordinates": [ 138.399932146781424, 37.283717991307093 ] } },
{ "type": "Feature", "properties": { "P29_001": "15222", "P29_002": "C115222200157", "P29_003": "16002", "P29_004": "上越市立大潟町中学校", "P29_005": "新潟県上越市大潟区潟町575", "P29_006": "3", "P29_007": "1", "P29_008": "00", "P29_009": null }, "geometry": { "type": "Point", "coordinates": [ 138.334076228046797, 37.231986479505544 ] } },
{ "type": "Feature", "properties": { "P29_001": "15222", "P29_002": "C115222200166", "P29_003": "16002", "P29_004": "上越市立頸城中学校", "P29_005": "新潟県上越市潟口60", "P29_006": "3", "P29_007": "1", "P29_008": "00", "P29_009": null }, "geometry": { "type": "Point", "coordinates": [ 138.328977535941902, 37.190688457166459 ] } },
{ "type": "Feature", "properties": { "P29_001": "15222", "P29_002": "C115222200175", "P29_003": "16002", "P29_004": "上越市立吉川中学校", "P29_005": "新潟県上越市吉川区下町1130", "P29_006": "3", "P29_007": "1", "P29_008": "00", "P29_009": null }, "geometry": { "type": "Point", "coordinates": [ 138.408429208973189, 37.219991568383293 ] } },
{ "type": "Feature", "properties": { "P29_001": "15222", "P29_002": "C115222200184", "P29_003": "16002", "P29_004": "上越市立中郷中学校", "P29_005": "新潟県上越市中郷区二本木663", "P29_006": "3", "P29_007": "1", "P29_008": "00", "P29_009": null }, "geometry": { "type": "Point", "coordinates": [ 138.235550192113607, 36.988396727019605 ] } },
{ "type": "Feature", "properties": { "P29_001": "15222", "P29_002": "C115222200193", "P29_003": "16002", "P29_004": "上越市立板倉中学校", "P29_005": "新潟県上越市板倉区針1034-1", "P29_006": "3", "P29_007": "1", "P29_008": "00", "P29_009": null }, "geometry": { "type": "Point", "coordinates": [ 138.296862346589336, 37.049977393315913 ] } },
{ "type": "Feature", "properties": { "P29_001": "15222", "P29_002": "C115222200200", "P29_003": "16002", "P29_004": "上越市立清里中学校", "P29_005": "新潟県上越市清里区岡野町1525", "P29_006": "3", "P29_007": "1", "P29_008": "00", "P29_009": null }, "geometry": { "type": "Point", "coordinates": [ 138.332114527993696, 37.079607308607173 ] } },
{ "type": "Feature", "properties": { "P29_001": "15222", "P29_002": "C115222200219", "P29_003": "16002", "P29_004": "上越市立三和中学校", "P29_005": "新潟県上越市上越市三和区島倉2267", "P29_006": "3", "P29_007": "1", "P29_008": "00", "P29_009": null }, "geometry": { "type": "Point", "coordinates": [ 138.35103379435958, 37.135516295544463 ] } },
{ "type": "Feature", "properties": { "P29_001": "15222", "P29_002": "C115222200228", "P29_003": "16002", "P29_004": "上越市立名立中学校", "P29_005": "新潟県上越市名立区赤野俣532-1", "P29_006": "3", "P29_007": "1", "P29_008": "00", "P29_009": null }, "geometry": { "type": "Point", "coordinates": [ 138.092943792917907, 37.153151319079619 ] } },
{ "type": "Feature", "properties": { "P29_001": "15223", "P29_002": "C115222300012", "P29_003": "16002", "P29_004": "阿賀野市立安田中学校", "P29_005": "新潟県阿賀野市保田4419", "P29_006": "3", "P29_007": "1", "P29_008": "00", "P29_009": null }, "geometry": { "type": "Point", "coordinates": [ 139.237175123265132, 37.770805535040331 ] } },
{ "type": "Feature", "properties": { "P29_001": "15223", "P29_002": "C115222300021", "P29_003": "16002", "P29_004": "阿賀野市立京ヶ瀬中学校", "P29_005": "新潟県阿賀野市姥ヶ橋739", "P29_006": "3", "P29_007": "1", "P29_008": "00", "P29_009": null }, "geometry": { "type": "Point", "coordinates": [ 139.183147221635011, 37.841172572295633 ] } },
{ "type": "Feature", "properties": { "P29_001": "15223", "P29_002": "C115222300030", "P29_003": "16002", "P29_004": "阿賀野市立水原中学校", "P29_005": "新潟県阿賀野市学校町9-9", "P29_006": "3", "P29_007": "1", "P29_008": "00", "P29_009": null }, "geometry": { "type": "Point", "coordinates": [ 139.225857938874213, 37.82896301939639 ] } },
{ "type": "Feature", "properties": { "P29_001": "15223", "P29_002": "C115222300049", "P29_003": "16002", "P29_004": "阿賀野市立笹神中学校", "P29_005": "新潟県阿賀野市笹岡200", "P29_006": "3", "P29_007": "1", "P29_008": "00", "P29_009": null }, "geometry": { "type": "Point", "coordinates": [ 139.265252761546606, 37.840972520736493 ] } },
{ "type": "Feature", "properties": { "P29_001": "15224", "P29_002": "C115222400011", "P29_003": "16002", "P29_004": "佐渡市立内海府中学校", "P29_005": "新潟県佐渡市鷲崎918", "P29_006": "3", "P29_007": "1", "P29_008": "00", "P29_009": null }, "geometry": { "type": "Point", "coordinates": [ 138.51257768139368, 38.319566715738702 ] } },
{ "type": "Feature", "properties": { "P29_001": "15224", "P29_002": "C115222400020", "P29_003": "16002", "P29_004": "佐渡市立前浜中学校", "P29_005": "新潟県佐渡市水津858", "P29_006": "3", "P29_007": "1", "P29_008": "00", "P29_009": null }, "geometry": { "type": "Point", "coordinates": [ 138.570076219937931, 38.077812531468851 ] } },
{ "type": "Feature", "properties": { "P29_001": "15224", "P29_002": "C115222400039", "P29_003": "16002", "P29_004": "佐渡市立両津中学校", "P29_005": "新潟県佐渡市加茂歌代1449", "P29_006": "3", "P29_007": "1", "P29_008": "00", "P29_009": null }, "geometry": { "type": "Point", "coordinates": [ 138.428157162038076, 38.091143810921842 ] } },
{ "type": "Feature", "properties": { "P29_001": "15224", "P29_002": "C115222400048", "P29_003": "16002", "P29_004": "佐渡市立南佐渡中学校", "P29_005": "新潟県佐渡市羽茂本郷47", "P29_006": "3", "P29_007": "1", "P29_008": "00", "P29_009": null }, "geometry": { "type": "Point", "coordinates": [ 138.312069064867217, 37.841791242335319 ] } },
{ "type": "Feature", "properties": { "P29_001": "15224", "P29_002": "C115222400057", "P29_003": "16002", "P29_004": "佐渡市立相川中学校", "P29_005": "新潟県佐渡市相川下戸村210", "P29_006": "3", "P29_007": "1", "P29_008": "00", "P29_009": null }, "geometry": { "type": "Point", "coordinates": [ 138.244320115319965, 38.023852719587047 ] } },
{ "type": "Feature", "properties": { "P29_001": "15224", "P29_002": "C115222400066", "P29_003": "16002", "P29_004": "佐渡市立高千中学校", "P29_005": "新潟県佐渡市入川1872-1", "P29_006": "3", "P29_007": "1", "P29_008": "00", "P29_009": null }, "geometry": { "type": "Point", "coordinates": [ 138.320745081677131, 38.183256233294806 ] } },
{ "type": "Feature", "properties": { "P29_001": "15224", "P29_002": "C115222400075", "P29_003": "16002", "P29_004": "佐渡市立佐和田中学校", "P29_005": "新潟県佐渡市窪田60", "P29_006": "3", "P29_007": "1", "P29_008": "00", "P29_009": null }, "geometry": { "type": "Point", "coordinates": [ 138.312654259278219, 38.008242046458804 ] } },
{ "type": "Feature", "properties": { "P29_001": "15224", "P29_002": "C115222400084", "P29_003": "16002", "P29_004": "佐渡市立金井中学校", "P29_005": "新潟県佐渡市金井新保乙40", "P29_006": "3", "P29_007": "1", "P29_008": "00", "P29_009": null }, "geometry": { "type": "Point", "coordinates": [ 138.368864663093092, 38.024428792906384 ] } },
{ "type": "Feature", "properties": { "P29_001": "15224", "P29_002": "C115222400093", "P29_003": "16002", "P29_004": "佐渡市立新穂中学校", "P29_005": "新潟県佐渡市新穂瓜生屋719", "P29_006": "3", "P29_007": "1", "P29_008": "00", "P29_009": null }, "geometry": { "type": "Point", "coordinates": [ 138.430807348816899, 38.01734801252563 ] } },
{ "type": "Feature", "properties": { "P29_001": "15224", "P29_002": "C115222400100", "P29_003": "16002", "P29_004": "佐渡市立畑野中学校", "P29_005": "新潟県佐渡市畑野甲250", "P29_006": "3", "P29_007": "1", "P29_008": "00", "P29_009": null }, "geometry": { "type": "Point", "coordinates": [ 138.39899841884008, 37.988406621092935 ] } },
{ "type": "Feature", "properties": { "P29_001": "15224", "P29_002": "C115222400119", "P29_003": "16002", "P29_004": "佐渡市立松ヶ崎中学校", "P29_005": "新潟県佐渡市多田139", "P29_006": "3", "P29_007": "1", "P29_008": "00", "P29_009": null }, "geometry": { "type": "Point", "coordinates": [ 138.477777342917761, 37.914370270789334 ] } },
{ "type": "Feature", "properties": { "P29_001": "15224", "P29_002": "C115222400128", "P29_003": "16002", "P29_004": "佐渡市立真野中学校", "P29_005": "新潟県佐渡市名古屋145", "P29_006": "3", "P29_007": "1", "P29_008": "00", "P29_009": null }, "geometry": { "type": "Point", "coordinates": [ 138.349311564248694, 37.970679920000855 ] } },
{ "type": "Feature", "properties": { "P29_001": "15224", "P29_002": "C115222400137", "P29_003": "16002", "P29_004": "佐渡市立赤泊中学校", "P29_005": "新潟県佐渡市赤泊2457", "P29_006": "3", "P29_007": "1", "P29_008": "00", "P29_009": null }, "geometry": { "type": "Point", "coordinates": [ 138.409706995812144, 37.864695998408365 ] } },
{ "type": "Feature", "properties": { "P29_001": "15225", "P29_002": "C115222500010", "P29_003": "16002", "P29_004": "魚沼市立堀之内中学校", "P29_005": "新潟県魚沼市堀之内208", "P29_006": "3", "P29_007": "1", "P29_008": "00", "P29_009": null }, "geometry": { "type": "Point", "coordinates": [ 138.922503502213289, 37.246736059753196 ] } },
{ "type": "Feature", "properties": { "P29_001": "15225", "P29_002": "C115222500029", "P29_003": "16002", "P29_004": "魚沼市立魚沼北中学校", "P29_005": "新潟県魚沼市須原1423", "P29_006": "3", "P29_007": "1", "P29_008": "00", "P29_009": null }, "geometry": { "type": "Point", "coordinates": [ 139.018364795451447, 37.319801748089503 ] } },
{ "type": "Feature", "properties": { "P29_001": "15225", "P29_002": "C115222500038", "P29_003": "16002", "P29_004": "魚沼市立小出中学校", "P29_005": "新潟県魚沼市古新田225-2", "P29_006": "3", "P29_007": "1", "P29_008": "00", "P29_009": null }, "geometry": { "type": "Point", "coordinates": [ 138.963680638736548, 37.219192037368344 ] } },
{ "type": "Feature", "properties": { "P29_001": "15225", "P29_002": "C115222500047", "P29_003": "16002", "P29_004": "魚沼市立湯之谷中学校", "P29_005": "新潟県魚沼市七日市32", "P29_006": "3", "P29_007": "1", "P29_008": "00", "P29_009": null }, "geometry": { "type": "Point", "coordinates": [ 138.985785809968405, 37.229615088711832 ] } },
{ "type": "Feature", "properties": { "P29_001": "15225", "P29_002": "C115222500056", "P29_003": "16002", "P29_004": "魚沼市立広神中学校", "P29_005": "新潟県魚沼市田尻320-1", "P29_006": "3", "P29_007": "1", "P29_008": "00", "P29_009": null }, "geometry": { "type": "Point", "coordinates": [ 138.971403116510601, 37.260124675417039 ] } },
{ "type": "Feature", "properties": { "P29_001": "15226", "P29_002": "C115222600019", "P29_003": "16002", "P29_004": "南魚沼市立塩沢中学校", "P29_005": "新潟県南魚沼市中778-1", "P29_006": "3", "P29_007": "1", "P29_008": "00", "P29_009": null }, "geometry": { "type": "Point", "coordinates": [ 138.850517781940624, 37.03031274034084 ] } },
{ "type": "Feature", "properties": { "P29_001": "15226", "P29_002": "C115222600028", "P29_003": "16002", "P29_004": "南魚沼市立六日町中学校", "P29_005": "新潟県南魚沼市六日町282", "P29_006": "3", "P29_007": "1", "P29_008": "00", "P29_009": null }, "geometry": { "type": "Point", "coordinates": [ 138.870774700118062, 37.068793274359564 ] } },
{ "type": "Feature", "properties": { "P29_001": "15226", "P29_002": "C115222600037", "P29_003": "16002", "P29_004": "南魚沼市立大和中学校", "P29_005": "新潟県南魚沼市浦佐5278-2", "P29_006": "3", "P29_007": "1", "P29_008": "00", "P29_009": null }, "geometry": { "type": "Point", "coordinates": [ 138.93243347195596, 37.167464659578997 ] } },
{ "type": "Feature", "properties": { "P29_001": "15226", "P29_002": "C115222600046", "P29_003": "16002", "P29_004": "南魚沼市立八海中学校", "P29_005": "新潟県南魚沼市上原129-6", "P29_006": "3", "P29_007": "1", "P29_008": "00", "P29_009": null }, "geometry": { "type": "Point", "coordinates": [ 138.931794851368011, 37.094396362081739 ] } },
{ "type": "Feature", "properties": { "P29_001": "15227", "P29_002": "C115222700018", "P29_003": "16002", "P29_004": "胎内市立中条中学校", "P29_005": "新潟県胎内市東本町16-57", "P29_006": "3", "P29_007": "1", "P29_008": "00", "P29_009": null }, "geometry": { "type": "Point", "coordinates": [ 139.407347343277678, 38.057921366265717 ] } },
{ "type": "Feature", "properties": { "P29_001": "15227", "P29_002": "C115222700027", "P29_003": "16002", "P29_004": "胎内市立乙中学校", "P29_005": "新潟県胎内市大出1773-10", "P29_006": "3", "P29_007": "1", "P29_008": "00", "P29_009": null }, "geometry": { "type": "Point", "coordinates": [ 139.392227366145221, 38.105515622518617 ] } },
{ "type": "Feature", "properties": { "P29_001": "15227", "P29_002": "C115222700036", "P29_003": "16002", "P29_004": "胎内市立築地中学校", "P29_005": "新潟県胎内市築地3713", "P29_006": "3", "P29_007": "1", "P29_008": "00", "P29_009": null }, "geometry": { "type": "Point", "coordinates": [ 139.359181997382706, 38.064783003650746 ] } },
{ "type": "Feature", "properties": { "P29_001": "15227", "P29_002": "C115222700045", "P29_003": "16002", "P29_004": "胎内市立黒川中学校", "P29_005": "新潟県胎内市太田野原62-62", "P29_006": "3", "P29_007": "1", "P29_008": "00", "P29_009": null }, "geometry": { "type": "Point", "coordinates": [ 139.460642439318633, 38.057715716105875 ] } },
{ "type": "Feature", "properties": { "P29_001": "15307", "P29_002": "C115230700011", "P29_003": "16002", "P29_004": "聖籠町立聖籠中学校", "P29_005": "新潟県北蒲原郡聖籠町蓮潟366-1", "P29_006": "3", "P29_007": "1", "P29_008": "00", "P29_009": null }, "geometry": { "type": "Point", "coordinates": [ 139.276283516281779, 37.985193516766749 ] } },
{ "type": "Feature", "properties": { "P29_001": "15342", "P29_002": "C115234200018", "P29_003": "16002", "P29_004": "弥彦村立弥彦中学校", "P29_005": "新潟県西蒲原郡弥彦村矢作4785", "P29_006": "3", "P29_007": "1", "P29_008": "00", "P29_009": null }, "geometry": { "type": "Point", "coordinates": [ 138.851895179003776, 37.693805107009325 ] } },
{ "type": "Feature", "properties": { "P29_001": "15361", "P29_002": "C115236100014", "P29_003": "16002", "P29_004": "田上町立田上中学校", "P29_005": "新潟県南蒲原郡田上町大字原ヶ崎新田2700", "P29_006": "3", "P29_007": "1", "P29_008": "00", "P29_009": null }, "geometry": { "type": "Point", "coordinates": [ 139.070693715901342, 37.69492282897918 ] } },
{ "type": "Feature", "properties": { "P29_001": "15385", "P29_002": "C115238500016", "P29_003": "16002", "P29_004": "阿賀町立阿賀津川中学校", "P29_005": "新潟県東蒲原郡阿賀町津川260", "P29_006": "3", "P29_007": "1", "P29_008": "00", "P29_009": null }, "geometry": { "type": "Point", "coordinates": [ 139.46366102226682, 37.67707516161569 ] } },
{ "type": "Feature", "properties": { "P29_001": "15385", "P29_002": "C115238500025", "P29_003": "16002", "P29_004": "阿賀町立三川中学校", "P29_005": "新潟県東蒲原郡阿賀町白崎2500-1", "P29_006": "3", "P29_007": "1", "P29_008": "00", "P29_009": null }, "geometry": { "type": "Point", "coordinates": [ 139.383030843976456, 37.710715461321357 ] } },
{ "type": "Feature", "properties": { "P29_001": "15405", "P29_002": "C115240500012", "P29_003": "16002", "P29_004": "出雲崎町立出雲崎中学校", "P29_005": "新潟県三島郡出雲崎町米田745", "P29_006": "3", "P29_007": "1", "P29_008": "00", "P29_009": null }, "geometry": { "type": "Point", "coordinates": [ 138.705746137115028, 37.535905361987474 ] } },
{ "type": "Feature", "properties": { "P29_001": "15461", "P29_002": "C115246100013", "P29_003": "16002", "P29_004": "湯沢町立湯沢中学校", "P29_005": "新潟県南魚沼郡湯沢町神立1580", "P29_006": "3", "P29_007": "1", "P29_008": "00", "P29_009": null }, "geometry": { "type": "Point", "coordinates": [ 138.831926813027991, 36.927575137906189 ] } },
{ "type": "Feature", "properties": { "P29_001": "15482", "P29_002": "C115248200018", "P29_003": "16002", "P29_004": "津南町立津南中学校", "P29_005": "新潟県中魚沼郡津南町大字下船渡丁1666", "P29_006": "3", "P29_007": "1", "P29_008": "00", "P29_009": null }, "geometry": { "type": "Point", "coordinates": [ 138.653268002120399, 37.018727626806495 ] } },
{ "type": "Feature", "properties": { "P29_001": "15504", "P29_002": "C115250400012", "P29_003": "16002", "P29_004": "刈羽村立刈羽中学校", "P29_005": "新潟県刈羽郡刈羽村刈羽1014", "P29_006": "3", "P29_007": "1", "P29_008": "00", "P29_009": null }, "geometry": { "type": "Point", "coordinates": [ 138.61907761016397, 37.425339172263122 ] } },
{ "type": "Feature", "properties": { "P29_001": "15581", "P29_002": "C115258100018", "P29_003": "16002", "P29_004": "関川村立関川中学校", "P29_005": "新潟県岩船郡関川村大字上関589-2", "P29_006": "3", "P29_007": "1", "P29_008": "00", "P29_009": null }, "geometry": { "type": "Point", "coordinates": [ 139.566695967372567, 38.088020898475598 ] } },
{ "type": "Feature", "properties": { "P29_001": "15586", "P29_002": "C115258600013", "P29_003": "16002", "P29_004": "粟島浦村立粟島浦中学校", "P29_005": "新潟県岩船郡粟島浦村162", "P29_006": "3", "P29_007": "1", "P29_008": "00", "P29_009": null }, "geometry": { "type": "Point", "coordinates": [ 139.253252264359929, 38.462744615305361 ] } },
{ "type": "Feature", "properties": { "P29_001": "15103", "P29_002": "C115310000018", "P29_003": "16002", "P29_004": "新潟第一中学校", "P29_005": "新潟県新潟市中央区関新3-3-1", "P29_006": "4", "P29_007": "1", "P29_008": "00", "P29_009": null }, "geometry": { "type": "Point", "coordinates": [ 139.018439712804735, 37.905858868223902 ] } },
{ "type": "Feature", "properties": { "P29_001": "15104", "P29_002": "C115310000027", "P29_003": "16002", "P29_004": "新潟明訓中学校", "P29_005": "新潟県新潟市江南区北山1037", "P29_006": "4", "P29_007": "1", "P29_008": "00", "P29_009": null }, "geometry": { "type": "Point", "coordinates": [ 139.113460190516889, 37.88145817285659 ] } },
{ "type": "Feature", "properties": { "P29_001": "15107", "P29_002": "C115310000036", "P29_003": "16002", "P29_004": "新潟清心女子中学校", "P29_005": "新潟県新潟市西区五十嵐1の町6370", "P29_006": "4", "P29_007": "1", "P29_008": "00", "P29_009": null }, "geometry": { "type": "Point", "coordinates": [ 138.9571852492696, 37.880111387691471 ] } },
{ "type": "Feature", "properties": { "P29_001": "15202", "P29_002": "C115320200015", "P29_003": "16002", "P29_004": "帝京長岡中学校", "P29_005": "新潟県長岡市住吉3-9-1", "P29_006": "4", "P29_007": "1", "P29_008": "00", "P29_009": null }, "geometry": { "type": "Point", "coordinates": [ 138.855091189066968, 37.436929705960502 ] } }
]
}
