{
"type": "FeatureCollection",
"name": "geo_15_高校",
"crs": { "type": "name", "properties": { "name": "urn:ogc:def:crs:EPSG::6668" } },
"features": [
{ "type": "Feature", "properties": { "P29_001": "15101", "P29_002": "D115210000018", "P29_003": "16004", "P29_004": "新潟県立豊栄高等学校", "P29_005": "新潟県新潟市北区上土地亀大曲761", "P29_006": "2", "P29_007": "0", "P29_008": "00", "P29_009": null }, "geometry": { "type": "Point", "coordinates": [ 139.208378454834275, 37.911520208836436 ] } },
{ "type": "Feature", "properties": { "P29_001": "15102", "P29_002": "D115210000027", "P29_003": "16004", "P29_004": "新潟県立新潟東高等学校", "P29_005": "新潟県新潟市東区小金町2-6-1", "P29_006": "2", "P29_007": "0", "P29_008": "00", "P29_009": null }, "geometry": { "type": "Point", "coordinates": [ 139.099179393962686, 37.938458891268894 ] } },
{ "type": "Feature", "properties": { "P29_001": "15102", "P29_002": "D115210000036", "P29_003": "16004", "P29_004": "新潟県立新潟北高等学校", "P29_005": "新潟県新潟市東区本所字居浦847-1", "P29_006": "2", "P29_007": "0", "P29_008": "00", "P29_009": null }, "geometry": { "type": "Point", "coordinates": [ 139.131540031200103, 37.918664365528294 ] } },
{ "type": "Feature", "properties": { "P29_001": "15103", "P29_002": "D115210000045", "P29_003": "16004", "P29_004": "新潟県立新潟高等学校", "P29_005": "新潟県新潟市中央区関屋下川原町2-635", "P29_006": "2", "P29_007": "0", "P29_008": "00", "P29_009": null }, "geometry": { "type": "Point", "coordinates": [ 139.023404011652076, 37.915192847395311 ] } },
{ "type": "Feature", "properties": { "P29_001": "15103", "P29_002": "D115210000054", "P29_003": "16004", "P29_004": "新潟県立新潟中央高等学校", "P29_005": "新潟県新潟市中央区学校町通2番町5317-1", "P29_006": "2", "P29_007": "0", "P29_008": "00", "P29_009": null }, "geometry": { "type": "Point", "coordinates": [ 139.030907005311462, 37.918529997447678 ] } },
{ "type": "Feature", "properties": { "P29_001": "15103", "P29_002": "D115210000063", "P29_003": "16004", "P29_004": "新潟県立新潟南高等学校", "P29_005": "新潟県新潟市中央区上所1-3-1", "P29_006": "2", "P29_007": "0", "P29_008": "00", "P29_009": null }, "geometry": { "type": "Point", "coordinates": [ 139.043842826971712, 37.908733860652696 ] } },
{ "type": "Feature", "properties": { "P29_001": "15103", "P29_002": "D115210000072", "P29_003": "16004", "P29_004": "新潟県立新潟商業高等学校", "P29_005": "新潟県新潟市中央区白山浦2-68-2", "P29_006": "2", "P29_007": "0", "P29_008": "00", "P29_009": null }, "geometry": { "type": "Point", "coordinates": [ 139.027154308450605, 37.915104242805313 ] } },
{ "type": "Feature", "properties": { "P29_001": "15103", "P29_002": "D115210000081", "P29_003": "16004", "P29_004": "新潟県立新潟江南高等学校", "P29_005": "新潟県新潟市中央区女池南3-6-1", "P29_006": "2", "P29_007": "0", "P29_008": "00", "P29_009": null }, "geometry": { "type": "Point", "coordinates": [ 139.04268542935236, 37.8879954485705 ] } },
{ "type": "Feature", "properties": { "P29_001": "15103", "P29_002": "D115210000090", "P29_003": "16004", "P29_004": "新潟市立万代高等学校", "P29_005": "新潟県新潟市中央区沼垂東6-8-1", "P29_006": "3", "P29_007": "0", "P29_008": "00", "P29_009": null }, "geometry": { "type": "Point", "coordinates": [ 139.068832017634918, 37.926274019152608 ] } },
{ "type": "Feature", "properties": { "P29_001": "15103", "P29_002": "D115210000107", "P29_003": "16004", "P29_004": "新潟市立明鏡高等学校", "P29_005": "新潟県新潟市中央区沼垂東6-11-1", "P29_006": "3", "P29_007": "0", "P29_008": "00", "P29_009": null }, "geometry": { "type": "Point", "coordinates": [ 139.068860384746841, 37.927031941723122 ] } },
{ "type": "Feature", "properties": { "P29_001": "15104", "P29_002": "D115210000116", "P29_003": "16004", "P29_004": "新潟県立新潟向陽高等学校", "P29_005": "新潟県新潟市江南区亀田向陽4-3-1", "P29_006": "2", "P29_007": "0", "P29_008": "00", "P29_009": null }, "geometry": { "type": "Point", "coordinates": [ 139.108747438407619, 37.881102894921284 ] } },
{ "type": "Feature", "properties": { "P29_001": "15105", "P29_002": "D115210000125", "P29_003": "16004", "P29_004": "新潟県立新津高等学校", "P29_005": "新潟県新潟市秋葉区秋葉1-19-1", "P29_006": "2", "P29_007": "0", "P29_008": "00", "P29_009": null }, "geometry": { "type": "Point", "coordinates": [ 139.130855883867667, 37.789445816264099 ] } },
{ "type": "Feature", "properties": { "P29_001": "15105", "P29_002": "D115210000134", "P29_003": "16004", "P29_004": "新潟県立新津工業高等学校", "P29_005": "新潟県新潟市秋葉区新津東町1-12-9", "P29_006": "2", "P29_007": "0", "P29_008": "00", "P29_009": null }, "geometry": { "type": "Point", "coordinates": [ 139.140972830452256, 37.804253698922707 ] } },
{ "type": "Feature", "properties": { "P29_001": "15105", "P29_002": "D115210000143", "P29_003": "16004", "P29_004": "新潟県立新津南高等学校", "P29_005": "新潟県新潟市秋葉区矢代田3200-1", "P29_006": "2", "P29_007": "0", "P29_008": "00", "P29_009": null }, "geometry": { "type": "Point", "coordinates": [ 139.101702723032531, 37.754682328389052 ] } },
{ "type": "Feature", "properties": { "P29_001": "15106", "P29_002": "D115210000152", "P29_003": "16004", "P29_004": "新潟県立白根高等学校", "P29_005": "新潟県新潟市南区上下諏訪木1214", "P29_006": "2", "P29_007": "0", "P29_008": "00", "P29_009": null }, "geometry": { "type": "Point", "coordinates": [ 139.028660746030226, 37.765204294522853 ] } },
{ "type": "Feature", "properties": { "P29_001": "15107", "P29_002": "D115210000161", "P29_003": "16004", "P29_004": "新潟県立新潟工業高等学校", "P29_005": "新潟県新潟市西区小新西1-5-1", "P29_006": "2", "P29_007": "0", "P29_008": "00", "P29_009": null }, "geometry": { "type": "Point", "coordinates": [ 138.995167334280666, 37.876367204227151 ] } },
{ "type": "Feature", "properties": { "P29_001": "15107", "P29_002": "D115210000170", "P29_003": "16004", "P29_004": "新潟県立新潟西高等学校", "P29_005": "新潟県新潟市西区内野西が丘3-24-1", "P29_006": "2", "P29_007": "0", "P29_008": "00", "P29_009": null }, "geometry": { "type": "Point", "coordinates": [ 138.919784534358428, 37.847176360088305 ] } },
{ "type": "Feature", "properties": { "P29_001": "15107", "P29_002": "D115210000189", "P29_003": "16004", "P29_004": "新潟県立新潟翠江高等学校", "P29_005": "新潟県新潟市西区金巻1657", "P29_006": "2", "P29_007": "0", "P29_008": "00", "P29_009": null }, "geometry": { "type": "Point", "coordinates": [ 138.998005057228767, 37.838976952447595 ] } },
{ "type": "Feature", "properties": { "P29_001": "15108", "P29_002": "D115210000198", "P29_003": "16004", "P29_004": "新潟県立巻高等学校", "P29_005": "新潟県新潟市西蒲区巻乙30-1", "P29_006": "2", "P29_007": "0", "P29_008": "00", "P29_009": null }, "geometry": { "type": "Point", "coordinates": [ 138.880878188781026, 37.762663145146952 ] } },
{ "type": "Feature", "properties": { "P29_001": "15108", "P29_002": "D115210000205", "P29_003": "16004", "P29_004": "新潟県立巻総合高等学校", "P29_005": "新潟県新潟市西蒲区巻甲4295-1", "P29_006": "2", "P29_007": "0", "P29_008": "00", "P29_009": null }, "geometry": { "type": "Point", "coordinates": [ 138.890747362006465, 37.755000931630434 ] } },
{ "type": "Feature", "properties": { "P29_001": "15202", "P29_002": "D115220200015", "P29_003": "16004", "P29_004": "新潟県立長岡高等学校", "P29_005": "新潟県長岡市学校町3-14-1", "P29_006": "2", "P29_007": "0", "P29_008": "00", "P29_009": null }, "geometry": { "type": "Point", "coordinates": [ 138.85935822730184, 37.444582368698796 ] } },
{ "type": "Feature", "properties": { "P29_001": "15202", "P29_002": "D115220200024", "P29_003": "16004", "P29_004": "新潟県立長岡大手高等学校", "P29_005": "新潟県長岡市沖田2-357", "P29_006": "2", "P29_007": "0", "P29_008": "00", "P29_009": null }, "geometry": { "type": "Point", "coordinates": [ 138.863759746403247, 37.446478869784485 ] } },
{ "type": "Feature", "properties": { "P29_001": "15202", "P29_002": "D115220200033", "P29_003": "16004", "P29_004": "新潟県立長岡農業高等学校", "P29_005": "新潟県長岡市曲新町3-13-1", "P29_006": "2", "P29_007": "0", "P29_008": "00", "P29_009": null }, "geometry": { "type": "Point", "coordinates": [ 138.84304634722227, 37.420793506596432 ] } },
{ "type": "Feature", "properties": { "P29_001": "15202", "P29_002": "D115220200042", "P29_003": "16004", "P29_004": "新潟県立長岡工業高等学校", "P29_005": "新潟県長岡市幸町2-7-70", "P29_006": "2", "P29_007": "0", "P29_008": "00", "P29_009": null }, "geometry": { "type": "Point", "coordinates": [ 138.840388163947125, 37.438982524404437 ] } },
{ "type": "Feature", "properties": { "P29_001": "15202", "P29_002": "D115220200051", "P29_003": "16004", "P29_004": "新潟県立長岡商業高等学校", "P29_005": "新潟県長岡市西片貝町字大木1726", "P29_006": "2", "P29_007": "0", "P29_008": "00", "P29_009": null }, "geometry": { "type": "Point", "coordinates": [ 138.887060650751465, 37.453576905620778 ] } },
{ "type": "Feature", "properties": { "P29_001": "15202", "P29_002": "D115220200060", "P29_003": "16004", "P29_004": "新潟県立長岡明徳高等学校", "P29_005": "新潟県長岡市水道町3-5-1", "P29_006": "2", "P29_007": "0", "P29_008": "00", "P29_009": null }, "geometry": { "type": "Point", "coordinates": [ 138.846410425846159, 37.456202565700536 ] } },
{ "type": "Feature", "properties": { "P29_001": "15202", "P29_002": "D115220200079", "P29_003": "16004", "P29_004": "新潟県立長岡向陵高等学校", "P29_005": "新潟県長岡市喜多町字川原1030-1", "P29_006": "2", "P29_007": "0", "P29_008": "00", "P29_009": null }, "geometry": { "type": "Point", "coordinates": [ 138.805864819918753, 37.448862732498405 ] } },
{ "type": "Feature", "properties": { "P29_001": "15202", "P29_002": "D115220200088", "P29_003": "16004", "P29_004": "新潟県立栃尾高等学校", "P29_005": "新潟県長岡市金沢1-2-1", "P29_006": "2", "P29_007": "0", "P29_008": "00", "P29_009": null }, "geometry": { "type": "Point", "coordinates": [ 138.996195295505402, 37.479865358179332 ] } },
{ "type": "Feature", "properties": { "P29_001": "15202", "P29_002": "D115220200097", "P29_003": "16004", "P29_004": "新潟県立正徳館高等学校", "P29_005": "新潟県長岡市与板町東与板173", "P29_006": "2", "P29_007": "0", "P29_008": "00", "P29_009": null }, "geometry": { "type": "Point", "coordinates": [ 138.816080192907236, 37.542991494579226 ] } },
{ "type": "Feature", "properties": { "P29_001": "15204", "P29_002": "D115220400013", "P29_003": "16004", "P29_004": "新潟県立三条高等学校", "P29_005": "新潟県三条市月岡1-2-1", "P29_006": "2", "P29_007": "0", "P29_008": "00", "P29_009": null }, "geometry": { "type": "Point", "coordinates": [ 138.963744044944264, 37.61550273657965 ] } },
{ "type": "Feature", "properties": { "P29_001": "15204", "P29_002": "D115220400022", "P29_003": "16004", "P29_004": "新潟県立三条東高等学校", "P29_005": "新潟県三条市北入蔵2-9-36", "P29_006": "2", "P29_007": "0", "P29_008": "00", "P29_009": null }, "geometry": { "type": "Point", "coordinates": [ 138.986618309875723, 37.63729205867115 ] } },
{ "type": "Feature", "properties": { "P29_001": "15204", "P29_002": "D115220400031", "P29_003": "16004", "P29_004": "新潟県立三条商業高等学校", "P29_005": "新潟県三条市田島2-24-8", "P29_006": "2", "P29_007": "0", "P29_008": "00", "P29_009": null }, "geometry": { "type": "Point", "coordinates": [ 138.973175179107869, 37.624536033683768 ] } },
{ "type": "Feature", "properties": { "P29_001": "15204", "P29_002": "D115220400040", "P29_003": "16004", "P29_004": "新潟県立新潟県央工業高等学校", "P29_005": "新潟県三条市東本成寺13-1", "P29_006": "2", "P29_007": "0", "P29_008": "00", "P29_009": null }, "geometry": { "type": "Point", "coordinates": [ 138.950202117797915, 37.617338221659814 ] } },
{ "type": "Feature", "properties": { "P29_001": "15205", "P29_002": "D115220500012", "P29_003": "16004", "P29_004": "新潟県立柏崎高等学校", "P29_005": "新潟県柏崎市学校町4-1", "P29_006": "2", "P29_007": "0", "P29_008": "00", "P29_009": null }, "geometry": { "type": "Point", "coordinates": [ 138.556656107324869, 37.371912017071665 ] } },
{ "type": "Feature", "properties": { "P29_001": "15205", "P29_002": "D115220500021", "P29_003": "16004", "P29_004": "新潟県立柏崎常盤高等学校", "P29_005": "新潟県柏崎市比角1-5-57", "P29_006": "2", "P29_007": "0", "P29_008": "00", "P29_009": null }, "geometry": { "type": "Point", "coordinates": [ 138.568360876271157, 37.373450356329698 ] } },
{ "type": "Feature", "properties": { "P29_001": "15205", "P29_002": "D115220500030", "P29_003": "16004", "P29_004": "新潟県立柏崎総合高等学校", "P29_005": "新潟県柏崎市元城町1-1", "P29_006": "2", "P29_007": "0", "P29_008": "00", "P29_009": null }, "geometry": { "type": "Point", "coordinates": [ 138.553178746369866, 37.353229450238267 ] } },
{ "type": "Feature", "properties": { "P29_001": "15205", "P29_002": "D115220500049", "P29_003": "16004", "P29_004": "新潟県立柏崎工業高等学校", "P29_005": "新潟県柏崎市栄町5-16", "P29_006": "2", "P29_007": "0", "P29_008": "00", "P29_009": null }, "geometry": { "type": "Point", "coordinates": [ 138.557352443363612, 37.374771205069557 ] } },
{ "type": "Feature", "properties": { "P29_001": "15206", "P29_002": "D115220600011", "P29_003": "16004", "P29_004": "新潟県立新発田高等学校", "P29_005": "新潟県新発田市豊町3-7-6", "P29_006": "2", "P29_007": "0", "P29_008": "00", "P29_009": null }, "geometry": { "type": "Point", "coordinates": [ 139.336619479872297, 37.939694205755956 ] } },
{ "type": "Feature", "properties": { "P29_001": "15206", "P29_002": "D115220600020", "P29_003": "16004", "P29_004": "新潟県立西新発田高等学校", "P29_005": "新潟県新発田市西園町3-1-2", "P29_006": "2", "P29_007": "0", "P29_008": "00", "P29_009": null }, "geometry": { "type": "Point", "coordinates": [ 139.319886478056446, 37.953570250142484 ] } },
{ "type": "Feature", "properties": { "P29_001": "15206", "P29_002": "D115220600039", "P29_003": "16004", "P29_004": "新潟県立新発田農業高等学校", "P29_005": "新潟県新発田市大栄町6-4-23", "P29_006": "2", "P29_007": "0", "P29_008": "00", "P29_009": null }, "geometry": { "type": "Point", "coordinates": [ 139.326117697985381, 37.941196529365357 ] } },
{ "type": "Feature", "properties": { "P29_001": "15206", "P29_002": "D115220600057", "P29_003": "16004", "P29_004": "新潟県立新発田南高等学校", "P29_005": "新潟県新発田市大栄町3-6-6", "P29_006": "2", "P29_007": "0", "P29_008": "00", "P29_009": null }, "geometry": { "type": "Point", "coordinates": [ 139.324470360396873, 37.941383736976405 ] } },
{ "type": "Feature", "properties": { "P29_001": "15206", "P29_002": "D115220600066", "P29_003": "16004", "P29_004": "新潟県立新発田商業高等学校", "P29_005": "新潟県新発田市板敷521-1", "P29_006": "2", "P29_007": "0", "P29_008": "00", "P29_009": null }, "geometry": { "type": "Point", "coordinates": [ 139.350292531264046, 37.950292115879243 ] } },
{ "type": "Feature", "properties": { "P29_001": "15208", "P29_002": "D115220800019", "P29_003": "16004", "P29_004": "新潟県立小千谷高等学校", "P29_005": "新潟県小千谷市旭町7-1", "P29_006": "2", "P29_007": "0", "P29_008": "00", "P29_009": null }, "geometry": { "type": "Point", "coordinates": [ 138.811278078526783, 37.306769883917077 ] } },
{ "type": "Feature", "properties": { "P29_001": "15208", "P29_002": "D115220800028", "P29_003": "16004", "P29_004": "新潟県立小千谷西高等学校", "P29_005": "新潟県小千谷市城内3-3-11", "P29_006": "2", "P29_007": "0", "P29_008": "00", "P29_009": null }, "geometry": { "type": "Point", "coordinates": [ 138.789603779479251, 37.314632861180343 ] } },
{ "type": "Feature", "properties": { "P29_001": "15209", "P29_002": "D115220900018", "P29_003": "16004", "P29_004": "新潟県立加茂高等学校", "P29_005": "新潟県加茂市幸町1-17-13", "P29_006": "2", "P29_007": "0", "P29_008": "00", "P29_009": null }, "geometry": { "type": "Point", "coordinates": [ 139.044428461349582, 37.665471224061093 ] } },
{ "type": "Feature", "properties": { "P29_001": "15209", "P29_002": "D115220900027", "P29_003": "16004", "P29_004": "新潟県立加茂農林高等学校", "P29_005": "新潟県加茂市神明町2-15-5", "P29_006": "2", "P29_007": "0", "P29_008": "00", "P29_009": null }, "geometry": { "type": "Point", "coordinates": [ 139.060457953475947, 37.663463476651508 ] } },
{ "type": "Feature", "properties": { "P29_001": "15210", "P29_002": "D115221000015", "P29_003": "16004", "P29_004": "新潟県立十日町高等学校", "P29_005": "新潟県十日町市本町西1-203", "P29_006": "2", "P29_007": "0", "P29_008": "00", "P29_009": null }, "geometry": { "type": "Point", "coordinates": [ 138.758044196302194, 37.129027449702434 ] } },
{ "type": "Feature", "properties": { "P29_001": "15210", "P29_002": "D115221000024", "P29_003": "16004", "P29_004": "新潟県立十日町総合高等学校", "P29_005": "新潟県十日町市高山4-461", "P29_006": "2", "P29_007": "0", "P29_008": "00", "P29_009": null }, "geometry": { "type": "Point", "coordinates": [ 138.745773146037294, 37.132778691650834 ] } },
{ "type": "Feature", "properties": { "P29_001": "15210", "P29_002": "D115221000033", "P29_003": "16004", "P29_004": "新潟県立十日町高等学校松之山分校", "P29_005": "新潟県十日町市松之山光間39-1", "P29_006": "2", "P29_007": "0", "P29_008": "00", "P29_009": null }, "geometry": { "type": "Point", "coordinates": [ 138.607272082516545, 37.091276179013256 ] } },
{ "type": "Feature", "properties": { "P29_001": "15210", "P29_002": "D115221000042", "P29_003": "16004", "P29_004": "新潟県立松代高等学校", "P29_005": "新潟県十日町市松代4003-1", "P29_006": "2", "P29_007": "0", "P29_008": "00", "P29_009": null }, "geometry": { "type": "Point", "coordinates": [ 138.620036816003505, 37.134847223453626 ] } },
{ "type": "Feature", "properties": { "P29_001": "15211", "P29_002": "D115221100014", "P29_003": "16004", "P29_004": "新潟県立見附高等学校", "P29_005": "新潟県見附市本所1-20-6", "P29_006": "2", "P29_007": "0", "P29_008": "00", "P29_009": null }, "geometry": { "type": "Point", "coordinates": [ 138.909193887131181, 37.540008534211495 ] } },
{ "type": "Feature", "properties": { "P29_001": "15212", "P29_002": "D115221200013", "P29_003": "16004", "P29_004": "新潟県立村上高等学校", "P29_005": "新潟県村上市田端町7-12", "P29_006": "2", "P29_007": "0", "P29_008": "00", "P29_009": null }, "geometry": { "type": "Point", "coordinates": [ 139.466362412553195, 38.218710451808931 ] } },
{ "type": "Feature", "properties": { "P29_001": "15212", "P29_002": "D115221200022", "P29_003": "16004", "P29_004": "新潟県立村上桜ケ丘高等学校", "P29_005": "新潟県村上市飯野桜ヶ丘10-25", "P29_006": "2", "P29_007": "0", "P29_008": "00", "P29_009": null }, "geometry": { "type": "Point", "coordinates": [ 139.470713445334212, 38.221735674448382 ] } },
{ "type": "Feature", "properties": { "P29_001": "15212", "P29_002": "D115221200031", "P29_003": "16004", "P29_004": "新潟県立荒川高等学校", "P29_005": "新潟県村上市坂町2616-4", "P29_006": "2", "P29_007": "0", "P29_008": "00", "P29_009": null }, "geometry": { "type": "Point", "coordinates": [ 139.455229541034043, 38.121979307614779 ] } },
{ "type": "Feature", "properties": { "P29_001": "15213", "P29_002": "D115221300012", "P29_003": "16004", "P29_004": "新潟県立分水高等学校", "P29_005": "新潟県燕市笈ヶ島104-4", "P29_006": "2", "P29_007": "0", "P29_008": "00", "P29_009": null }, "geometry": { "type": "Point", "coordinates": [ 138.848668452163082, 37.619324256121061 ] } },
{ "type": "Feature", "properties": { "P29_001": "15213", "P29_002": "D115221300021", "P29_003": "16004", "P29_004": "新潟県立吉田高等学校", "P29_005": "新潟県燕市吉田東町16-1", "P29_006": "2", "P29_007": "0", "P29_008": "00", "P29_009": null }, "geometry": { "type": "Point", "coordinates": [ 138.880547845104587, 37.695039297242474 ] } },
{ "type": "Feature", "properties": { "P29_001": "15216", "P29_002": "D115221600019", "P29_003": "16004", "P29_004": "新潟県立糸魚川高等学校", "P29_005": "新潟県糸魚川市大字平牛248-2", "P29_006": "2", "P29_007": "0", "P29_008": "00", "P29_009": null }, "geometry": { "type": "Point", "coordinates": [ 137.885421229337879, 37.041268610963677 ] } },
{ "type": "Feature", "properties": { "P29_001": "15216", "P29_002": "D115221600028", "P29_003": "16004", "P29_004": "新潟県立糸魚川白嶺高等学校", "P29_005": "新潟県糸魚川市清崎9-1", "P29_006": "2", "P29_007": "0", "P29_008": "00", "P29_009": null }, "geometry": { "type": "Point", "coordinates": [ 137.859207998176714, 37.037339004883755 ] } },
{ "type": "Feature", "properties": { "P29_001": "15216", "P29_002": "D115221600037", "P29_003": "16004", "P29_004": "新潟県立海洋高等学校", "P29_005": "新潟県糸魚川市能生3040", "P29_006": "2", "P29_007": "0", "P29_008": "00", "P29_009": null }, "geometry": { "type": "Point", "coordinates": [ 137.992396304910358, 37.097964928351487 ] } },
{ "type": "Feature", "properties": { "P29_001": "15217", "P29_002": "D115221700018", "P29_003": "16004", "P29_004": "新潟県立新井高等学校", "P29_005": "新潟県妙高市田町1-10-1", "P29_006": "2", "P29_007": "0", "P29_008": "00", "P29_009": null }, "geometry": { "type": "Point", "coordinates": [ 138.249442549378415, 37.021175112564855 ] } },
{ "type": "Feature", "properties": { "P29_001": "15218", "P29_002": "D115221800017", "P29_003": "16004", "P29_004": "新潟県立五泉高等学校", "P29_005": "新潟県五泉市粟島1-23", "P29_006": "2", "P29_007": "0", "P29_008": "00", "P29_009": null }, "geometry": { "type": "Point", "coordinates": [ 139.180704401515499, 37.748439302159191 ] } },
{ "type": "Feature", "properties": { "P29_001": "15218", "P29_002": "D115221800026", "P29_003": "16004", "P29_004": "新潟県立村松高等学校", "P29_005": "新潟県五泉市村松甲5545", "P29_006": "2", "P29_007": "0", "P29_008": "00", "P29_009": null }, "geometry": { "type": "Point", "coordinates": [ 139.182073268223178, 37.688044127716438 ] } },
{ "type": "Feature", "properties": { "P29_001": "15222", "P29_002": "D115222200011", "P29_003": "16004", "P29_004": "新潟県立高田高等学校", "P29_005": "新潟県上越市南城町3-5-5", "P29_006": "2", "P29_007": "0", "P29_008": "00", "P29_009": null }, "geometry": { "type": "Point", "coordinates": [ 138.255686150510854, 37.104505165031966 ] } },
{ "type": "Feature", "properties": { "P29_001": "15222", "P29_002": "D115222200020", "P29_003": "16004", "P29_004": "新潟県立高田北城高等学校", "P29_005": "新潟県上越市北城町2-8-1", "P29_006": "2", "P29_007": "0", "P29_008": "00", "P29_009": null }, "geometry": { "type": "Point", "coordinates": [ 138.258461405454455, 37.115092427139857 ] } },
{ "type": "Feature", "properties": { "P29_001": "15222", "P29_002": "D115222200039", "P29_003": "16004", "P29_004": "新潟県立高田農業高等学校", "P29_005": "新潟県上越市東城町1-4-41", "P29_006": "2", "P29_007": "0", "P29_008": "00", "P29_009": null }, "geometry": { "type": "Point", "coordinates": [ 138.260296973646348, 37.100604124365496 ] } },
{ "type": "Feature", "properties": { "P29_001": "15222", "P29_002": "D115222200048", "P29_003": "16004", "P29_004": "新潟県立上越総合技術高等学校", "P29_005": "新潟県上越市本城町3-1", "P29_006": "2", "P29_007": "0", "P29_008": "00", "P29_009": null }, "geometry": { "type": "Point", "coordinates": [ 138.259181156671474, 37.11232898054363 ] } },
{ "type": "Feature", "properties": { "P29_001": "15222", "P29_002": "D115222200057", "P29_003": "16004", "P29_004": "新潟県立高田商業高等学校", "P29_005": "新潟県上越市中田原90-1", "P29_006": "2", "P29_007": "0", "P29_008": "00", "P29_009": null }, "geometry": { "type": "Point", "coordinates": [ 138.236861869019492, 37.094243362673815 ] } },
{ "type": "Feature", "properties": { "P29_001": "15222", "P29_002": "D115222200066", "P29_003": "16004", "P29_004": "新潟県立高田南城高等学校", "P29_005": "新潟県上越市南城町3-3-8", "P29_006": "2", "P29_007": "0", "P29_008": "00", "P29_009": null }, "geometry": { "type": "Point", "coordinates": [ 138.250231037432798, 37.105058981787614 ] } },
{ "type": "Feature", "properties": { "P29_001": "15222", "P29_002": "D115222200075", "P29_003": "16004", "P29_004": "新潟県立高田高等学校安塚分校", "P29_005": "新潟県上越市安塚区下方129", "P29_006": "2", "P29_007": "0", "P29_008": "00", "P29_009": null }, "geometry": { "type": "Point", "coordinates": [ 138.444333331647897, 37.135232615264371 ] } },
{ "type": "Feature", "properties": { "P29_001": "15222", "P29_002": "D115222200084", "P29_003": "16004", "P29_004": "新潟県立久比岐高等学校", "P29_005": "新潟県上越市柿崎区柿崎7075", "P29_006": "2", "P29_007": "0", "P29_008": "00", "P29_009": null }, "geometry": { "type": "Point", "coordinates": [ 138.394011846081582, 37.280348066017588 ] } },
{ "type": "Feature", "properties": { "P29_001": "15222", "P29_002": "D115222200093", "P29_003": "16004", "P29_004": "新潟県立有恒高等学校", "P29_005": "新潟県上越市板倉区針583-3", "P29_006": "2", "P29_007": "0", "P29_008": "00", "P29_009": null }, "geometry": { "type": "Point", "coordinates": [ 138.295305953256104, 37.053646431375789 ] } },
{ "type": "Feature", "properties": { "P29_001": "15223", "P29_002": "D115222300010", "P29_003": "16004", "P29_004": "新潟県立阿賀野高等学校", "P29_005": "新潟県阿賀野市学校町3-9", "P29_006": "2", "P29_007": "0", "P29_008": "00", "P29_009": null }, "geometry": { "type": "Point", "coordinates": [ 139.225227037964373, 37.832028420557585 ] } },
{ "type": "Feature", "properties": { "P29_001": "15224", "P29_002": "D115222400019", "P29_003": "16004", "P29_004": "新潟県立佐渡高等学校相川分校", "P29_005": "新潟県佐渡市下相川162", "P29_006": "2", "P29_007": "0", "P29_008": "00", "P29_009": null }, "geometry": { "type": "Point", "coordinates": [ 138.239656166505881, 38.03986446429375 ] } },
{ "type": "Feature", "properties": { "P29_001": "15224", "P29_002": "D115222400028", "P29_003": "16004", "P29_004": "新潟県立佐渡高等学校", "P29_005": "新潟県佐渡市石田567", "P29_006": "2", "P29_007": "0", "P29_008": "00", "P29_009": null }, "geometry": { "type": "Point", "coordinates": [ 138.323376217773017, 38.006404162955832 ] } },
{ "type": "Feature", "properties": { "P29_001": "15224", "P29_002": "D115222400037", "P29_003": "16004", "P29_004": "新潟県立佐渡総合高等学校", "P29_005": "新潟県佐渡市栗野江377-1", "P29_006": "2", "P29_007": "0", "P29_008": "00", "P29_009": null }, "geometry": { "type": "Point", "coordinates": [ 138.410167034335046, 38.001654887434754 ] } },
{ "type": "Feature", "properties": { "P29_001": "15224", "P29_002": "D115222400046", "P29_003": "16004", "P29_004": "新潟県立羽茂高等学校", "P29_005": "新潟県佐渡市羽茂本郷410", "P29_006": "2", "P29_007": "0", "P29_008": "00", "P29_009": null }, "geometry": { "type": "Point", "coordinates": [ 138.314589915659383, 37.844382802474286 ] } },
{ "type": "Feature", "properties": { "P29_001": "15225", "P29_002": "D115222500018", "P29_003": "16004", "P29_004": "新潟県立堀之内高等学校", "P29_005": "新潟県魚沼市堀之内3720", "P29_006": "2", "P29_007": "0", "P29_008": "00", "P29_009": null }, "geometry": { "type": "Point", "coordinates": [ 138.92517219390075, 37.236741038058831 ] } },
{ "type": "Feature", "properties": { "P29_001": "15225", "P29_002": "D115222500027", "P29_003": "16004", "P29_004": "新潟県立小出高等学校", "P29_005": "新潟県魚沼市青島810-4", "P29_006": "2", "P29_007": "0", "P29_008": "00", "P29_009": null }, "geometry": { "type": "Point", "coordinates": [ 138.956197771266091, 37.220617202065853 ] } },
{ "type": "Feature", "properties": { "P29_001": "15226", "P29_002": "D115222600017", "P29_003": "16004", "P29_004": "新潟県立塩沢商工高等学校", "P29_005": "新潟県南魚沼市泉盛寺701-1", "P29_006": "2", "P29_007": "0", "P29_008": "00", "P29_009": null }, "geometry": { "type": "Point", "coordinates": [ 138.840891424653677, 37.04151357575838 ] } },
{ "type": "Feature", "properties": { "P29_001": "15226", "P29_002": "D115222600026", "P29_003": "16004", "P29_004": "新潟県立六日町高等学校", "P29_005": "新潟県南魚沼市余川1380-2", "P29_006": "2", "P29_007": "0", "P29_008": "00", "P29_009": null }, "geometry": { "type": "Point", "coordinates": [ 138.875599841661767, 37.070697942998812 ] } },
{ "type": "Feature", "properties": { "P29_001": "15226", "P29_002": "D115222600035", "P29_003": "16004", "P29_004": "新潟県立国際情報高等学校", "P29_005": "新潟県南魚沼市浦佐5664-1", "P29_006": "2", "P29_007": "0", "P29_008": "00", "P29_009": null }, "geometry": { "type": "Point", "coordinates": [ 138.933270045327504, 37.158903697962401 ] } },
{ "type": "Feature", "properties": { "P29_001": "15226", "P29_002": "D115222600044", "P29_003": "16004", "P29_004": "新潟県立八海高等学校", "P29_005": "新潟県南魚沼市余川1276", "P29_006": "2", "P29_007": "0", "P29_008": "00", "P29_009": null }, "geometry": { "type": "Point", "coordinates": [ 138.875756846867205, 37.073623300701222 ] } },
{ "type": "Feature", "properties": { "P29_001": "15227", "P29_002": "D115222700016", "P29_003": "16004", "P29_004": "新潟県立中条高等学校", "P29_005": "新潟県胎内市東本町19-1", "P29_006": "2", "P29_007": "0", "P29_008": "00", "P29_009": null }, "geometry": { "type": "Point", "coordinates": [ 139.411488220311583, 38.056081300796869 ] } },
{ "type": "Feature", "properties": { "P29_001": "15385", "P29_002": "D115238500014", "P29_003": "16004", "P29_004": "新潟県立阿賀黎明高等学校", "P29_005": "新潟県東蒲原郡阿賀町津川361-1", "P29_006": "2", "P29_007": "0", "P29_008": "00", "P29_009": null }, "geometry": { "type": "Point", "coordinates": [ 139.461129484445109, 37.676154201902868 ] } },
{ "type": "Feature", "properties": { "P29_001": "15405", "P29_002": "D115240500010", "P29_003": "16004", "P29_004": "新潟県立出雲崎高等学校", "P29_005": "新潟県三島郡出雲崎町大字大門71", "P29_006": "2", "P29_007": "0", "P29_008": "00", "P29_009": null }, "geometry": { "type": "Point", "coordinates": [ 138.711914709219059, 37.53271631001293 ] } },
{ "type": "Feature", "properties": { "P29_001": "15101", "P29_002": "D115310000016", "P29_003": "16004", "P29_004": "敬和学園高等学校", "P29_005": "新潟県新潟市北区太夫浜325", "P29_006": "4", "P29_007": "0", "P29_008": "00", "P29_009": null }, "geometry": { "type": "Point", "coordinates": [ 139.175151767365804, 37.966685678490343 ] } },
{ "type": "Feature", "properties": { "P29_001": "15103", "P29_002": "D115310000025", "P29_003": "16004", "P29_004": "北越高等学校", "P29_005": "新潟県新潟市中央区米山5-12-1", "P29_006": "4", "P29_007": "0", "P29_008": "00", "P29_009": null }, "geometry": { "type": "Point", "coordinates": [ 139.056161849221468, 37.904102990610184 ] } },
{ "type": "Feature", "properties": { "P29_001": "15103", "P29_002": "D115310000034", "P29_003": "16004", "P29_004": "新潟青陵高等学校", "P29_005": "新潟県新潟市中央区水道町1-5932", "P29_006": "4", "P29_007": "0", "P29_008": "00", "P29_009": null }, "geometry": { "type": "Point", "coordinates": [ 139.028786281934345, 37.920928177218414 ] } },
{ "type": "Feature", "properties": { "P29_001": "15103", "P29_002": "D115310000043", "P29_003": "16004", "P29_004": "新潟第一高等学校", "P29_005": "新潟県新潟市中央区関新3-3-1", "P29_006": "4", "P29_007": "0", "P29_008": "00", "P29_009": null }, "geometry": { "type": "Point", "coordinates": [ 139.018021910450898, 37.906039433877432 ] } },
{ "type": "Feature", "properties": { "P29_001": "15103", "P29_002": "D115310000052", "P29_003": "16004", "P29_004": "東京学館新潟高等学校", "P29_005": "新潟県新潟市中央区鐘木185-1", "P29_006": "4", "P29_007": "0", "P29_008": "00", "P29_009": null }, "geometry": { "type": "Point", "coordinates": [ 139.046167181761604, 37.875432037018733 ] } },
{ "type": "Feature", "properties": { "P29_001": "15103", "P29_002": "D115310000061", "P29_003": "16004", "P29_004": "開志学園高等学校", "P29_005": "新潟県新潟市中央区弁天橋通1-4-1", "P29_006": "4", "P29_007": "0", "P29_008": "00", "P29_009": null }, "geometry": { "type": "Point", "coordinates": [ 139.068195525586674, 37.892803851990742 ] } },
{ "type": "Feature", "properties": { "P29_001": "15104", "P29_002": "D115310000070", "P29_003": "16004", "P29_004": "新潟明訓高等学校", "P29_005": "新潟県新潟市江南区北山1037", "P29_006": "4", "P29_007": "0", "P29_008": "00", "P29_009": null }, "geometry": { "type": "Point", "coordinates": [ 139.113099232020716, 37.88172450719555 ] } },
{ "type": "Feature", "properties": { "P29_001": "15107", "P29_002": "D115310000089", "P29_003": "16004", "P29_004": "新潟清心女子高等学校", "P29_005": "新潟県新潟市西区五十嵐1の町6370", "P29_006": "4", "P29_007": "0", "P29_008": "00", "P29_009": null }, "geometry": { "type": "Point", "coordinates": [ 138.957868838929983, 37.880239119236272 ] } },
{ "type": "Feature", "properties": { "P29_001": "15107", "P29_002": "D115310000098", "P29_003": "16004", "P29_004": "日本文理高等学校", "P29_005": "新潟県新潟市西区新通1072", "P29_006": "4", "P29_007": "0", "P29_008": "00", "P29_009": null }, "geometry": { "type": "Point", "coordinates": [ 138.949465552308823, 37.858642394810516 ] } },
{ "type": "Feature", "properties": { "P29_001": "15202", "P29_002": "D115320200013", "P29_003": "16004", "P29_004": "帝京長岡高等学校", "P29_005": "新潟県長岡市住吉3-9-1", "P29_006": "4", "P29_007": "0", "P29_008": "00", "P29_009": null }, "geometry": { "type": "Point", "coordinates": [ 138.854956854485039, 37.436620491110666 ] } },
{ "type": "Feature", "properties": { "P29_001": "15202", "P29_002": "D115320200022", "P29_003": "16004", "P29_004": "中越高等学校", "P29_005": "新潟県長岡市新保町1371-1", "P29_006": "4", "P29_007": "0", "P29_008": "00", "P29_009": null }, "geometry": { "type": "Point", "coordinates": [ 138.87122583736388, 37.467774311789555 ] } },
{ "type": "Feature", "properties": { "P29_001": "15202", "P29_002": "D115320200031", "P29_003": "16004", "P29_004": "長岡英智高等学校", "P29_005": "新潟県長岡市宮栄3-16-14", "P29_006": "4", "P29_007": "0", "P29_008": "00", "P29_009": null }, "geometry": { "type": "Point", "coordinates": [ 138.840449204185177, 37.424509631936871 ] } },
{ "type": "Feature", "properties": { "P29_001": "15205", "P29_002": "D115320500010", "P29_003": "16004", "P29_004": "新潟産業大学附属高等学校", "P29_005": "新潟県柏崎市大字安田2510-2", "P29_006": "4", "P29_007": "0", "P29_008": "00", "P29_009": null }, "geometry": { "type": "Point", "coordinates": [ 138.614812508588471, 37.342068245933362 ] } },
{ "type": "Feature", "properties": { "P29_001": "15206", "P29_002": "D115320600019", "P29_003": "16004", "P29_004": "新発田中央高等学校", "P29_005": "新潟県新発田市曽根570", "P29_006": "4", "P29_007": "0", "P29_008": "00", "P29_009": null }, "geometry": { "type": "Point", "coordinates": [ 139.28696523888587, 37.953506750361583 ] } },
{ "type": "Feature", "properties": { "P29_001": "15361", "P29_002": "D115320900016", "P29_003": "16004", "P29_004": "加茂暁星高等学校", "P29_005": "新潟県加茂市学校町16-18", "P29_006": "4", "P29_007": "0", "P29_008": "00", "P29_009": null }, "geometry": { "type": "Point", "coordinates": [ 139.056910087686759, 37.673116880087953 ] } },
{ "type": "Feature", "properties": { "P29_001": "15211", "P29_002": "D115321100012", "P29_003": "16004", "P29_004": "創進学園高等学校", "P29_005": "新潟県見附市本所2-2-21", "P29_006": "4", "P29_007": "0", "P29_008": "00", "P29_009": null }, "geometry": { "type": "Point", "coordinates": [ 138.904552672729466, 37.538126538323432 ] } },
{ "type": "Feature", "properties": { "P29_001": "15222", "P29_002": "D115322200019", "P29_003": "16004", "P29_004": "上越高等学校", "P29_005": "新潟県上越市寺町3-4-34", "P29_006": "4", "P29_007": "0", "P29_008": "00", "P29_009": null }, "geometry": { "type": "Point", "coordinates": [ 138.238759840345239, 37.115774840679315 ] } },
{ "type": "Feature", "properties": { "P29_001": "15222", "P29_002": "D115322200028", "P29_003": "16004", "P29_004": "関根学園高等学校", "P29_005": "新潟県上越市大貫2-9-1", "P29_006": "4", "P29_007": "0", "P29_008": "00", "P29_009": null }, "geometry": { "type": "Point", "coordinates": [ 138.232934634450629, 37.105952548827553 ] } },
{ "type": "Feature", "properties": { "P29_001": "15227", "P29_002": "D115322700014", "P29_003": "16004", "P29_004": "開志国際高等学校", "P29_005": "新潟県胎内市長橋上439-1", "P29_006": "4", "P29_007": "0", "P29_008": "00", "P29_009": null }, "geometry": { "type": "Point", "coordinates": [ 139.398280137396938, 38.034300638188782 ] } }
]
}
