{
"type": "FeatureCollection",
"name": "geo_15_定期巡回・随時対応型訪問介護看護",
"crs": { "type": "name", "properties": { "name": "urn:ogc:def:crs:OGC:1.3:CRS84" } },
"features": [
{ "type": "Feature", "properties": { "内容": "定期巡回・随時対応型サービスおおやまだい【定期巡回・随時対応型訪問介護看護】新潟県新潟市東区大山2丁目13番34号あたごの杜大山台", "url2": "https://www.kaigokensaku.mhlw.go.jp/15/index.php?action_kouhyou_detail_004_kani=true&JigyosyoCd=1590102636-00&ServiceCd=760&Type=search" }, "geometry": { "type": "Point", "coordinates": [ 139.0782491, 37.9367199 ] } },
{ "type": "Feature", "properties": { "内容": "定期巡回ありがとう【定期巡回・随時対応型訪問介護看護】新潟県新潟市東区上木戸5-2-1", "url2": "https://www.kaigokensaku.mhlw.go.jp/15/index.php?action_kouhyou_detail_004_kani=true&JigyosyoCd=1590101414-00&ServiceCd=760&Type=search" }, "geometry": { "type": "Point", "coordinates": [ 139.103018300000031, 37.9205303 ] } },
{ "type": "Feature", "properties": { "内容": "ケアステーションいなほ【定期巡回・随時対応型訪問介護看護】新潟県新潟市江南区大淵1177番地", "url2": "https://www.kaigokensaku.mhlw.go.jp/15/index.php?action_kouhyou_detail_004_kani=true&JigyosyoCd=1590101406-00&ServiceCd=760&Type=search" }, "geometry": { "type": "Point", "coordinates": [ 139.148073699999941, 37.8953536 ] } },
{ "type": "Feature", "properties": { "内容": "定期巡回シルクケア新潟【定期巡回・随時対応型訪問介護看護】新潟県新潟市秋葉区矢代田1130番地12", "url2": "https://www.kaigokensaku.mhlw.go.jp/15/index.php?action_kouhyou_detail_004_kani=true&JigyosyoCd=1590102313-00&ServiceCd=760&Type=search" }, "geometry": { "type": "Point", "coordinates": [ 139.089285100000012, 37.750869 ] } },
{ "type": "Feature", "properties": { "内容": "みなみ定期巡回介護サービス【定期巡回・随時対応型訪問介護看護】新潟県新潟市南区上下諏訪木28番地2田村ハイツA", "url2": "https://www.kaigokensaku.mhlw.go.jp/15/index.php?action_kouhyou_detail_004_kani=true&JigyosyoCd=1590101935-00&ServiceCd=760&Type=search" }, "geometry": { "type": "Point", "coordinates": [ 139.010826700000052, 37.7577278 ] } },
{ "type": "Feature", "properties": { "内容": "にし定期巡回介護サービス【定期巡回・随時対応型訪問介護看護】新潟県新潟市西区寺尾台1丁目5番34号ハイツ寺尾台102号", "url2": "https://www.kaigokensaku.mhlw.go.jp/15/index.php?action_kouhyou_detail_004_kani=true&JigyosyoCd=1590102206-00&ServiceCd=760&Type=search" }, "geometry": { "type": "Point", "coordinates": [ 138.9776884, 37.8818923 ] } },
{ "type": "Feature", "properties": { "内容": "ヘルパーステーション　まるっとまき【定期巡回・随時対応型訪問介護看護】新潟県新潟市西蒲区巻甲5465-4", "url2": "https://www.kaigokensaku.mhlw.go.jp/15/index.php?action_kouhyou_detail_004_kani=true&JigyosyoCd=1590102412-00&ServiceCd=760&Type=search" }, "geometry": { "type": "Point", "coordinates": [ 138.898125880414767, 37.754479414433931 ] } },
{ "type": "Feature", "properties": { "内容": "にしかん定期巡回介護サービス【定期巡回・随時対応型訪問介護看護】新潟県西蒲区鱸60-1第２池田ハイツ　１６号室", "url2": "https://www.kaigokensaku.mhlw.go.jp/15/index.php?action_kouhyou_detail_004_kani=true&JigyosyoCd=1590102511-00&ServiceCd=760&Type=search" }, "geometry": { "type": "Point", "coordinates": [ 138.9126652, 37.7914527 ] } },
{ "type": "Feature", "properties": { "内容": "グッドタイムサポート・長岡【定期巡回・随時対応型訪問介護看護】新潟県長岡市下々条２丁目1373-1", "url2": "https://www.kaigokensaku.mhlw.go.jp/15/index.php?action_kouhyou_detail_004_kani=true&JigyosyoCd=1590200760-00&ServiceCd=760&Type=search" }, "geometry": { "type": "Point", "coordinates": [ 138.8634537, 37.4846623 ] } },
{ "type": "Feature", "properties": { "内容": "こぶし２４時間ケアサービスステーション喜多町【定期巡回・随時対応型訪問介護看護】新潟県長岡市喜多町2900番地", "url2": "https://www.kaigokensaku.mhlw.go.jp/15/index.php?action_kouhyou_detail_004_kani=true&JigyosyoCd=1590200679-00&ServiceCd=760&Type=search" }, "geometry": { "type": "Point", "coordinates": [ 138.805223299999966, 37.4530009 ] } },
{ "type": "Feature", "properties": { "内容": "こぶし24時間ケアサービスステーション三和【定期巡回・随時対応型訪問介護看護】新潟県長岡市三和3-138-2サポートセンター三和", "url2": "https://www.kaigokensaku.mhlw.go.jp/15/index.php?action_kouhyou_detail_004_kani=true&JigyosyoCd=1590200711-00&ServiceCd=760&Type=search" }, "geometry": { "type": "Point", "coordinates": [ 138.8368961, 37.432422 ] } },
{ "type": "Feature", "properties": { "内容": "こぶし24時間ケアサービスステーション【定期巡回・随時対応型訪問介護看護】長岡市信濃２丁目６番１８号", "url2": "https://www.kaigokensaku.mhlw.go.jp/15/index.php?action_kouhyou_detail_004_kani=true&JigyosyoCd=1590200554-00&ServiceCd=760&Type=search" }, "geometry": { "type": "Point", "coordinates": [ 138.837825699999939, 37.4506449 ] } },
{ "type": "Feature", "properties": { "内容": "メッツ川崎ヘルパーステーション【定期巡回・随時対応型訪問介護看護】長岡市川崎２丁目２４７８番地１", "url2": "https://www.kaigokensaku.mhlw.go.jp/15/index.php?action_kouhyou_detail_004_kani=true&JigyosyoCd=1590200646-00&ServiceCd=760&Type=search" }, "geometry": { "type": "Point", "coordinates": [ 138.867589, 37.4515592 ] } },
{ "type": "Feature", "properties": { "内容": "あさひケアステーション【定期巡回・随時対応型訪問介護看護】新潟県三条市直江町２－５－４８あさひ邸", "url2": "https://www.kaigokensaku.mhlw.go.jp/15/index.php?action_kouhyou_detail_004_kani=true&JigyosyoCd=1590400105-00&ServiceCd=760&Type=search" }, "geometry": { "type": "Point", "coordinates": [ 138.93737550000003, 37.624227 ] } },
{ "type": "Feature", "properties": { "内容": "ふるまい定期巡回【定期巡回・随時対応型訪問介護看護】新潟県見附市新幸町７－１１", "url2": "https://www.kaigokensaku.mhlw.go.jp/15/index.php?action_kouhyou_detail_004_kani=true&JigyosyoCd=1591100084-00&ServiceCd=760&Type=search" }, "geometry": { "type": "Point", "coordinates": [ 138.892867114680485, 37.539148309044087 ] } },
{ "type": "Feature", "properties": { "内容": "ホームヘルプサービスひまわりの園【定期巡回・随時対応型訪問介護看護】新潟県燕市吉田大保町25番15号ひまわりの園相談センター", "url2": "https://www.kaigokensaku.mhlw.go.jp/15/index.php?action_kouhyou_detail_004_kani=true&JigyosyoCd=1591300155-00&ServiceCd=760&Type=search" }, "geometry": { "type": "Point", "coordinates": [ 138.883412300000032, 37.689025 ] } },
{ "type": "Feature", "properties": { "内容": "定期巡回訪問介護　桑の里【定期巡回・随時対応型訪問介護看護】新潟県上越市南本町3丁目13番45号", "url2": "https://www.kaigokensaku.mhlw.go.jp/15/index.php?action_kouhyou_detail_004_kani=true&JigyosyoCd=1590300487-00&ServiceCd=760&Type=search" }, "geometry": { "type": "Point", "coordinates": [ 138.242512199999965, 37.09889889999998 ] } },
{ "type": "Feature", "properties": { "内容": "ヘルパーステーションきずな【定期巡回・随時対応型訪問介護看護】新潟県上越市木田3丁目8番44号", "url2": "https://www.kaigokensaku.mhlw.go.jp/15/index.php?action_kouhyou_detail_004_kani=true&JigyosyoCd=1590300362-00&ServiceCd=760&Type=search" }, "geometry": { "type": "Point", "coordinates": [ 138.242480022159583, 37.139553087068464 ] } },
{ "type": "Feature", "properties": { "内容": "やさしい手上越定期巡回随時対応型訪問介護看護事業所【定期巡回・随時対応型訪問介護看護】新潟県上越市木田1-1-15", "url2": "https://www.kaigokensaku.mhlw.go.jp/15/index.php?action_kouhyou_detail_004_kani=true&JigyosyoCd=1590300321-00&ServiceCd=760&Type=search" }, "geometry": { "type": "Point", "coordinates": [ 138.235536269311524, 37.143012113812802 ] } },
{ "type": "Feature", "properties": { "内容": "スピンケア２４つむぎ佐渡【定期巡回・随時対応型訪問介護看護】新潟県佐渡市千種丙64", "url2": "https://www.kaigokensaku.mhlw.go.jp/15/index.php?action_kouhyou_detail_004_kani=true&JigyosyoCd=1592200271-00&ServiceCd=760&Type=search" }, "geometry": { "type": "Point", "coordinates": [ 138.363085891401681, 38.026202251417075 ] } }
]
}
