{
"type": "FeatureCollection",
"name": "geo_15_通所リハビリテーション",
"crs": { "type": "name", "properties": { "name": "urn:ogc:def:crs:OGC:1.3:CRS84" } },
"features": [
{ "type": "Feature", "properties": { "内容": "介護医療院　尾山愛広苑【通所リハビリテーション】新潟県新潟市北区木崎754番地", "url2": "https://www.kaigokensaku.mhlw.go.jp/15/index.php?action_kouhyou_detail_004_kani=true&JigyosyoCd=15B0100098-00&ServiceCd=160&Type=search" }, "geometry": { "type": "Point", "coordinates": [ 139.172736899999961, 37.930775400000037 ] } },
{ "type": "Feature", "properties": { "内容": "介護老人保健施設　葵の園・新潟北区【通所リハビリテーション】新潟県新潟市北区島見町200-1", "url2": "https://www.kaigokensaku.mhlw.go.jp/15/index.php?action_kouhyou_detail_004_kani=true&JigyosyoCd=1550180465-00&ServiceCd=160&Type=search" }, "geometry": { "type": "Point", "coordinates": [ 139.203120143438753, 37.976318938272819 ] } },
{ "type": "Feature", "properties": { "内容": "江風苑リハビリセンター１００【通所リハビリテーション】新潟県新潟市北区大迎1330", "url2": "https://www.kaigokensaku.mhlw.go.jp/15/index.php?action_kouhyou_detail_004_kani=true&JigyosyoCd=1550180325-00&ServiceCd=160&Type=search" }, "geometry": { "type": "Point", "coordinates": [ 139.172361200000068, 37.8840024 ] } },
{ "type": "Feature", "properties": { "内容": "新潟リハビリテーション病院デイケアセンターきざき【通所リハビリテーション】新潟県新潟市北区木崎７６１番地", "url2": "https://www.kaigokensaku.mhlw.go.jp/15/index.php?action_kouhyou_detail_004_kani=true&JigyosyoCd=1570105120-00&ServiceCd=160&Type=search" }, "geometry": { "type": "Point", "coordinates": [ 139.173470100000031, 37.9315411 ] } },
{ "type": "Feature", "properties": { "内容": "新潟医療生活協同組合　通所リハビリテーションなじょも【通所リハビリテーション】新潟県新潟市東区上木戸5丁目2番1号なじょも1号館2階", "url2": "https://www.kaigokensaku.mhlw.go.jp/15/index.php?action_kouhyou_detail_004_kani=true&JigyosyoCd=1510125980-00&ServiceCd=160&Type=search" }, "geometry": { "type": "Point", "coordinates": [ 139.103220479098582, 37.920289896419192 ] } },
{ "type": "Feature", "properties": { "内容": "介護老人保健施設くわの実の郷【通所リハビリテーション】新潟県新潟市東区空港西２丁目１４番３５号", "url2": "https://www.kaigokensaku.mhlw.go.jp/15/index.php?action_kouhyou_detail_004_kani=true&JigyosyoCd=1550180432-00&ServiceCd=160&Type=search" }, "geometry": { "type": "Point", "coordinates": [ 139.097847699999988, 37.9488248 ] } },
{ "type": "Feature", "properties": { "内容": "ｅ－メディカル介護センター【通所リハビリテーション】新潟県新潟市東区中山6-3-35e-メディカルプラザ２Ｆ", "url2": "https://www.kaigokensaku.mhlw.go.jp/15/index.php?action_kouhyou_detail_004_kani=true&JigyosyoCd=1570107548-00&ServiceCd=160&Type=search" }, "geometry": { "type": "Point", "coordinates": [ 139.081026400000042, 37.912563600000034 ] } },
{ "type": "Feature", "properties": { "内容": "介護老人保健施設　ほほえみの里　きど【通所リハビリテーション】新潟県新潟市東区上木戸2－1－35", "url2": "https://www.kaigokensaku.mhlw.go.jp/15/index.php?action_kouhyou_detail_004_kani=true&JigyosyoCd=1550180291-00&ServiceCd=160&Type=search" }, "geometry": { "type": "Point", "coordinates": [ 139.104443, 37.9242356 ] } },
{ "type": "Feature", "properties": { "内容": "介護医療院アビラ大形【通所リハビリテーション】新潟県新潟市東区一日市80番地", "url2": "https://www.kaigokensaku.mhlw.go.jp/15/index.php?action_kouhyou_detail_004_kani=true&JigyosyoCd=15B0100080-00&ServiceCd=160&Type=search" }, "geometry": { "type": "Point", "coordinates": [ 139.13461860000001, 37.9223138 ] } },
{ "type": "Feature", "properties": { "内容": "介護老人保健施設　有楽園【通所リハビリテーション】新潟県新潟市東区有楽1丁目１５－３", "url2": "https://www.kaigokensaku.mhlw.go.jp/15/index.php?action_kouhyou_detail_004_kani=true&JigyosyoCd=1550180085-00&ServiceCd=160&Type=search" }, "geometry": { "type": "Point", "coordinates": [ 139.106675399999972, 37.9381788 ] } },
{ "type": "Feature", "properties": { "内容": "社会医療法人　新潟勤労者医療協会　舟江診療所【通所リハビリテーション】新潟県新潟市中央区入船町3丁目3629番地1", "url2": "https://www.kaigokensaku.mhlw.go.jp/15/index.php?action_kouhyou_detail_004_kani=true&JigyosyoCd=1510124983-00&ServiceCd=160&Type=search" }, "geometry": { "type": "Point", "coordinates": [ 139.055915580287177, 37.934706034183904 ] } },
{ "type": "Feature", "properties": { "内容": "東大通内科クリニック【通所リハビリテーション】新潟県新潟市中央区東大通一丁目8番10号", "url2": "https://www.kaigokensaku.mhlw.go.jp/15/index.php?action_kouhyou_detail_004_kani=true&JigyosyoCd=1510125592-00&ServiceCd=160&Type=search" }, "geometry": { "type": "Point", "coordinates": [ 139.062913500000036, 37.9156987 ] } },
{ "type": "Feature", "properties": { "内容": "介護老人保健施設　陽光園【通所リハビリテーション】新潟県新潟市中央区姥ケ山311-1", "url2": "https://www.kaigokensaku.mhlw.go.jp/15/index.php?action_kouhyou_detail_004_kani=true&JigyosyoCd=1550180044-00&ServiceCd=160&Type=search" }, "geometry": { "type": "Point", "coordinates": [ 139.080700895106503, 37.884951806124171 ] } },
{ "type": "Feature", "properties": { "内容": "介護老人保健施設千歳園【通所リハビリテーション】新潟県新潟市中央区新光町1番地33", "url2": "https://www.kaigokensaku.mhlw.go.jp/15/index.php?action_kouhyou_detail_004_kani=true&JigyosyoCd=1550180093-00&ServiceCd=160&Type=search" }, "geometry": { "type": "Point", "coordinates": [ 139.024983300000031, 37.9047377 ] } },
{ "type": "Feature", "properties": { "内容": "介護老人保健施設女池南風苑【通所リハビリテーション】新潟県新潟市中央区女池神明1丁目3番地3", "url2": "https://www.kaigokensaku.mhlw.go.jp/15/index.php?action_kouhyou_detail_004_kani=true&JigyosyoCd=1550180077-00&ServiceCd=160&Type=search" }, "geometry": { "type": "Point", "coordinates": [ 139.038029631610044, 37.89015082567613 ] } },
{ "type": "Feature", "properties": { "内容": "ながたクリニック【通所リハビリテーション】新潟県新潟市中央区長潟1205番地4", "url2": "https://www.kaigokensaku.mhlw.go.jp/15/index.php?action_kouhyou_detail_004_kani=true&JigyosyoCd=1510126855-00&ServiceCd=160&Type=search" }, "geometry": { "type": "Point", "coordinates": [ 139.067599, 37.8837848 ] } },
{ "type": "Feature", "properties": { "内容": "猫山宮尾病院通所リハビリセンター【通所リハビリテーション】新潟県新潟市中央区湖南14番地7", "url2": "https://www.kaigokensaku.mhlw.go.jp/15/index.php?action_kouhyou_detail_004_kani=true&JigyosyoCd=1570108272-00&ServiceCd=160&Type=search" }, "geometry": { "type": "Point", "coordinates": [ 139.039408699999967, 37.8762502 ] } },
{ "type": "Feature", "properties": { "内容": "介護老人保健施設　入舟【通所リハビリテーション】新潟県新潟市中央区入船町3-3629-1", "url2": "https://www.kaigokensaku.mhlw.go.jp/15/index.php?action_kouhyou_detail_004_kani=true&JigyosyoCd=1550180333-00&ServiceCd=160&Type=search" }, "geometry": { "type": "Point", "coordinates": [ 139.056407300000046, 37.9343712 ] } },
{ "type": "Feature", "properties": { "内容": "介護老人保健施設　葵の園・新潟島【通所リハビリテーション】新潟県新潟市中央区柳島町3丁目18番地7", "url2": "https://www.kaigokensaku.mhlw.go.jp/15/index.php?action_kouhyou_detail_004_kani=true&JigyosyoCd=1550180366-00&ServiceCd=160&Type=search" }, "geometry": { "type": "Point", "coordinates": [ 139.058399, 37.9316744 ] } },
{ "type": "Feature", "properties": { "内容": "介護老人保健施設　晴和会上所園【通所リハビリテーション】新潟県新潟市中央区上所中1-10-1", "url2": "https://www.kaigokensaku.mhlw.go.jp/15/index.php?action_kouhyou_detail_004_kani=true&JigyosyoCd=1550180283-00&ServiceCd=160&Type=search" }, "geometry": { "type": "Point", "coordinates": [ 139.035800650926149, 37.905679588005512 ] } },
{ "type": "Feature", "properties": { "内容": "医療法人社団こんの脳神経クリニック【通所リハビリテーション】新潟県新潟市江南区泉町1-2-30", "url2": "https://www.kaigokensaku.mhlw.go.jp/15/index.php?action_kouhyou_detail_004_kani=true&JigyosyoCd=1510123068-00&ServiceCd=160&Type=search" }, "geometry": { "type": "Point", "coordinates": [ 139.0954494, 37.8669769 ] } },
{ "type": "Feature", "properties": { "内容": "介護老人保健施設　大江山園【通所リハビリテーション】新潟県新潟市江南区大渕277番地", "url2": "https://www.kaigokensaku.mhlw.go.jp/15/index.php?action_kouhyou_detail_004_kani=true&JigyosyoCd=1550180051-00&ServiceCd=160&Type=search" }, "geometry": { "type": "Point", "coordinates": [ 139.144621, 37.8920734 ] } },
{ "type": "Feature", "properties": { "内容": "ゆきよしクリニック【通所リハビリテーション】新潟県新潟市江南区稲葉1-4-3", "url2": "https://www.kaigokensaku.mhlw.go.jp/15/index.php?action_kouhyou_detail_004_kani=true&JigyosyoCd=1510123001-00&ServiceCd=160&Type=search" }, "geometry": { "type": "Point", "coordinates": [ 139.114305599999966, 37.8758297 ] } },
{ "type": "Feature", "properties": { "内容": "老人保健施設　第二にいがた園　通所リハビリテーション【通所リハビリテーション】新潟県新潟市江南区祖父興野270番地1", "url2": "https://www.kaigokensaku.mhlw.go.jp/15/index.php?action_kouhyou_detail_004_kani=true&JigyosyoCd=1550180135-00&ServiceCd=160&Type=search" }, "geometry": { "type": "Point", "coordinates": [ 139.0281352, 37.8689148 ] } },
{ "type": "Feature", "properties": { "内容": "介護老人保健施設　亀田園【通所リハビリテーション】新潟県新潟市江南区早通6-7-34", "url2": "https://www.kaigokensaku.mhlw.go.jp/15/index.php?action_kouhyou_detail_004_kani=true&JigyosyoCd=1550180234-00&ServiceCd=160&Type=search" }, "geometry": { "type": "Point", "coordinates": [ 139.08132, 37.8635908 ] } },
{ "type": "Feature", "properties": { "内容": "介護老人保健施設　マチュアハウス横越【通所リハビリテーション】新潟県新潟市江南区阿賀野１丁目２番２号", "url2": "https://www.kaigokensaku.mhlw.go.jp/15/index.php?action_kouhyou_detail_004_kani=true&JigyosyoCd=1550180226-00&ServiceCd=160&Type=search" }, "geometry": { "type": "Point", "coordinates": [ 139.1682683, 37.8319094 ] } },
{ "type": "Feature", "properties": { "内容": "介護老人保健施設　おぎの里【通所リハビリテーション】新潟県新潟市秋葉区荻野町3番8号", "url2": "https://www.kaigokensaku.mhlw.go.jp/15/index.php?action_kouhyou_detail_004_kani=true&JigyosyoCd=1550180184-00&ServiceCd=160&Type=search" }, "geometry": { "type": "Point", "coordinates": [ 139.106378006745899, 37.829934233040952 ] } },
{ "type": "Feature", "properties": { "内容": "介護老人保健施設　健進館【通所リハビリテーション】新潟県新潟市秋葉区古田６０８番地", "url2": "https://www.kaigokensaku.mhlw.go.jp/15/index.php?action_kouhyou_detail_004_kani=true&JigyosyoCd=1550180192-00&ServiceCd=160&Type=search" }, "geometry": { "type": "Point", "coordinates": [ 139.102807200000029, 37.7910082 ] } },
{ "type": "Feature", "properties": { "内容": "下越病院　通所リハビリテーション【通所リハビリテーション】新潟県新潟市秋葉区東金沢1674番地１ケアセンターかえつ", "url2": "https://www.kaigokensaku.mhlw.go.jp/15/index.php?action_kouhyou_detail_004_kani=true&JigyosyoCd=1570103885-00&ServiceCd=160&Type=search" }, "geometry": { "type": "Point", "coordinates": [ 139.144726854569967, 37.802086534471037 ] } },
{ "type": "Feature", "properties": { "内容": "介護老人保健施設　白根ヴィラガーデン【通所リハビリテーション】新潟県新潟市南区大通黄金7丁目10番地2", "url2": "https://www.kaigokensaku.mhlw.go.jp/15/index.php?action_kouhyou_detail_004_kani=true&JigyosyoCd=1550180200-00&ServiceCd=160&Type=search" }, "geometry": { "type": "Point", "coordinates": [ 139.019533200000097, 37.8210832 ] } },
{ "type": "Feature", "properties": { "内容": "しろね総合介護サービス【通所リハビリテーション】新潟県新潟市南区大通黄金4丁目14番地2白根大通病院内", "url2": "https://www.kaigokensaku.mhlw.go.jp/15/index.php?action_kouhyou_detail_004_kani=true&JigyosyoCd=1570106391-00&ServiceCd=160&Type=search" }, "geometry": { "type": "Point", "coordinates": [ 139.0196469, 37.8232135 ] } },
{ "type": "Feature", "properties": { "内容": "介護老人保健施設みずき苑【通所リハビリテーション】新潟県新潟市南区助次右エ門組５番地", "url2": "https://www.kaigokensaku.mhlw.go.jp/15/index.php?action_kouhyou_detail_004_kani=true&JigyosyoCd=1550180218-00&ServiceCd=160&Type=search" }, "geometry": { "type": "Point", "coordinates": [ 139.019705, 37.7606575 ] } },
{ "type": "Feature", "properties": { "内容": "介護老人保健施設ケアポートすなやま【通所リハビリテーション】新潟県新潟市西区坂井砂山3-8-2", "url2": "https://www.kaigokensaku.mhlw.go.jp/15/index.php?action_kouhyou_detail_004_kani=true&JigyosyoCd=1550180143-00&ServiceCd=160&Type=search" }, "geometry": { "type": "Point", "coordinates": [ 138.9553952, 37.8704026 ] } },
{ "type": "Feature", "properties": { "内容": "西新潟整形外科　通所リハビリテーションWATTO【通所リハビリテーション】新潟県新潟市西区坂井825番地", "url2": "https://www.kaigokensaku.mhlw.go.jp/15/index.php?action_kouhyou_detail_004_kani=true&JigyosyoCd=1510117433-00&ServiceCd=160&Type=search" }, "geometry": { "type": "Point", "coordinates": [ 138.9564203, 37.8679307 ] } },
{ "type": "Feature", "properties": { "内容": "寺尾リハビリセンター【通所リハビリテーション】新潟県新潟市西区寺尾東3‐17‐30", "url2": "https://www.kaigokensaku.mhlw.go.jp/15/index.php?action_kouhyou_detail_004_kani=true&JigyosyoCd=1510118886-00&ServiceCd=160&Type=search" }, "geometry": { "type": "Point", "coordinates": [ 138.97102978391024, 37.871802233226674 ] } },
{ "type": "Feature", "properties": { "内容": "介護老人保健施設あすか【通所リハビリテーション】新潟県新潟市西区木場５６番地", "url2": "https://www.kaigokensaku.mhlw.go.jp/15/index.php?action_kouhyou_detail_004_kani=true&JigyosyoCd=1550180002-00&ServiceCd=160&Type=search" }, "geometry": { "type": "Point", "coordinates": [ 139.002557300000063, 37.8314785 ] } },
{ "type": "Feature", "properties": { "内容": "介護老人保健施設　あかつか苑【通所リハビリテーション】新潟県新潟市西区赤塚４７８２番地", "url2": "https://www.kaigokensaku.mhlw.go.jp/15/index.php?action_kouhyou_detail_004_kani=true&JigyosyoCd=1550180150-00&ServiceCd=160&Type=search" }, "geometry": { "type": "Point", "coordinates": [ 138.874179392729189, 37.809501163970928 ] } },
{ "type": "Feature", "properties": { "内容": "介護老人保健施設みそのぴあ【通所リハビリテーション】新潟市西区青山７丁目8番１５号", "url2": "https://www.kaigokensaku.mhlw.go.jp/15/index.php?action_kouhyou_detail_004_kani=true&JigyosyoCd=1550180101-00&ServiceCd=160&Type=search" }, "geometry": { "type": "Point", "coordinates": [ 138.991867, 37.8985902 ] } },
{ "type": "Feature", "properties": { "内容": "介護老人保健施設健やか園【通所リハビリテーション】新潟県新潟市西区小新1130番地", "url2": "https://www.kaigokensaku.mhlw.go.jp/15/index.php?action_kouhyou_detail_004_kani=true&JigyosyoCd=1550180168-00&ServiceCd=160&Type=search" }, "geometry": { "type": "Point", "coordinates": [ 138.995112400000039, 37.8784901 ] } },
{ "type": "Feature", "properties": { "内容": "介護老人保健施設　葵の園・新潟寺尾【通所リハビリテーション】新潟県新潟市西区寺尾上5-18-17", "url2": "https://www.kaigokensaku.mhlw.go.jp/15/index.php?action_kouhyou_detail_004_kani=true&JigyosyoCd=1550180382-00&ServiceCd=160&Type=search" }, "geometry": { "type": "Point", "coordinates": [ 138.963071799999966, 37.8737639 ] } },
{ "type": "Feature", "properties": { "内容": "医療法人社団おぐま整形外科クリニック　通所リハビリテーション【通所リハビリテーション】新潟県新潟市西区小新5-8-9", "url2": "https://www.kaigokensaku.mhlw.go.jp/15/index.php?action_kouhyou_detail_004_kani=true&JigyosyoCd=1510126590-00&ServiceCd=160&Type=search" }, "geometry": { "type": "Point", "coordinates": [ 139.0019919, 37.881446 ] } },
{ "type": "Feature", "properties": { "内容": "西蒲中央病院【通所リハビリテーション】新潟県新潟市西蒲区旗屋731番地", "url2": "https://www.kaigokensaku.mhlw.go.jp/15/index.php?action_kouhyou_detail_004_kani=true&JigyosyoCd=1510123316-00&ServiceCd=160&Type=search" }, "geometry": { "type": "Point", "coordinates": [ 138.924306200000046, 37.7910454 ] } },
{ "type": "Feature", "properties": { "内容": "一般社団法人　新潟県労働衛生医学協会附属　岩室リハビリテーション病院【通所リハビリテーション】新潟県新潟市西蒲区岩室温泉７７２－１", "url2": "https://www.kaigokensaku.mhlw.go.jp/15/index.php?action_kouhyou_detail_004_kani=true&JigyosyoCd=1510123118-00&ServiceCd=160&Type=search" }, "geometry": { "type": "Point", "coordinates": [ 138.839031200000022, 37.7324411 ] } },
{ "type": "Feature", "properties": { "内容": "介護老人保健施設　　いわむろの里【通所リハビリテーション】新潟県新潟市西蒲区橋本９７番地１", "url2": "https://www.kaigokensaku.mhlw.go.jp/15/index.php?action_kouhyou_detail_004_kani=true&JigyosyoCd=1550180242-00&ServiceCd=160&Type=search" }, "geometry": { "type": "Point", "coordinates": [ 138.84017, 37.7325994 ] } },
{ "type": "Feature", "properties": { "内容": "介護老人保健施設　回生園【通所リハビリテーション】新潟県新潟市西蒲区押付678番地", "url2": "https://www.kaigokensaku.mhlw.go.jp/15/index.php?action_kouhyou_detail_004_kani=true&JigyosyoCd=1550180259-00&ServiceCd=160&Type=search" }, "geometry": { "type": "Point", "coordinates": [ 138.916898899999978, 37.7838154 ] } },
{ "type": "Feature", "properties": { "内容": "介護老人保健施設　めぐみ園【通所リハビリテーション】新潟県新潟市西蒲区国見417番地", "url2": "https://www.kaigokensaku.mhlw.go.jp/15/index.php?action_kouhyou_detail_004_kani=true&JigyosyoCd=1550180275-00&ServiceCd=160&Type=search" }, "geometry": { "type": "Point", "coordinates": [ 138.952216846032684, 37.754565295074443 ] } },
{ "type": "Feature", "properties": { "内容": "介護老人保健施設　槇の里【通所リハビリテーション】新潟県新潟市西蒲区巻甲4363番地", "url2": "https://www.kaigokensaku.mhlw.go.jp/15/index.php?action_kouhyou_detail_004_kani=true&JigyosyoCd=1550180309-00&ServiceCd=160&Type=search" }, "geometry": { "type": "Point", "coordinates": [ 138.893221282833821, 37.754017215003593 ] } },
{ "type": "Feature", "properties": { "内容": "にいがた総合介護サービス【通所リハビリテーション】新潟県新潟市西蒲区巻甲4368番地", "url2": "https://www.kaigokensaku.mhlw.go.jp/15/index.php?action_kouhyou_detail_004_kani=true&JigyosyoCd=1570108280-00&ServiceCd=160&Type=search" }, "geometry": { "type": "Point", "coordinates": [ 138.893934750431782, 37.754174145123272 ] } },
{ "type": "Feature", "properties": { "内容": "通所リハビリテーション　ほほえみ【通所リハビリテーション】新潟県新潟市西蒲区巻甲４２７９－５", "url2": "https://www.kaigokensaku.mhlw.go.jp/15/index.php?action_kouhyou_detail_004_kani=true&JigyosyoCd=1570105583-00&ServiceCd=160&Type=search" }, "geometry": { "type": "Point", "coordinates": [ 138.88975586878658, 37.755900354489832 ] } },
{ "type": "Feature", "properties": { "内容": "通所リハビリテーション　生協かんだ診療所【通所リハビリテーション】新潟県長岡市西新町2-3-22", "url2": "https://www.kaigokensaku.mhlw.go.jp/15/index.php?action_kouhyou_detail_004_kani=true&JigyosyoCd=1570202422-00&ServiceCd=160&Type=search" }, "geometry": { "type": "Point", "coordinates": [ 138.855131799999981, 37.4655491 ] } },
{ "type": "Feature", "properties": { "内容": "長岡西病院【通所リハビリテーション】新潟県長岡市三ツ郷屋町371番地1", "url2": "https://www.kaigokensaku.mhlw.go.jp/15/index.php?action_kouhyou_detail_004_kani=true&JigyosyoCd=1510212267-00&ServiceCd=160&Type=search" }, "geometry": { "type": "Point", "coordinates": [ 138.815773669975243, 37.450039266830082 ] } },
{ "type": "Feature", "properties": { "内容": "介護老人保健施設　桃李園【通所リハビリテーション】新潟県長岡市西津町4630番地", "url2": "https://www.kaigokensaku.mhlw.go.jp/15/index.php?action_kouhyou_detail_004_kani=true&JigyosyoCd=1550280034-00&ServiceCd=160&Type=search" }, "geometry": { "type": "Point", "coordinates": [ 138.772453, 37.426568900000014 ] } },
{ "type": "Feature", "properties": { "内容": "長岡市小国診療所【通所リハビリテーション】新潟県長岡市小国町楢沢88番地", "url2": "https://www.kaigokensaku.mhlw.go.jp/15/index.php?action_kouhyou_detail_004_kani=true&JigyosyoCd=1570204022-00&ServiceCd=160&Type=search" }, "geometry": { "type": "Point", "coordinates": [ 138.706589900000012, 37.2874312 ] } },
{ "type": "Feature", "properties": { "内容": "介護老人保健施設　楽山苑【通所リハビリテーション】新潟県長岡市宮沢327番地1", "url2": "https://www.kaigokensaku.mhlw.go.jp/15/index.php?action_kouhyou_detail_004_kani=true&JigyosyoCd=1550280000-00&ServiceCd=160&Type=search" }, "geometry": { "type": "Point", "coordinates": [ 138.784411117196697, 37.510227378818051 ] } },
{ "type": "Feature", "properties": { "内容": "介護老人保健施設　サンプラザ長岡【通所リハビリテーション】長岡市三ツ郷屋町３５番地", "url2": "https://www.kaigokensaku.mhlw.go.jp/15/index.php?action_kouhyou_detail_004_kani=true&JigyosyoCd=1550280026-00&ServiceCd=160&Type=search" }, "geometry": { "type": "Point", "coordinates": [ 138.815166008092319, 37.450829322099054 ] } },
{ "type": "Feature", "properties": { "内容": "介護老人保健施設悠遊苑【通所リハビリテーション】新潟県長岡市大字日越337", "url2": "https://www.kaigokensaku.mhlw.go.jp/15/index.php?action_kouhyou_detail_004_kani=true&JigyosyoCd=1550280042-00&ServiceCd=160&Type=search" }, "geometry": { "type": "Point", "coordinates": [ 138.7811994, 37.4365903 ] } },
{ "type": "Feature", "properties": { "内容": "介護老人保健施設てらどまり【通所リハビリテーション】新潟県長岡市寺泊下桐850番地1", "url2": "https://www.kaigokensaku.mhlw.go.jp/15/index.php?action_kouhyou_detail_004_kani=true&JigyosyoCd=1550280059-00&ServiceCd=160&Type=search" }, "geometry": { "type": "Point", "coordinates": [ 138.809266687655395, 37.611912862950803 ] } },
{ "type": "Feature", "properties": { "内容": "介護老人保健施設グリーンヒル与板【通所リハビリテーション】長岡市与板町槇原393-8", "url2": "https://www.kaigokensaku.mhlw.go.jp/15/index.php?action_kouhyou_detail_004_kani=true&JigyosyoCd=1550280067-00&ServiceCd=160&Type=search" }, "geometry": { "type": "Point", "coordinates": [ 138.79174890511058, 37.517965791036495 ] } },
{ "type": "Feature", "properties": { "内容": "老人保健施設やすらぎ園【通所リハビリテーション】新潟県長岡市町田町５５５番地", "url2": "https://www.kaigokensaku.mhlw.go.jp/15/index.php?action_kouhyou_detail_004_kani=true&JigyosyoCd=1550280018-00&ServiceCd=160&Type=search" }, "geometry": { "type": "Point", "coordinates": [ 138.860729799999945, 37.4177183 ] } },
{ "type": "Feature", "properties": { "内容": "通所リハビリテーションながおか生協診療所【通所リハビリテーション】新潟県長岡市前田1丁目６番7号", "url2": "https://www.kaigokensaku.mhlw.go.jp/15/index.php?action_kouhyou_detail_004_kani=true&JigyosyoCd=1570202414-00&ServiceCd=160&Type=search" }, "geometry": { "type": "Point", "coordinates": [ 138.860604200000012, 37.4372831 ] } },
{ "type": "Feature", "properties": { "内容": "介護老人保健施設　葵の園・長岡【通所リハビリテーション】新潟県長岡市稲保南三丁目882番2", "url2": "https://www.kaigokensaku.mhlw.go.jp/15/index.php?action_kouhyou_detail_004_kani=true&JigyosyoCd=1550280091-00&ServiceCd=160&Type=search" }, "geometry": { "type": "Point", "coordinates": [ 138.86780505767203, 37.477741671604711 ] } },
{ "type": "Feature", "properties": { "内容": "介護老人保健施設いっぷく２番館【通所リハビリテーション】新潟県三条市帯織８００番地", "url2": "https://www.kaigokensaku.mhlw.go.jp/15/index.php?action_kouhyou_detail_004_kani=true&JigyosyoCd=1550480048-00&ServiceCd=160&Type=search" }, "geometry": { "type": "Point", "coordinates": [ 138.927344100000028, 37.5734245 ] } },
{ "type": "Feature", "properties": { "内容": "医療法人社団川瀬神経内科クリニック【通所リハビリテーション】新潟県三条市東本成寺20-8", "url2": "https://www.kaigokensaku.mhlw.go.jp/15/index.php?action_kouhyou_detail_004_kani=true&JigyosyoCd=1570400141-00&ServiceCd=160&Type=search" }, "geometry": { "type": "Point", "coordinates": [ 138.948893331352224, 37.616710110932296 ] } },
{ "type": "Feature", "properties": { "内容": "新潟県済生会三条病院介護老人保健施設ケアホーム三条【通所リハビリテーション】新潟県三条市大野畑6番85－5号", "url2": "https://www.kaigokensaku.mhlw.go.jp/15/index.php?action_kouhyou_detail_004_kani=true&JigyosyoCd=1550480014-00&ServiceCd=160&Type=search" }, "geometry": { "type": "Point", "coordinates": [ 138.940011199999958, 37.6279683 ] } },
{ "type": "Feature", "properties": { "内容": "介護老人保健施設　マザリー三条【通所リハビリテーション】三条市北入蔵２丁目28番1号", "url2": "https://www.kaigokensaku.mhlw.go.jp/15/index.php?action_kouhyou_detail_004_kani=true&JigyosyoCd=1550480030-00&ServiceCd=160&Type=search" }, "geometry": { "type": "Point", "coordinates": [ 138.985264893711928, 37.632750050293225 ] } },
{ "type": "Feature", "properties": { "内容": "介護老人保健施設　いっぷく【通所リハビリテーション】新潟県三条市長野337番地", "url2": "https://www.kaigokensaku.mhlw.go.jp/15/index.php?action_kouhyou_detail_004_kani=true&JigyosyoCd=1550480006-00&ServiceCd=160&Type=search" }, "geometry": { "type": "Point", "coordinates": [ 139.1144382, 37.5397405 ] } },
{ "type": "Feature", "properties": { "内容": "指定通所リハビリテーション　富永草野【通所リハビリテーション】三条市興野二丁目11-28富永草野クリニック", "url2": "https://www.kaigokensaku.mhlw.go.jp/15/index.php?action_kouhyou_detail_004_kani=true&JigyosyoCd=1570400737-00&ServiceCd=160&Type=search" }, "geometry": { "type": "Point", "coordinates": [ 138.970946599999934, 37.6332742 ] } },
{ "type": "Feature", "properties": { "内容": "通所リハビリテーション　おたまじゃくし【通所リハビリテーション】新潟県三条市東本成寺22番45号本成寺安心住宅かえるハウス1階", "url2": "https://www.kaigokensaku.mhlw.go.jp/15/index.php?action_kouhyou_detail_004_kani=true&JigyosyoCd=1510411737-00&ServiceCd=160&Type=search" }, "geometry": { "type": "Point", "coordinates": [ 138.947648185319537, 37.615215441011401 ] } },
{ "type": "Feature", "properties": { "内容": "介護老人保健施設　さつき荘【通所リハビリテーション】新潟県柏崎市大字軽井川字十三本塚2791-2", "url2": "https://www.kaigokensaku.mhlw.go.jp/15/index.php?action_kouhyou_detail_004_kani=true&JigyosyoCd=1550580037-00&ServiceCd=160&Type=search" }, "geometry": { "type": "Point", "coordinates": [ 138.595337850992308, 37.347288867254399 ] } },
{ "type": "Feature", "properties": { "内容": "介護老人保健施設　米山爽風苑【通所リハビリテーション】新潟県柏崎市大字茨目字二ツ池2071－1", "url2": "https://www.kaigokensaku.mhlw.go.jp/15/index.php?action_kouhyou_detail_004_kani=true&JigyosyoCd=1550580011-00&ServiceCd=160&Type=search" }, "geometry": { "type": "Point", "coordinates": [ 138.586878573754944, 37.353318706523126 ] } },
{ "type": "Feature", "properties": { "内容": "介護老人保健施設いいでの里【通所リハビリテーション】新潟県新発田市金谷197番地", "url2": "https://www.kaigokensaku.mhlw.go.jp/15/index.php?action_kouhyou_detail_004_kani=true&JigyosyoCd=1550680019-00&ServiceCd=160&Type=search" }, "geometry": { "type": "Point", "coordinates": [ 139.36585422275391, 37.944070334714205 ] } },
{ "type": "Feature", "properties": { "内容": "介護老人保健施設二王子【通所リハビリテーション】新潟県新発田市虎丸452番地", "url2": "https://www.kaigokensaku.mhlw.go.jp/15/index.php?action_kouhyou_detail_004_kani=true&JigyosyoCd=1550680035-00&ServiceCd=160&Type=search" }, "geometry": { "type": "Point", "coordinates": [ 139.4148133, 37.9272262 ] } },
{ "type": "Feature", "properties": { "内容": "介護老人保健施設　豊浦愛広苑【通所リハビリテーション】新発田市荒町甲1611-8", "url2": "https://www.kaigokensaku.mhlw.go.jp/15/index.php?action_kouhyou_detail_004_kani=true&JigyosyoCd=1550680001-00&ServiceCd=160&Type=search" }, "geometry": { "type": "Point", "coordinates": [ 139.3218101, 37.935479 ] } },
{ "type": "Feature", "properties": { "内容": "介護老人保健施設　ヴィラ菅谷【通所リハビリテーション】新潟県新発田市下石川766", "url2": "https://www.kaigokensaku.mhlw.go.jp/15/index.php?action_kouhyou_detail_004_kani=true&JigyosyoCd=1550680027-00&ServiceCd=160&Type=search" }, "geometry": { "type": "Point", "coordinates": [ 139.411022300000042, 37.965887100000025 ] } },
{ "type": "Feature", "properties": { "内容": "介護老人保健施設　さくら苑【通所リハビリテーション】新潟県加茂市千刈２丁目８番１３号", "url2": "https://www.kaigokensaku.mhlw.go.jp/15/index.php?action_kouhyou_detail_004_kani=true&JigyosyoCd=1550980021-00&ServiceCd=160&Type=search" }, "geometry": { "type": "Point", "coordinates": [ 139.050935699999968, 37.666055199999938 ] } },
{ "type": "Feature", "properties": { "内容": "新潟県立加茂病院【通所リハビリテーション】新潟県加茂市青海町１－９－１", "url2": "https://www.kaigokensaku.mhlw.go.jp/15/index.php?action_kouhyou_detail_004_kani=true&JigyosyoCd=1570900363-00&ServiceCd=160&Type=search" }, "geometry": { "type": "Point", "coordinates": [ 139.0555214, 37.6649584 ] } },
{ "type": "Feature", "properties": { "内容": "見附市介護老人保健施設ケアプラザ見附【通所リハビリテーション】見附市学校町2丁目13番30号", "url2": "https://www.kaigokensaku.mhlw.go.jp/15/index.php?action_kouhyou_detail_004_kani=true&JigyosyoCd=1551180019-00&ServiceCd=160&Type=search" }, "geometry": { "type": "Point", "coordinates": [ 138.919396, 37.5347622 ] } },
{ "type": "Feature", "properties": { "内容": "介護老人保健施設　三面の里【通所リハビリテーション】新潟県村上市田端町16番7号", "url2": "https://www.kaigokensaku.mhlw.go.jp/15/index.php?action_kouhyou_detail_004_kani=true&JigyosyoCd=1551280017-00&ServiceCd=160&Type=search" }, "geometry": { "type": "Point", "coordinates": [ 139.463948509786974, 38.22348033034303 ] } },
{ "type": "Feature", "properties": { "内容": "医療法人新光会村上記念病院【通所リハビリテーション】新潟県村上市松山204番地1", "url2": "https://www.kaigokensaku.mhlw.go.jp/15/index.php?action_kouhyou_detail_004_kani=true&JigyosyoCd=1511210716-00&ServiceCd=160&Type=search" }, "geometry": { "type": "Point", "coordinates": [ 139.456846, 38.2178015 ] } },
{ "type": "Feature", "properties": { "内容": "介護老人保健施設　優和の里【通所リハビリテーション】新潟県村上市勝木1340-1", "url2": "https://www.kaigokensaku.mhlw.go.jp/15/index.php?action_kouhyou_detail_004_kani=true&JigyosyoCd=1551280025-00&ServiceCd=160&Type=search" }, "geometry": { "type": "Point", "coordinates": [ 139.516442899999987, 38.4905512 ] } },
{ "type": "Feature", "properties": { "内容": "介護老人保健施設杏園【通所リハビリテーション】新潟県村上市猿沢2222", "url2": "https://www.kaigokensaku.mhlw.go.jp/15/index.php?action_kouhyou_detail_004_kani=true&JigyosyoCd=1551280009-00&ServiceCd=160&Type=search" }, "geometry": { "type": "Point", "coordinates": [ 139.526825799999983, 38.2866269 ] } },
{ "type": "Feature", "properties": { "内容": "介護老人保健施設ぶんすい【通所リハビリテーション】新潟県燕市笈ヶ島104-5", "url2": "https://www.kaigokensaku.mhlw.go.jp/15/index.php?action_kouhyou_detail_004_kani=true&JigyosyoCd=1551380007-00&ServiceCd=160&Type=search" }, "geometry": { "type": "Point", "coordinates": [ 138.847096299999947, 37.6197971 ] } },
{ "type": "Feature", "properties": { "内容": "老人保健施設「楽楽」【通所リハビリテーション】新潟県燕市大曲３００３番地", "url2": "https://www.kaigokensaku.mhlw.go.jp/15/index.php?action_kouhyou_detail_004_kani=true&JigyosyoCd=1551380015-00&ServiceCd=160&Type=search" }, "geometry": { "type": "Point", "coordinates": [ 138.918801600000052, 37.6488346 ] } },
{ "type": "Feature", "properties": { "内容": "介護老人保健施設エバーグリーン【通所リハビリテーション】新潟県燕市富永２１６番地1", "url2": "https://www.kaigokensaku.mhlw.go.jp/15/index.php?action_kouhyou_detail_004_kani=true&JigyosyoCd=1551380023-00&ServiceCd=160&Type=search" }, "geometry": { "type": "Point", "coordinates": [ 138.889683600000012, 37.6959077 ] } },
{ "type": "Feature", "properties": { "内容": "介護老人保健施設アグリケアコートいといがわ【通所リハビリテーション】新潟県糸魚川市横町5丁目9番12号", "url2": "https://www.kaigokensaku.mhlw.go.jp/15/index.php?action_kouhyou_detail_004_kani=true&JigyosyoCd=1551580028-00&ServiceCd=160&Type=search" }, "geometry": { "type": "Point", "coordinates": [ 137.8473146, 37.0427973 ] } },
{ "type": "Feature", "properties": { "内容": "医療法人社団　揚石医院　こぶしリハビリセンター【通所リハビリテーション】新潟県妙高市石塚町1-14-10", "url2": "https://www.kaigokensaku.mhlw.go.jp/15/index.php?action_kouhyou_detail_004_kani=true&JigyosyoCd=1571600459-00&ServiceCd=160&Type=search" }, "geometry": { "type": "Point", "coordinates": [ 138.2511422, 37.0332508 ] } },
{ "type": "Feature", "properties": { "内容": "介護老人保健施設　はねうまの里【通所リハビリテーション】新潟県妙高市田町2丁目4番7号", "url2": "https://www.kaigokensaku.mhlw.go.jp/15/index.php?action_kouhyou_detail_004_kani=true&JigyosyoCd=1551680000-00&ServiceCd=160&Type=search" }, "geometry": { "type": "Point", "coordinates": [ 138.252048065606687, 37.020854937016047 ] } },
{ "type": "Feature", "properties": { "内容": "介護老人保健施設新井愛広苑【通所リハビリテーション】妙高市大字小原新田528番地", "url2": "https://www.kaigokensaku.mhlw.go.jp/15/index.php?action_kouhyou_detail_004_kani=true&JigyosyoCd=1551680018-00&ServiceCd=160&Type=search" }, "geometry": { "type": "Point", "coordinates": [ 138.268734, 36.9743778 ] } },
{ "type": "Feature", "properties": { "内容": "老人保健施設　愛宕の里【通所リハビリテーション】新潟県五泉市村松1409番地1", "url2": "https://www.kaigokensaku.mhlw.go.jp/15/index.php?action_kouhyou_detail_004_kani=true&JigyosyoCd=1551780008-00&ServiceCd=160&Type=search" }, "geometry": { "type": "Point", "coordinates": [ 139.1747368, 37.7004045 ] } },
{ "type": "Feature", "properties": { "内容": "デイケアひまわり【通所リハビリテーション】五泉市南本町３丁目９４８番地１", "url2": "https://www.kaigokensaku.mhlw.go.jp/15/index.php?action_kouhyou_detail_004_kani=true&JigyosyoCd=1511710442-00&ServiceCd=160&Type=search" }, "geometry": { "type": "Point", "coordinates": [ 139.1773796, 37.7307929 ] } },
{ "type": "Feature", "properties": { "内容": "介護老人保健施設保倉の里【通所リハビリテーション】上越市浦川原区顕聖寺730番地1", "url2": "https://www.kaigokensaku.mhlw.go.jp/15/index.php?action_kouhyou_detail_004_kani=true&JigyosyoCd=1550380008-00&ServiceCd=160&Type=search" }, "geometry": { "type": "Point", "coordinates": [ 138.417125100000021, 37.1591823 ] } },
{ "type": "Feature", "properties": { "内容": "介護老人保健施設高田の郷【通所リハビリテーション】新潟県上越市新南町28番地3", "url2": "https://www.kaigokensaku.mhlw.go.jp/15/index.php?action_kouhyou_detail_004_kani=true&JigyosyoCd=1550380024-00&ServiceCd=160&Type=search" }, "geometry": { "type": "Point", "coordinates": [ 138.272773, 37.1070819 ] } },
{ "type": "Feature", "properties": { "内容": "介護老人保健施設　くびきの【通所リハビリテーション】新潟県上越市西城町３丁目６番３１号", "url2": "https://www.kaigokensaku.mhlw.go.jp/15/index.php?action_kouhyou_detail_004_kani=true&JigyosyoCd=1550380016-00&ServiceCd=160&Type=search" }, "geometry": { "type": "Point", "coordinates": [ 138.248155399999973, 37.1150858 ] } },
{ "type": "Feature", "properties": { "内容": "介護老人保健施設　そよかぜ倶楽部【通所リハビリテーション】新潟県上越市大字今泉字西蓮池1310-5", "url2": "https://www.kaigokensaku.mhlw.go.jp/15/index.php?action_kouhyou_detail_004_kani=true&JigyosyoCd=1550380065-00&ServiceCd=160&Type=search" }, "geometry": { "type": "Point", "coordinates": [ 138.24757078341986, 37.093139554741661 ] } },
{ "type": "Feature", "properties": { "内容": "介護老人保健施設　葵の園・上越【通所リハビリテーション】新潟県上越市頸城区上吉194", "url2": "https://www.kaigokensaku.mhlw.go.jp/15/index.php?action_kouhyou_detail_004_kani=true&JigyosyoCd=1550380107-00&ServiceCd=160&Type=search" }, "geometry": { "type": "Point", "coordinates": [ 138.289207968678284, 37.184144950022471 ] } },
{ "type": "Feature", "properties": { "内容": "介護老人保健施設国府の里【通所リハビリテーション】新潟県上越市五智4-7-21", "url2": "https://www.kaigokensaku.mhlw.go.jp/15/index.php?action_kouhyou_detail_004_kani=true&JigyosyoCd=1550380032-00&ServiceCd=160&Type=search" }, "geometry": { "type": "Point", "coordinates": [ 138.22564669999997, 37.1709724 ] } },
{ "type": "Feature", "properties": { "内容": "介護老人保健施設サンクス米山【通所リハビリテーション】新潟県上越市柿崎区上下浜219番地5", "url2": "https://www.kaigokensaku.mhlw.go.jp/15/index.php?action_kouhyou_detail_004_kani=true&JigyosyoCd=1550380040-00&ServiceCd=160&Type=search" }, "geometry": { "type": "Point", "coordinates": [ 138.349547799999982, 37.2489561 ] } },
{ "type": "Feature", "properties": { "内容": "あがの市民病院　介護老人保健施設　五頭の里【通所リハビリテーション】新潟県阿賀野市岡山町13-23", "url2": "https://www.kaigokensaku.mhlw.go.jp/15/index.php?action_kouhyou_detail_004_kani=true&JigyosyoCd=1572100715-00&ServiceCd=160&Type=search" }, "geometry": { "type": "Point", "coordinates": [ 139.2216168, 37.8336511 ] } },
{ "type": "Feature", "properties": { "内容": "介護老人保健施設　阿賀の庄【通所リハビリテーション】阿賀野市保田６３１７番地４６介護老人保健施設　阿賀の庄", "url2": "https://www.kaigokensaku.mhlw.go.jp/15/index.php?action_kouhyou_detail_004_kani=true&JigyosyoCd=1552180034-00&ServiceCd=160&Type=search" }, "geometry": { "type": "Point", "coordinates": [ 139.2716279, 37.7790643 ] } },
{ "type": "Feature", "properties": { "内容": "介護老人保健施設親里【通所リハビリテーション】新潟県佐渡市住吉１２６番地２", "url2": "https://www.kaigokensaku.mhlw.go.jp/15/index.php?action_kouhyou_detail_004_kani=true&JigyosyoCd=1552280073-00&ServiceCd=160&Type=search" }, "geometry": { "type": "Point", "coordinates": [ 138.45006920000003, 38.0718652 ] } },
{ "type": "Feature", "properties": { "内容": "介護老人保健施設　相川愛広苑【通所リハビリテーション】新潟県佐渡市相川大浦571", "url2": "https://www.kaigokensaku.mhlw.go.jp/15/index.php?action_kouhyou_detail_004_kani=true&JigyosyoCd=1552280065-00&ServiceCd=160&Type=search" }, "geometry": { "type": "Point", "coordinates": [ 138.224236092659794, 38.015887052322029 ] } },
{ "type": "Feature", "properties": { "内容": "佐渡市介護老人保健施設　すこやか両津【通所リハビリテーション】新潟県佐渡市中興乙1601番地１", "url2": "https://www.kaigokensaku.mhlw.go.jp/15/index.php?action_kouhyou_detail_004_kani=true&JigyosyoCd=1552280057-00&ServiceCd=160&Type=search" }, "geometry": { "type": "Point", "coordinates": [ 138.358133700085176, 38.026722395122547 ] } },
{ "type": "Feature", "properties": { "内容": "ほんだ病院【通所リハビリテーション】新潟県魚沼市原虫野４３３番地３", "url2": "https://www.kaigokensaku.mhlw.go.jp/15/index.php?action_kouhyou_detail_004_kani=true&JigyosyoCd=1572300117-00&ServiceCd=160&Type=search" }, "geometry": { "type": "Point", "coordinates": [ 138.963511899999958, 37.2139553 ] } },
{ "type": "Feature", "properties": { "内容": "南魚沼市民病院付属城内診療所通所リハビリテーションセンターあくてぃぶ【通所リハビリテーション】新潟県南魚沼市泉甲１５４－１", "url2": "https://www.kaigokensaku.mhlw.go.jp/15/index.php?action_kouhyou_detail_004_kani=true&JigyosyoCd=1512410372-00&ServiceCd=160&Type=search" }, "geometry": { "type": "Point", "coordinates": [ 138.9184122, 37.094903800000012 ] } },
{ "type": "Feature", "properties": { "内容": "萌気園浦佐診療所「萌気園通所リハビリセンター浦佐」【通所リハビリテーション】新潟県南魚沼市浦佐5363-1", "url2": "https://www.kaigokensaku.mhlw.go.jp/15/index.php?action_kouhyou_detail_004_kani=true&JigyosyoCd=1512410414-00&ServiceCd=160&Type=search" }, "geometry": { "type": "Point", "coordinates": [ 138.929847099999961, 37.1687045 ] } },
{ "type": "Feature", "properties": { "内容": "介護老人保健施設越南苑【通所リハビリテーション】新潟県南魚沼市五日町２４０５番地", "url2": "https://www.kaigokensaku.mhlw.go.jp/15/index.php?action_kouhyou_detail_004_kani=true&JigyosyoCd=1552480004-00&ServiceCd=160&Type=search" }, "geometry": { "type": "Point", "coordinates": [ 138.902815499999946, 37.1256737 ] } },
{ "type": "Feature", "properties": { "内容": "萌気園二日町診療所「曼陀羅華」【通所リハビリテーション】新潟県南魚沼市二日町205-6", "url2": "https://www.kaigokensaku.mhlw.go.jp/15/index.php?action_kouhyou_detail_004_kani=true&JigyosyoCd=1572400305-00&ServiceCd=160&Type=search" }, "geometry": { "type": "Point", "coordinates": [ 138.89870590000001, 37.0839006 ] } },
{ "type": "Feature", "properties": { "内容": "介護老人保健施設中条愛広苑【通所リハビリテーション】胎内市十二天91番地", "url2": "https://www.kaigokensaku.mhlw.go.jp/15/index.php?action_kouhyou_detail_004_kani=true&JigyosyoCd=1552580027-00&ServiceCd=160&Type=search" }, "geometry": { "type": "Point", "coordinates": [ 139.409089900000026, 38.0915792 ] } },
{ "type": "Feature", "properties": { "内容": "胎内市デイケアセンターと･も･だ･ち【通所リハビリテーション】新潟県胎内市西本町１１番１１号", "url2": "https://www.kaigokensaku.mhlw.go.jp/15/index.php?action_kouhyou_detail_004_kani=true&JigyosyoCd=1512510064-00&ServiceCd=160&Type=search" }, "geometry": { "type": "Point", "coordinates": [ 139.394866906082115, 38.052496146931134 ] } },
{ "type": "Feature", "properties": { "内容": "介護老人保健施設　マチュアハウス中条【通所リハビリテーション】胎内市中村浜字築地原６９９－１３６", "url2": "https://www.kaigokensaku.mhlw.go.jp/15/index.php?action_kouhyou_detail_004_kani=true&JigyosyoCd=1552580019-00&ServiceCd=160&Type=search" }, "geometry": { "type": "Point", "coordinates": [ 139.350109695107108, 38.068588432732064 ] } },
{ "type": "Feature", "properties": { "内容": "介護老人保健施設やまぼうし【通所リハビリテーション】新潟県胎内市下館字大開1522番地", "url2": "https://www.kaigokensaku.mhlw.go.jp/15/index.php?action_kouhyou_detail_004_kani=true&JigyosyoCd=1552580001-00&ServiceCd=160&Type=search" }, "geometry": { "type": "Point", "coordinates": [ 139.445657, 38.081607 ] } },
{ "type": "Feature", "properties": { "内容": "介護老人保健施設　汐彩の郷【通所リハビリテーション】新潟県北蒲原郡聖籠町大字次第浜5372番地", "url2": "https://www.kaigokensaku.mhlw.go.jp/15/index.php?action_kouhyou_detail_004_kani=true&JigyosyoCd=1555080066-00&ServiceCd=160&Type=search" }, "geometry": { "type": "Point", "coordinates": [ 139.2748686, 38.0186392 ] } },
{ "type": "Feature", "properties": { "内容": "介護老人保健施設　晴和会田上園【通所リハビリテーション】新潟県南蒲原郡田上町羽生田乙572-35", "url2": "https://www.kaigokensaku.mhlw.go.jp/15/index.php?action_kouhyou_detail_004_kani=true&JigyosyoCd=1555380003-00&ServiceCd=160&Type=search" }, "geometry": { "type": "Point", "coordinates": [ 139.062095499999941, 37.6852113 ] } },
{ "type": "Feature", "properties": { "内容": "介護老人保健施設三川しんあい園【通所リハビリテーション】新潟県東蒲原郡阿賀町あが野南４３２４－２", "url2": "https://www.kaigokensaku.mhlw.go.jp/15/index.php?action_kouhyou_detail_004_kani=true&JigyosyoCd=1555480019-00&ServiceCd=160&Type=search" }, "geometry": { "type": "Point", "coordinates": [ 139.3675938, 37.7086858 ] } },
{ "type": "Feature", "properties": { "内容": "町立津南病院【通所リハビリテーション】新潟県中魚沼郡津南町下船渡丁2682番地", "url2": "https://www.kaigokensaku.mhlw.go.jp/15/index.php?action_kouhyou_detail_004_kani=true&JigyosyoCd=1515910071-00&ServiceCd=160&Type=search" }, "geometry": { "type": "Point", "coordinates": [ 138.648437199999989, 37.0156524 ] } },
{ "type": "Feature", "properties": { "内容": "介護老人保健施設関川愛広苑【通所リハビリテーション】新潟県岩船郡関川村大字湯沢728-7", "url2": "https://www.kaigokensaku.mhlw.go.jp/15/index.php?action_kouhyou_detail_004_kani=true&JigyosyoCd=1556480018-00&ServiceCd=160&Type=search" }, "geometry": { "type": "Point", "coordinates": [ 139.5751553, 38.094339 ] } }
]
}
