{
"type": "FeatureCollection",
"name": "geo_15_幼稚園",
"crs": { "type": "name", "properties": { "name": "urn:ogc:def:crs:EPSG::6668" } },
"features": [
{ "type": "Feature", "properties": { "P29_001": "15202", "P29_002": "A115110000016", "P29_003": "16011", "P29_004": "新潟大学附属幼稚園", "P29_005": "新潟県長岡市学校町1-1-1", "P29_006": "1", "P29_007": "0", "P29_008": "00", "P29_009": null }, "geometry": { "type": "Point", "coordinates": [ 138.863116780428669, 37.440990635877959 ] } },
{ "type": "Feature", "properties": { "P29_001": "15222", "P29_002": "A115110000025", "P29_003": "16011", "P29_004": "上越教育大学附属幼稚園", "P29_005": "新潟県上越市山屋敷町1", "P29_006": "1", "P29_007": "0", "P29_008": "00", "P29_009": null }, "geometry": { "type": "Point", "coordinates": [ 138.222415699033149, 37.133193797734727 ] } },
{ "type": "Feature", "properties": { "P29_001": "15102", "P29_002": "A115210000014", "P29_003": "16011", "P29_004": "新潟県立幼稚園", "P29_005": "新潟県新潟市東区海老ヶ瀬461", "P29_006": "2", "P29_007": "0", "P29_008": "00", "P29_009": null }, "geometry": { "type": "Point", "coordinates": [ 139.12691908957666, 37.924865115424424 ] } },
{ "type": "Feature", "properties": { "P29_001": "15102", "P29_002": "A115210000023", "P29_003": "16011", "P29_004": "新潟市立牡丹山幼稚園", "P29_005": "新潟県新潟市東区牡丹山6-15-2", "P29_006": "3", "P29_007": "0", "P29_008": "00", "P29_009": null }, "geometry": { "type": "Point", "coordinates": [ 139.099762131563779, 37.918625043659631 ] } },
{ "type": "Feature", "properties": { "P29_001": "15103", "P29_002": "A115210000032", "P29_003": "16011", "P29_004": "新潟市立沼垂幼稚園", "P29_005": "新潟県新潟市中央区鏡が岡5-5", "P29_006": "3", "P29_007": "0", "P29_008": "00", "P29_009": null }, "geometry": { "type": "Point", "coordinates": [ 139.073740170264045, 37.916921218787792 ] } },
{ "type": "Feature", "properties": { "P29_001": "15105", "P29_002": "A115210000041", "P29_003": "16011", "P29_004": "新潟市立新津第一幼稚園", "P29_005": "新潟県新潟市秋葉区新津本町4-4-3", "P29_006": "3", "P29_007": "0", "P29_008": "00", "P29_009": null }, "geometry": { "type": "Point", "coordinates": [ 139.125454969838898, 37.793710926727393 ] } },
{ "type": "Feature", "properties": { "P29_001": "15105", "P29_002": "A115210000069", "P29_003": "16011", "P29_004": "新潟市立結幼稚園", "P29_005": "新潟県新潟市秋葉区結160-3", "P29_006": "3", "P29_007": "0", "P29_008": "00", "P29_009": null }, "geometry": { "type": "Point", "coordinates": [ 139.120551000681871, 37.82857099889479 ] } },
{ "type": "Feature", "properties": { "P29_001": "15105", "P29_002": "A115210000078", "P29_003": "16011", "P29_004": "新潟市立市之瀬幼稚園", "P29_005": "新潟県新潟市秋葉区市之瀬349-2", "P29_006": "3", "P29_007": "0", "P29_008": "00", "P29_009": null }, "geometry": { "type": "Point", "coordinates": [ 139.077183245379302, 37.83364284601975 ] } },
{ "type": "Feature", "properties": { "P29_001": "15105", "P29_002": "A115210000096", "P29_003": "16011", "P29_004": "新潟市立新津第三幼稚園", "P29_005": "新潟県新潟市秋葉区山谷町3-4785", "P29_006": "3", "P29_007": "0", "P29_008": "00", "P29_009": null }, "geometry": { "type": "Point", "coordinates": [ 139.112697627170121, 37.801335547921909 ] } },
{ "type": "Feature", "properties": { "P29_001": "15107", "P29_002": "A115210000112", "P29_003": "16011", "P29_004": "新潟市立西幼稚園", "P29_005": "新潟県新潟市西区内野上新町11791-2", "P29_006": "3", "P29_007": "0", "P29_008": "00", "P29_009": null }, "geometry": { "type": "Point", "coordinates": [ 138.913977118711756, 37.850226643861149 ] } },
{ "type": "Feature", "properties": { "P29_001": "15202", "P29_002": "A115220200011", "P29_003": "16011", "P29_004": "長岡市立与板幼稚園", "P29_005": "新潟県長岡市与板町甲95", "P29_006": "3", "P29_007": "0", "P29_008": "00", "P29_009": null }, "geometry": { "type": "Point", "coordinates": [ 138.808956713540965, 37.540122467891379 ] } },
{ "type": "Feature", "properties": { "P29_001": "15206", "P29_002": "A115220600017", "P29_003": "16011", "P29_004": "新発田市立御免町幼稚園", "P29_005": "新潟県新発田市大栄町4-5-17", "P29_006": "3", "P29_007": "0", "P29_008": "00", "P29_009": null }, "geometry": { "type": "Point", "coordinates": [ 139.320420883618908, 37.943242624556177 ] } },
{ "type": "Feature", "properties": { "P29_001": "15213", "P29_002": "A115221300018", "P29_003": "16011", "P29_004": "燕市立燕東幼稚園", "P29_005": "新潟県燕市燕新町1-20", "P29_006": "3", "P29_007": "0", "P29_008": "00", "P29_009": null }, "geometry": { "type": "Point", "coordinates": [ 138.931892032613547, 37.663539995972535 ] } },
{ "type": "Feature", "properties": { "P29_001": "15216", "P29_002": "A115221600015", "P29_003": "16011", "P29_004": "糸魚川市立青海幼稚園", "P29_005": "新潟県糸魚川市青海675", "P29_006": "3", "P29_007": "0", "P29_008": "00", "P29_009": null }, "geometry": { "type": "Point", "coordinates": [ 137.796851612993436, 37.021222565561445 ] } },
{ "type": "Feature", "properties": { "P29_001": "15216", "P29_002": "A115221600024", "P29_003": "16011", "P29_004": "糸魚川市立田沢幼稚園", "P29_005": "新潟県糸魚川市大字田海13-2", "P29_006": "3", "P29_007": "0", "P29_008": "00", "P29_009": null }, "geometry": { "type": "Point", "coordinates": [ 137.821098259497745, 37.032656675149902 ] } },
{ "type": "Feature", "properties": { "P29_001": "15218", "P29_002": "A115221800013", "P29_003": "16011", "P29_004": "五泉市立第一幼稚園", "P29_005": "新潟県五泉市学校町3-52", "P29_006": "3", "P29_007": "0", "P29_008": "00", "P29_009": null }, "geometry": { "type": "Point", "coordinates": [ 139.178288808860685, 37.743283576210729 ] } },
{ "type": "Feature", "properties": { "P29_001": "15222", "P29_002": "A115222200017", "P29_003": "16011", "P29_004": "上越市立高田幼稚園", "P29_005": "新潟県上越市大手町5-37", "P29_006": "3", "P29_007": "0", "P29_008": "00", "P29_009": null }, "geometry": { "type": "Point", "coordinates": [ 138.248237768299106, 37.107709404022586 ] } },
{ "type": "Feature", "properties": { "P29_001": "15223", "P29_002": "A115222300025", "P29_003": "16011", "P29_004": "阿賀野市立認定こども園京ヶ瀬幼稚園", "P29_005": "新潟県阿賀野市緑岡129-1", "P29_006": "3", "P29_007": "0", "P29_008": "00", "P29_009": null }, "geometry": { "type": "Point", "coordinates": [ 139.18862800707285, 37.8426015002455 ] } },
{ "type": "Feature", "properties": { "P29_001": "15224", "P29_002": "A115222400024", "P29_003": "16011", "P29_004": "佐渡市立さわた幼稚園", "P29_005": "新潟県佐渡市河原田本町262", "P29_006": "3", "P29_007": "0", "P29_008": "00", "P29_009": null }, "geometry": { "type": "Point", "coordinates": [ 138.319511588950434, 37.999633665047568 ] } },
{ "type": "Feature", "properties": { "P29_001": "15224", "P29_002": "A115222400033", "P29_003": "16011", "P29_004": "佐渡市立小木幼稚園", "P29_005": "新潟県佐渡市小木1522", "P29_006": "3", "P29_007": "0", "P29_008": "00", "P29_009": null }, "geometry": { "type": "Point", "coordinates": [ 138.271713117572347, 37.815489388762487 ] } },
{ "type": "Feature", "properties": { "P29_001": "15225", "P29_002": "A115222500014", "P29_003": "16011", "P29_004": "魚沼市立入広瀬幼稚園", "P29_005": "新潟県魚沼市穴沢246-1", "P29_006": "3", "P29_007": "0", "P29_008": "00", "P29_009": null }, "geometry": { "type": "Point", "coordinates": [ 139.071511226424917, 37.358124882611683 ] } },
{ "type": "Feature", "properties": { "P29_001": "15307", "P29_002": "A115230700042", "P29_003": "16011", "P29_004": "聖籠町立せいろう幼稚園", "P29_005": "新潟県北蒲原郡聖籠町大字蓮潟2890-2", "P29_006": "3", "P29_007": "0", "P29_008": "00", "P29_009": null }, "geometry": { "type": "Point", "coordinates": [ 139.26968995386315, 37.983640341455683 ] } },
{ "type": "Feature", "properties": { "P29_001": "15101", "P29_002": "A115310000049", "P29_003": "16011", "P29_004": "早通みずほ幼稚園", "P29_005": "新潟県新潟市北区早通78", "P29_006": "4", "P29_007": "0", "P29_008": "00", "P29_009": null }, "geometry": { "type": "Point", "coordinates": [ 139.176948899414555, 37.922193652333078 ] } },
{ "type": "Feature", "properties": { "P29_001": "15102", "P29_002": "A115310000058", "P29_003": "16011", "P29_004": "あおい幼稚園", "P29_005": "新潟県新潟市東区津島屋3-100", "P29_006": "4", "P29_007": "0", "P29_008": "00", "P29_009": null }, "geometry": { "type": "Point", "coordinates": [ 139.132265553773635, 37.941736059043414 ] } },
{ "type": "Feature", "properties": { "P29_001": "15103", "P29_002": "A115310000076", "P29_003": "16011", "P29_004": "二葉幼稚園", "P29_005": "新潟県新潟市中央区西中町714", "P29_006": "4", "P29_007": "0", "P29_008": "00", "P29_009": null }, "geometry": { "type": "Point", "coordinates": [ 139.038901480751008, 37.921151081415353 ] } },
{ "type": "Feature", "properties": { "P29_001": "15103", "P29_002": "A115310000085", "P29_003": "16011", "P29_004": "あさひ幼稚園", "P29_005": "新潟県新潟市中央区旭町通二番町5239", "P29_006": "4", "P29_007": "0", "P29_008": "00", "P29_009": null }, "geometry": { "type": "Point", "coordinates": [ 139.032579507715667, 37.922914669043067 ] } },
{ "type": "Feature", "properties": { "P29_001": "15103", "P29_002": "A115310000094", "P29_003": "16011", "P29_004": "まるみ幼稚園", "P29_005": "新潟県新潟市中央区南出来島1-17-1", "P29_006": "4", "P29_007": "0", "P29_008": "00", "P29_009": null }, "geometry": { "type": "Point", "coordinates": [ 139.026030625416325, 37.895932595631528 ] } },
{ "type": "Feature", "properties": { "P29_001": "15103", "P29_002": "A115310000101", "P29_003": "16011", "P29_004": "新潟青陵幼稚園", "P29_005": "新潟県新潟市中央区水道町1-5939", "P29_006": "4", "P29_007": "0", "P29_008": "00", "P29_009": null }, "geometry": { "type": "Point", "coordinates": [ 139.026367941200704, 37.920985113240732 ] } },
{ "type": "Feature", "properties": { "P29_001": "15103", "P29_002": "A115310000110", "P29_003": "16011", "P29_004": "みどり幼稚園", "P29_005": "新潟県新潟市中央区東中通1番町86", "P29_006": "4", "P29_007": "0", "P29_008": "00", "P29_009": null }, "geometry": { "type": "Point", "coordinates": [ 139.038358031525206, 37.920371151954036 ] } },
{ "type": "Feature", "properties": { "P29_001": "15103", "P29_002": "A115310000129", "P29_003": "16011", "P29_004": "神宮幼稚園", "P29_005": "新潟県新潟市中央区西大畑町5195", "P29_006": "4", "P29_007": "0", "P29_008": "00", "P29_009": null }, "geometry": { "type": "Point", "coordinates": [ 139.038868168837269, 37.926402487755944 ] } },
{ "type": "Feature", "properties": { "P29_001": "15103", "P29_002": "A115310000138", "P29_003": "16011", "P29_004": "新潟中央幼稚園", "P29_005": "新潟県新潟市中央区西堀通7番町1558", "P29_006": "4", "P29_007": "0", "P29_008": "00", "P29_009": null }, "geometry": { "type": "Point", "coordinates": [ 139.04359247013744, 37.9249560751174 ] } },
{ "type": "Feature", "properties": { "P29_001": "15103", "P29_002": "A115310000156", "P29_003": "16011", "P29_004": "聖ラファエル幼稚園", "P29_005": "新潟県新潟市中央区花園2-6-7", "P29_006": "4", "P29_007": "0", "P29_008": "00", "P29_009": null }, "geometry": { "type": "Point", "coordinates": [ 139.066863685748899, 37.915051094948062 ] } },
{ "type": "Feature", "properties": { "P29_001": "15103", "P29_002": "A115310000165", "P29_003": "16011", "P29_004": "真人幼稚園", "P29_005": "新潟県新潟市中央区鎧西2-21-17", "P29_006": "4", "P29_007": "0", "P29_008": "00", "P29_009": null }, "geometry": { "type": "Point", "coordinates": [ 139.060910126067171, 37.90113947301203 ] } },
{ "type": "Feature", "properties": { "P29_001": "15103", "P29_002": "A115310000174", "P29_003": "16011", "P29_004": "恵光学園第１幼稚園", "P29_005": "新潟県新潟市中央区天神尾1-4-1", "P29_006": "4", "P29_007": "0", "P29_008": "00", "P29_009": null }, "geometry": { "type": "Point", "coordinates": [ 139.055801612652459, 37.909154188392726 ] } },
{ "type": "Feature", "properties": { "P29_001": "15104", "P29_002": "A115310000183", "P29_003": "16011", "P29_004": "曽野木まるみ幼稚園", "P29_005": "新潟県新潟市江南区曽野木1-19-17", "P29_006": "4", "P29_007": "0", "P29_008": "00", "P29_009": null }, "geometry": { "type": "Point", "coordinates": [ 139.040754733548994, 37.867005249239504 ] } },
{ "type": "Feature", "properties": { "P29_001": "15104", "P29_002": "A115310000192", "P29_003": "16011", "P29_004": "亀田カトリック幼稚園", "P29_005": "新潟県新潟市江南区船戸山4-5-7", "P29_006": "4", "P29_007": "0", "P29_008": "00", "P29_009": null }, "geometry": { "type": "Point", "coordinates": [ 139.105176611086193, 37.867716307342846 ] } },
{ "type": "Feature", "properties": { "P29_001": "15107", "P29_002": "A115310000227", "P29_003": "16011", "P29_004": "あそびの森金鵄幼稚園", "P29_005": "新潟県新潟市西区小針台1-4", "P29_006": "4", "P29_007": "0", "P29_008": "00", "P29_009": null }, "geometry": { "type": "Point", "coordinates": [ 138.989745153013416, 37.891129594415212 ] } },
{ "type": "Feature", "properties": { "P29_001": "15107", "P29_002": "A115310000236", "P29_003": "16011", "P29_004": "坂井輪幼稚園", "P29_005": "新潟県新潟市西区坂井東4-12-8", "P29_006": "4", "P29_007": "0", "P29_008": "00", "P29_009": null }, "geometry": { "type": "Point", "coordinates": [ 138.975038565976917, 37.871898937655381 ] } },
{ "type": "Feature", "properties": { "P29_001": "15108", "P29_002": "A115310000245", "P29_003": "16011", "P29_004": "ひのまる幼稚園", "P29_005": "新潟県新潟市西蒲区巻甲755", "P29_006": "4", "P29_007": "0", "P29_008": "00", "P29_009": null }, "geometry": { "type": "Point", "coordinates": [ 138.885344388114987, 37.760849426398728 ] } },
{ "type": "Feature", "properties": { "P29_001": "15108", "P29_002": "A115310000254", "P29_003": "16011", "P29_004": "和光幼稚園", "P29_005": "新潟県新潟市西蒲区押付1361-2", "P29_006": "4", "P29_007": "0", "P29_008": "00", "P29_009": null }, "geometry": { "type": "Point", "coordinates": [ 138.915020208076157, 37.786417053146792 ] } },
{ "type": "Feature", "properties": { "P29_001": "15202", "P29_002": "A115320200019", "P29_003": "16011", "P29_004": "鵬幼稚園", "P29_005": "新潟県長岡市豊2-13-24", "P29_006": "4", "P29_007": "0", "P29_008": "00", "P29_009": null }, "geometry": { "type": "Point", "coordinates": [ 138.87013670527395, 37.461631806067132 ] } },
{ "type": "Feature", "properties": { "P29_001": "15202", "P29_002": "A115320200028", "P29_003": "16011", "P29_004": "宮内白ゆり幼稚園", "P29_005": "新潟県長岡市下条町1440-1", "P29_006": "4", "P29_007": "0", "P29_008": "00", "P29_009": null }, "geometry": { "type": "Point", "coordinates": [ 138.840504796799451, 37.407433459964629 ] } },
{ "type": "Feature", "properties": { "P29_001": "15204", "P29_002": "A115320400017", "P29_003": "16011", "P29_004": "三条白百合幼稚園", "P29_005": "新潟県三条市興野1-5-18", "P29_006": "4", "P29_007": "0", "P29_008": "00", "P29_009": null }, "geometry": { "type": "Point", "coordinates": [ 138.969354562357921, 37.631885397374148 ] } },
{ "type": "Feature", "properties": { "P29_001": "15204", "P29_002": "A115320400026", "P29_003": "16011", "P29_004": "認定こども園インマヌエルルーテル幼稚園", "P29_005": "新潟県三条市興野1-4-15", "P29_006": "4", "P29_007": "0", "P29_008": "00", "P29_009": null }, "geometry": { "type": "Point", "coordinates": [ 138.968874002770917, 37.632801995327924 ] } },
{ "type": "Feature", "properties": { "P29_001": "15204", "P29_002": "A115320400035", "P29_003": "16011", "P29_004": "宝塔院幼稚園", "P29_005": "新潟県三条市東裏館1-6-5", "P29_006": "4", "P29_007": "0", "P29_008": "00", "P29_009": null }, "geometry": { "type": "Point", "coordinates": [ 138.958910539088805, 37.633227921303046 ] } },
{ "type": "Feature", "properties": { "P29_001": "15205", "P29_002": "A115320500016", "P29_003": "16011", "P29_004": "柏崎中央幼稚園", "P29_005": "新潟県柏崎市西本町1-10-41", "P29_006": "4", "P29_007": "0", "P29_008": "00", "P29_009": null }, "geometry": { "type": "Point", "coordinates": [ 138.551374891589575, 37.368054321086774 ] } },
{ "type": "Feature", "properties": { "P29_001": "15205", "P29_002": "A115320500025", "P29_003": "16011", "P29_004": "柏崎二葉幼稚園", "P29_005": "新潟県柏崎市大字藤井字山崎756-3", "P29_006": "4", "P29_007": "0", "P29_008": "00", "P29_009": null }, "geometry": { "type": "Point", "coordinates": [ 138.588969739445758, 37.367026700733362 ] } },
{ "type": "Feature", "properties": { "P29_001": "15205", "P29_002": "A115320500034", "P29_003": "16011", "P29_004": "小鳩幼稚園", "P29_005": "新潟県柏崎市東本町2-4-5", "P29_006": "4", "P29_007": "0", "P29_008": "00", "P29_009": null }, "geometry": { "type": "Point", "coordinates": [ 138.558564001768048, 37.369111000288235 ] } },
{ "type": "Feature", "properties": { "P29_001": "15205", "P29_002": "A115320500043", "P29_003": "16011", "P29_004": "花ぞの幼稚園", "P29_005": "新潟県柏崎市新花町12-20", "P29_006": "4", "P29_007": "0", "P29_008": "00", "P29_009": null }, "geometry": { "type": "Point", "coordinates": [ 138.558987074345453, 37.377650117638701 ] } },
{ "type": "Feature", "properties": { "P29_001": "15205", "P29_002": "A115320500052", "P29_003": "16011", "P29_004": "柏崎カトリック白百合幼稚園", "P29_005": "新潟県柏崎市柳橋町3-10", "P29_006": "4", "P29_007": "0", "P29_008": "00", "P29_009": null }, "geometry": { "type": "Point", "coordinates": [ 138.550885997855119, 37.36176700036016 ] } },
{ "type": "Feature", "properties": { "P29_001": "15209", "P29_002": "A115320900012", "P29_003": "16011", "P29_004": "加茂葵幼稚園", "P29_005": "新潟県加茂市松坂町6-3", "P29_006": "4", "P29_007": "0", "P29_008": "00", "P29_009": null }, "geometry": { "type": "Point", "coordinates": [ 139.051643726496479, 37.657200211653617 ] } },
{ "type": "Feature", "properties": { "P29_001": "15209", "P29_002": "A115320900021", "P29_003": "16011", "P29_004": "加茂白百合幼稚園", "P29_005": "新潟県加茂市寿町6-22", "P29_006": "4", "P29_007": "0", "P29_008": "00", "P29_009": null }, "geometry": { "type": "Point", "coordinates": [ 139.046474695224788, 37.66005055678589 ] } },
{ "type": "Feature", "properties": { "P29_001": "15209", "P29_002": "A115320900030", "P29_003": "16011", "P29_004": "加茂テモテルーテル幼稚園", "P29_005": "新潟県加茂市新町2-11-17", "P29_006": "4", "P29_007": "0", "P29_008": "00", "P29_009": null }, "geometry": { "type": "Point", "coordinates": [ 139.062240234769547, 37.6545732359303 ] } },
{ "type": "Feature", "properties": { "P29_001": "15210", "P29_002": "A115321000028", "P29_003": "16011", "P29_004": "認定こども園十日町カトリック天使幼稚園", "P29_005": "新潟県十日町市寿町4-4-7", "P29_006": "4", "P29_007": "0", "P29_008": "00", "P29_009": null }, "geometry": { "type": "Point", "coordinates": [ 138.753982455376729, 37.129636916788044 ] } },
{ "type": "Feature", "properties": { "P29_001": "15211", "P29_002": "A115321100018", "P29_003": "16011", "P29_004": "学校法人聖母学園認定こども園見附天使幼稚園", "P29_005": "新潟県見附市学校町2-14-4", "P29_006": "4", "P29_007": "0", "P29_008": "00", "P29_009": null }, "geometry": { "type": "Point", "coordinates": [ 138.923224005442421, 37.53345400139991 ] } },
{ "type": "Feature", "properties": { "P29_001": "15211", "P29_002": "A115321100027", "P29_003": "16011", "P29_004": "認定こども園つぐみ幼稚園", "P29_005": "新潟県見附市今町5-38-18", "P29_006": "4", "P29_007": "0", "P29_008": "00", "P29_009": null }, "geometry": { "type": "Point", "coordinates": [ 138.89242970232155, 37.551174933038276 ] } },
{ "type": "Feature", "properties": { "P29_001": "15212", "P29_002": "A115321200017", "P29_003": "16011", "P29_004": "村上幼稚園", "P29_005": "新潟県村上市新町2-23", "P29_006": "4", "P29_007": "0", "P29_008": "00", "P29_009": null }, "geometry": { "type": "Point", "coordinates": [ 139.48497138293294, 38.225595444487759 ] } },
{ "type": "Feature", "properties": { "P29_001": "15212", "P29_002": "A115321200026", "P29_003": "16011", "P29_004": "あらかわ幼稚園", "P29_005": "新潟県村上市下鍛冶屋359-1", "P29_006": "4", "P29_007": "0", "P29_008": "00", "P29_009": null }, "geometry": { "type": "Point", "coordinates": [ 139.45272100547092, 38.116061999277754 ] } },
{ "type": "Feature", "properties": { "P29_001": "15216", "P29_002": "A115321600013", "P29_003": "16011", "P29_004": "糸魚川カトリック天使幼稚園", "P29_005": "新潟県糸魚川市中央2-1-40", "P29_006": "4", "P29_007": "0", "P29_008": "00", "P29_009": null }, "geometry": { "type": "Point", "coordinates": [ 137.859839749427891, 37.040205518450072 ] } },
{ "type": "Feature", "properties": { "P29_001": "15222", "P29_002": "A115322200015", "P29_003": "16011", "P29_004": "聖公会紅葉幼稚園", "P29_005": "新潟県上越市西城町3-9-17", "P29_006": "4", "P29_007": "0", "P29_008": "00", "P29_009": null }, "geometry": { "type": "Point", "coordinates": [ 138.247219563374813, 37.113263348810541 ] } },
{ "type": "Feature", "properties": { "P29_001": "15222", "P29_002": "A115322200024", "P29_003": "16011", "P29_004": "上越カトリック天使幼稚園", "P29_005": "新潟県上越市西城町2-4-4", "P29_006": "4", "P29_007": "0", "P29_008": "00", "P29_009": null }, "geometry": { "type": "Point", "coordinates": [ 138.249011003288444, 37.111376996165404 ] } },
{ "type": "Feature", "properties": { "P29_001": "15222", "P29_002": "A115322200051", "P29_003": "16011", "P29_004": "真行寺幼稚園", "P29_005": "新潟県上越市中央5-1-1", "P29_006": "4", "P29_007": "0", "P29_008": "00", "P29_009": null }, "geometry": { "type": "Point", "coordinates": [ 138.242703155525504, 37.175051673145589 ] } },
{ "type": "Feature", "properties": { "P29_001": "15225", "P29_002": "A115322500012", "P29_003": "16011", "P29_004": "めぐみ幼稚園", "P29_005": "新潟県魚沼市井口新田360", "P29_006": "4", "P29_007": "0", "P29_008": "00", "P29_009": null }, "geometry": { "type": "Point", "coordinates": [ 138.961751218518458, 37.232828715461324 ] } },
{ "type": "Feature", "properties": { "P29_001": "15361", "P29_002": "A115336100016", "P29_003": "16011", "P29_004": "田上いずみルーテル幼稚園", "P29_005": "新潟県南蒲原郡田上町大字田上丙2821-3", "P29_006": "4", "P29_007": "0", "P29_008": "00", "P29_009": null }, "geometry": { "type": "Point", "coordinates": [ 139.079450253245227, 37.718471784438343 ] } }
]
}
